OBJECTID,Codigo_Interno_del_Situad,Tipo_Contenedor,Modelo,Descripcion_Modelo,Cantidad,Lote,Distrito,Barrio,Tipo_Via,Nombre,Numero,Coordenada_X,Coordenada_Y,Longitud,Latitud,Direccion
2,,RESTO,R0800CT,,,2,HORTALEZA,PINAR DEL REY,,,,445183.6872,4481147.125,-364672152,40.47920326,
3,,RESTO,R0800CT,,,2,HORTALEZA,PINAR DEL REY,,,,445183.7882,4481147.446,-364672035,40.47920617,
4,,RESTO,R0800CT,,,2,HORTALEZA,PINAR DEL REY,,,,445207.0,4481124.0,-364644449,40.47899648,
5,,RESTO,R0800CT,,,2,HORTALEZA,PINAR DEL REY,,,,444913.3554,4481010.887,-364989885,40.47795808,
10,,RESTO,R0800CT,,,2,HORTALEZA,PINAR DEL REY,,,,444743.0,4480206.0,-365183842,40.47069596,
13,,RESTO,R0800CT,,,2,HORTALEZA,PINAR DEL REY,,,,444726.0,4480355.0,-365205193,40.47203709,
16,,RESTO,R0800CT,,,2,HORTALEZA,PINAR DEL REY,,,,445437.0,4480547.0,-364368148,40.47381373,
22,,RESTO,R0800CT,,,2,HORTALEZA,PINAR DEL REY,,,,445486.0,4480555.0,-364310415,40.47388902,
26,,RESTO,R0800CT,,,2,HORTALEZA,PINAR DEL REY,,,,445164.9527,4480611.08,-364689618,40.47437308,
805,,RESTO,E0800CT,,,2,HORTALEZA,PINAR DEL REY,,,,444681.0,4480322.0,-365257987,40.47173681,
818,,RESTO,E0800CT,,,2,HORTALEZA,PINAR DEL REY,,,,444706.7584,4480331.584,-365227686,40.47182487,
829,,RESTO,E0800CT,,,2,HORTALEZA,PINAR DEL REY,,,,444969.3365,4480212.993,-364916921,40.47077398,
3404,,RESTO,R0800CT,,,1,TETUAN,BERRUGUETE,,,,439726.59,4478858.26,-371088227,40.45820615,
5001,,RESTO,R0800CT,,,1,FUENCARRAL-EL PARDO,VALVERDE,,,,440950.72,4483019.89,-369683305,40.49578362,
5002,,RESTO,R0800CT,,,1,FUENCARRAL-EL PARDO,EL GOLOSO,,,,441787.0951,4488932.405,-368750774,40.54910464,
5003,,RESTO,R0800CT,,,2,HORTALEZA,PINAR DEL REY,,,,444698.9992,4480416.959,-365237583,40.47259345,
5004,,RESTO,R0800CT,,,1,FUENCARRAL-EL PARDO,PEÑAGRANDE,,,,438282.43,4481587.71,-372817937,40.48268796,
5005,,RESTO,R0800CT,,,1,FUENCARRAL-EL PARDO,VALVERDE,,,,441610.46,4482853.06,-368903271,40.49432743,
5006,,RESTO,R0800CT,,,1,FUENCARRAL-EL PARDO,EL GOLOSO,,,,441773.6498,4489019.591,-368767456,40.54988909,
5007,,RESTO,R0800CT,,,1,FUENCARRAL-EL PARDO,VALVERDE,,,,440950.72,4483019.89,-369683305,40.49578362,
5008,,RESTO,R0800CT,,,1,FUENCARRAL-EL PARDO,PEÑAGRANDE,,,,438758.95,4481654.09,-372256396,40.48332122,
5009,,RESTO,R0800CT,,,1,FUENCARRAL-EL PARDO,PEÑAGRANDE,,,,438778.54,4481459.38,-372231403,40.48156865,
5010,,RESTO,R0800CT,,,2,CHAMARTIN,CASTILLA,,,,441790.0,4480165.0,-368666737,40.47012492,
5011,,RESTO,R0800CT,,,1,FUENCARRAL-EL PARDO,PEÑAGRANDE,,,,438282.43,4481587.71,-372817937,40.48268796,
5012,,RESTO,R0800CT,,,1,FUENCARRAL-EL PARDO,PEÑAGRANDE,,,,438918.44,4481520.21,-372066943,40.48212693,
5013,,RESTO,R0800CT,,,2,HORTALEZA,PINAR DEL REY,,,,445280.1234,4480581.308,-364553501,40.47411247,
5014,,RESTO,R0800CT,,,2,CHAMARTIN,HISPANOAMERICA,,,,443536.0,4478843.0,-366595459,40.45833624,
5015,,RESTO,R0800CT,,,1,FUENCARRAL-EL PARDO,VALVERDE,,,,441642.83,4481875.6,-368856074,40.48552437,
5016,,RESTO,R0800CT,,,2,CHAMARTIN,PROSPERIDAD,,,,443816.0,4477546.0,-366253763,40.44667121,
5017,,RESTO,R0800CT,,,1,FUENCARRAL-EL PARDO,PEÑAGRANDE,,,,438387.98,4481720.15,-372694700,40.48388886,
5018,,RESTO,R0800CT,,,1,FUENCARRAL-EL PARDO,EL GOLOSO,,,,441720.2479,4488936.147,-368829752,40.54913365,
5019,,RESTO,R0800CT,,,1,LATINA,CARMENES,,,,437306.11,4471831.69,-373873503,40.39472901,
5020,,RESTO,R0800CT,,,2,CHAMARTIN,HISPANOAMERICA,,,,443494.0,4478744.0,-366644111,40.45744155,
5021,,RESTO,R0800CT,,,1,FUENCARRAL-EL PARDO,PEÑAGRANDE,,,,437577.9448,4481121.484,-373644475,40.47843539,
5022,,RESTO,R0800CT,,,1,FUENCARRAL-EL PARDO,PEÑAGRANDE,,,,438778.54,4481459.38,-372231403,40.48156865,
5023,,RESTO,R0800CT,,,1,LATINA,CARMENES,,,,437306.11,4471831.69,-373873503,40.39472901,
5024,,RESTO,R0800CT,,,2,CHAMARTIN,CASTILLA,,,,441934.0,4480598.0,-368500844,40.47403564,
5025,,RESTO,R0800CT,,,2,CHAMARTIN,CIUDAD JARDIN,,,,443028.0,4477899.0,-367186101,40.44979757,
5026,,RESTO,R0800CT,,,2,CHAMARTIN,CASTILLA,,,,441922.0,4480968.0,-368518388,40.47736792,
5027,,RESTO,R0800CT,,,2,CHAMARTIN,CASTILLA,,,,441982.0,4481022.0,-368448101,40.47785857,
5028,,RESTO,R0800CT,,,2,CHAMARTIN,CASTILLA,,,,441999.0,4481146.0,-368429180,40.4789768,
5029,,RESTO,R0800CT,,,2,CHAMARTIN,PROSPERIDAD,,,,442557.0,4476666.0,-367730357,40.4386577,
5030,,RESTO,R0800CT,,,2,CHAMARTIN,CASTILLA,,,,441716.8799,4480303.152,-368754255,40.47136432,
5031,,RESTO,R0800CT,,,2,CHAMARTIN,CIUDAD JARDIN,,,,443236.0,4478003.0,-366941756,40.45074869,
5032,,RESTO,R0800CT,,,2,CHAMARTIN,PROSPERIDAD,,,,442733.0,4476801.0,-367524068,40.43988599,
5033,,RESTO,R0800CT,,,2,CHAMARTIN,CASTILLA,,,,441767.0,4480061.0,-368692912,40.46918643,
5034,,RESTO,R0800CT,,,2,CHAMARTIN,CASTILLA,,,,441767.0,4480061.0,-368692912,40.46918643,
5035,,RESTO,R0800CT,,,2,CHAMARTIN,CASTILLA,,,,441821.0,4480171.0,-368630225,40.47018114,
5036,,RESTO,R0800CT,,,2,CHAMARTIN,CASTILLA,,,,441995.1833,4480814.1,-368430647,40.47598664,
5037,,RESTO,R0800CT,,,2,CHAMARTIN,CASTILLA,,,,441934.6452,4480597.022,-368500074,40.47402688,
5038,,RESTO,R0800CT,,,2,CHAMARTIN,CASTILLA,,,,441821.0,4480422.0,-368632527,40.47244226,
5039,,RESTO,R0800CT,,,2,CHAMARTIN,PROSPERIDAD,,,,442578.0,4476691.0,-367705823,40.43888437,
5040,,RESTO,R0800CT,,,2,CHAMARTIN,CASTILLA,,,,441807.0,4480111.0,-368646189,40.46963966,
5041,,RESTO,R0800CT,,,2,CHAMARTIN,CASTILLA,,,,441973.0244,4481305.385,-368461282,40.48041079,
5042,,RESTO,R0800CT,,,2,CHAMARTIN,PROSPERIDAD,,,,442554.5193,4476813.196,-367734612,40.43998354,
5043,,RESTO,R0800CT,,,2,CHAMARTIN,CASTILLA,,,,441786.0,4480143.0,-368671253,40.46992645,
5044,,RESTO,R0800CT,,,2,CHAMARTIN,PROSPERIDAD,,,,442618.0,4476721.0,-367658934,40.43915738,
5045,,RESTO,R0800CT,,,2,CIUDAD LINEAL,VENTAS,,,,444719.3572,4474974.198,-365166193,40.42356359,
5046,,RESTO,R0800CT,,,2,CHAMARTIN,CASTILLA,,,,441995.0,4480814.0,-368430862,40.47598572,
5047,,RESTO,R0800CT,,,2,CHAMARTIN,CASTILLA,,,,441812.0,4480629.0,-368645043,40.47430637,
5048,,RESTO,R0800CT,,,2,CHAMARTIN,CASTILLA,,,,441973.0,4481201.0,-368460356,40.47947044,
5049,,RESTO,R0800CT,,,2,CHAMARTIN,CASTILLA,,,,441805.0,4480433.0,-368651502,40.47254023,
5050,,RESTO,R0800CT,,,2,CHAMARTIN,HISPANOAMERICA,,,,443588.0,4478738.0,-366533200,40.45739389,
5051,,RESTO,R0800CT,,,2,CHAMARTIN,CASTILLA,,,,441795.0,4480273.0,-368661830,40.47109818,
5052,,RESTO,R0800CT,,,2,CHAMARTIN,CASTILLA,,,,441928.0,4481204.0,-368513471,40.47949432,
5053,,RESTO,R0800CT,,,2,CHAMARTIN,CASTILLA,,,,441859.0,4480449.0,-368587950,40.47268814,
5054,,RESTO,R0800CT,,,2,CHAMARTIN,PROSPERIDAD,,,,442554.5193,4476813.196,-367734612,40.43998354,
5055,,RESTO,R0800CT,,,2,CHAMARTIN,HISPANOAMERICA,,,,443645.0,4478740.0,-366465995,40.45741577,
5056,,RESTO,R0800CT,,,2,CHAMARTIN,HISPANOAMERICA,,,,443619.0,4478461.0,-366494180,40.45490064,
5057,,RESTO,R0800CT,,,2,CHAMARTIN,PROSPERIDAD,,,,443816.0,4477546.0,-366253763,40.44667121,
5058,,RESTO,R0800CT,,,2,CHAMARTIN,HISPANOAMERICA,,,,443492.0,4478309.0,-366642598,40.45352272,
5059,,RESTO,R0800CT,,,2,CHAMARTIN,PROSPERIDAD,,,,442557.0,4476666.0,-367730357,40.4386577,
5060,,RESTO,R0800CT,,,2,CHAMARTIN,PROSPERIDAD,,,,442577.0,4476691.0,-367707002,40.4388843,
5061,,RESTO,R0800CT,,,2,CHAMARTIN,PROSPERIDAD,,,,443705.0,4477757.0,-366386519,40.44856449,
5062,,RESTO,R0800CT,,,2,CHAMARTIN,HISPANOAMERICA,,,,443566.0,4478780.0,-366559519,40.45777075,
5063,,RESTO,R0800CT,,,2,CHAMARTIN,PROSPERIDAD,,,,443705.0,4477757.0,-366386519,40.44856449,
5064,,RESTO,R0800CT,,,2,CHAMARTIN,CIUDAD JARDIN,,,,443236.0,4478003.0,-366941756,40.45074869,
5065,,RESTO,R0800CT,,,2,CHAMARTIN,CIUDAD JARDIN,,,,443236.0,4478003.0,-366941756,40.45074869,
5066,,RESTO,R0800CT,,,2,CHAMARTIN,HISPANOAMERICA,,,,443624.0,4478563.0,-366489189,40.45581984,
5067,,RESTO,R0800CT,,,2,CHAMARTIN,HISPANOAMERICA,,,,443618.0,4478619.0,-366496763,40.45632391,
5068,,RESTO,R0800CT,,,2,CHAMARTIN,HISPANOAMERICA,,,,443607.0,4478614.0,-366509691,40.45627812,
5069,,RESTO,R0800CT,,,2,CHAMARTIN,HISPANOAMERICA,,,,443505.0,4478624.0,-366630070,40.45636128,
5070,,RESTO,R0800CT,,,2,CHAMARTIN,PROSPERIDAD,,,,443736.0,4477701.0,-366349468,40.44806211,
5071,,RESTO,R0800CT,,,2,CHAMARTIN,CASTILLA,,,,441716.8799,4480303.152,-368754255,40.47136432,
5072,,RESTO,R0800CT,,,2,CHAMARTIN,CASTILLA,,,,441738.0,4480020.0,-368726742,40.46881505,
5073,,RESTO,R0800CT,,,2,CHAMARTIN,CASTILLA,,,,441795.0,4480273.0,-368661830,40.47109818,
5074,,RESTO,R0800CT,,,2,CHAMARTIN,CASTILLA,,,,441704.0,4480034.0,-368766975,40.46893879,
5075,,RESTO,R0800CT,,,2,CHAMARTIN,HISPANOAMERICA,,,,443498.0,4478759.0,-366639527,40.45757695,
5076,,RESTO,R0800CT,,,2,CHAMARTIN,CASTILLA,,,,441838.0,4480382.0,-368612108,40.47208311,
5077,,RESTO,R0800CT,,,2,CHAMARTIN,CASTILLA,,,,441811.0,4480254.0,-368642782,40.47092814,
5078,,RESTO,R0800CT,,,2,CHAMARTIN,CASTILLA,,,,441821.0,4480422.0,-368632527,40.47244226,
5079,,RESTO,R0800CT,,,2,CHAMARTIN,CASTILLA,,,,441768.0,4480062.0,-368691742,40.46919551,
5081,,RESTO,R0800CT,,,2,CHAMARTIN,CASTILLA,,,,441934.0,4480599.0,-368500853,40.47404465,
5082,,RESTO,R0800CT,,,2,CHAMARTIN,CASTILLA,,,,441987.0,4480766.0,-368439860,40.47555276,
5083,,RESTO,R0800CT,,,2,CHAMARTIN,PROSPERIDAD,,,,442482.0,4476760.0,-367819633,40.43949932,
5084,,RESTO,R0800CT,,,2,CHAMARTIN,PROSPERIDAD,,,,442482.0,4476760.0,-367819633,40.43949932,
5085,,RESTO,R0800CT,,,2,CHAMARTIN,CIUDAD JARDIN,,,,443028.0,4477899.0,-367186101,40.44979757,
5086,,RESTO,R0800CT,,,2,CHAMARTIN,CIUDAD JARDIN,,,,443206.0,4477899.0,-366976203,40.44980975,
5087,,RESTO,R0800CT,,,2,CHAMARTIN,PROSPERIDAD,,,,443736.0,4477701.0,-366349468,40.44806211,
5088,,RESTO,R0800CT,,,2,CHAMARTIN,CIUDAD JARDIN,,,,443134.0,4477892.0,-367061043,40.44974177,
5089,,RESTO,R0800CT,,,2,CHAMARTIN,PROSPERIDAD,,,,443705.0,4477757.0,-366386519,40.44856449,
5090,,RESTO,R0800CT,,,2,CHAMARTIN,PROSPERIDAD,,,,442605.0,4476854.0,-367675462,40.44035461,
5091,,RESTO,R0800CT,,,2,CHAMARTIN,PROSPERIDAD,,,,442687.0,4476765.0,-367577978,40.43955852,
5092,,RESTO,R0800CT,,,2,CHAMARTIN,PROSPERIDAD,,,,442687.0,4476765.0,-367577978,40.43955852,
5093,,RESTO,R0800CT,,,2,CHAMARTIN,CASTILLA,,,,441968.0,4480960.0,-368464049,40.47729907,
5094,,RESTO,R0800CT,,,2,CHAMARTIN,CASTILLA,,,,442041.0,4481285.0,-368380903,40.4802319,
5095,,RESTO,R0800CT,,,2,CHAMARTIN,PROSPERIDAD,,,,443755.9541,4477513.179,-366324276,40.44637148,
5096,,RESTO,R0800CT,,,2,CHAMARTIN,CASTILLA,,,,441987.0,4480766.0,-368439860,40.47555276,
5097,,RESTO,R0800CT,,,2,CHAMARTIN,CASTILLA,,,,442012.0,4481196.0,-368414301,40.47942813,
5098,,RESTO,R0800CT,,,2,CHAMARTIN,CASTILLA,,,,441987.0,4480766.0,-368439860,40.47555276,
5099,,RESTO,R0800CT,,,2,CHAMARTIN,PROSPERIDAD,,,,442618.0,4476857.0,-367660162,40.44038254,
5100,,RESTO,R0800CT,,,2,CHAMARTIN,CASTILLA,,,,441870.0,4480932.0,-368579401,40.47703998,
5101,,RESTO,R0800CT,,,2,CHAMARTIN,CASTILLA,,,,441971.0,4480867.0,-368459659,40.47646149,
5102,,RESTO,R0800CT,,,2,CHAMARTIN,CASTILLA,,,,441739.0,4480121.0,-368726490,40.46972497,
5103,,RESTO,R0800CT,,,2,CHAMARTIN,CASTILLA,,,,441739.0,4480121.0,-368726490,40.46972497,
5104,,RESTO,R0800CT,,,2,CHAMARTIN,CASTILLA,,,,441891.0,4480611.0,-368551687,40.47414975,
5105,,RESTO,R0800CT,,,2,CHAMARTIN,CASTILLA,,,,441962.0,4481152.0,-368472884,40.47902826,
5106,,RESTO,R0800CT,,,2,CHAMARTIN,CASTILLA,,,,441962.0,4481152.0,-368472884,40.47902826,
5107,,RESTO,R0800CT,,,2,CHAMARTIN,CASTILLA,,,,441803.0,4480669.0,-368656027,40.47466607,
5108,,RESTO,R0800CT,,,2,CHAMARTIN,CASTILLA,,,,441968.0,4480959.0,-368464040,40.47729006,
5109,,RESTO,R0800CT,,,2,CHAMARTIN,CASTILLA,,,,441909.0,4480910.0,-368533192,40.47684452,
5110,,RESTO,R0800CT,,,2,CHAMARTIN,CASTILLA,,,,441884.0,4480886.0,-368562464,40.47662657,
5111,,RESTO,R0800CT,,,2,CHAMARTIN,CASTILLA,,,,442024.0,4481254.0,-368400675,40.47995145,
5112,,RESTO,R0800CT,,,2,CHAMARTIN,CASTILLA,,,,441986.0,4481263.0,-368445587,40.48002987,
5113,,RESTO,R0800CT,,,2,CHAMARTIN,PROSPERIDAD,,,,443870.0,4477443.0,-366189178,40.44574698,
5114,,RESTO,R0800CT,,,2,CHAMARTIN,HISPANOAMERICA,,,,443619.0,4478461.0,-366494180,40.45490064,
5115,,RESTO,R0800CT,,,2,CHAMARTIN,CASTILLA,,,,441702.0,4479923.0,-368768314,40.46793871,
5116,,RESTO,R0800CT,,,2,CHAMARTIN,CASTILLA,,,,441767.0,4480061.0,-368692912,40.46918643,
5117,,RESTO,R0800CT,,,2,CHAMARTIN,CASTILLA,,,,441701.0,4479924.0,-368769503,40.46794765,
5118,,RESTO,R0800CT,,,2,CHAMARTIN,CASTILLA,,,,441774.5,4480001.0,-368683515,40.46864645,
5119,,RESTO,R0800CT,,,2,CHAMARTIN,CASTILLA,,,,441704.0,4480034.0,-368766975,40.46893879,
5120,,RESTO,R0800CT,,,2,CHAMARTIN,CASTILLA,,,,441762.3484,4480064.528,-368698431,40.46921788,
5121,,RESTO,R0800CT,,,2,CHAMARTIN,CASTILLA,,,,441768.0,4480062.0,-368691742,40.46919551,
5122,,RESTO,R0800CT,,,2,CHAMARTIN,CASTILLA,,,,441921.0,4481172.0,-368521436,40.47920556,
5124,,RESTO,R0800CT,,,1,FUENCARRAL-EL PARDO,EL PARDO,,,,434250.35,4485637.77,-377616856,40.51886218,
5127,,RESTO,R0800CT,,,2,CHAMARTIN,CASTILLA,,,,441982.0,4481022.0,-368448101,40.47785857,
5132,,RESTO,R0800CT,,,2,CHAMARTIN,CASTILLA,,,,441838.0,4480382.0,-368612108,40.47208311,
5134,,RESTO,R0800CT,,,1,FUENCARRAL-EL PARDO,EL PARDO,,,,434428.79,4485246.81,-377402177,40.51535448,
5135,,RESTO,R0800CT,,,2,CIUDAD LINEAL,VENTAS,,,,444398.0,4475120.0,-365546268,40.42485564,
5139,,RESTO,R0800CT,,,2,CIUDAD LINEAL,SAN JUAN BAUTISTA,,,,444057.0,4478281.0,-365976062,40.45330871,
5141,,RESTO,R0800CT,,,2,CHAMARTIN,CASTILLA,,,,441771.0,4480115.0,-368688689,40.46967317,
5143,,RESTO,R0800CT,,,1,FUENCARRAL-EL PARDO,EL PARDO,,,,434250.35,4485637.77,-377616856,40.51886218,
5147,,RESTO,R0800CT,,,2,CIUDAD LINEAL,VENTAS,,,,444330.0,4475017.0,-365625523,40.42392321,
5148,,RESTO,R0800CT,,,2,CHAMARTIN,CASTILLA,,,,441821.0,4480172.0,-368630235,40.47019015,
5150,,RESTO,R0800CT,,,1,FUENCARRAL-EL PARDO,EL PARDO,,,,433981.75,4486958.91,-377947694,40.53074187,
5154,,RESTO,R0800CT,,,2,CIUDAD LINEAL,VENTAS,,,,444296.0,4475111.0,-365666424,40.42476774,
5155,,RESTO,R0800CT,,,2,CHAMARTIN,PROSPERIDAD,,,,442557.0,4476666.0,-367730357,40.4386577,
5158,,RESTO,R0800CT,,,1,FUENCARRAL-EL PARDO,EL PARDO,,,,434428.79,4485246.81,-377402177,40.51535448,
5161,,RESTO,R0800CT,,,2,CHAMARTIN,PROSPERIDAD,,,,442578.0,4476691.0,-367705823,40.43888437,
5164,,RESTO,R0800CT,,,1,FUENCARRAL-EL PARDO,EL PARDO,,,,434428.79,4485246.81,-377402177,40.51535448,
5167,,RESTO,R0800CT,,,2,CIUDAD LINEAL,VENTAS,,,,444758.388,4475009.707,-365120494,40.42388607,
5171,,RESTO,R0800CT,,,2,CIUDAD LINEAL,VENTAS,,,,444296.0,4475111.0,-365666424,40.42476774,
5173,,RESTO,R0800CT,,,2,CHAMARTIN,PROSPERIDAD,,,,442618.0457,4476720.979,-367658880,40.4391572,
5174,,RESTO,R0800CT,,,1,FUENCARRAL-EL PARDO,EL PARDO,,,,433862.13,4487376.05,-378093279,40.53448998,
5179,,RESTO,R0800CT,,,2,CIUDAD LINEAL,VENTAS,,,,444118.0,4475206.0,-365877081,40.42561161,
5181,,RESTO,R0800CT,,,2,CHAMARTIN,PROSPERIDAD,,,,442687.0,4476765.0,-367577978,40.43955852,
5182,,RESTO,R0800CT,,,1,FUENCARRAL-EL PARDO,EL PARDO,,,,434087.94,4485905.45,-377811351,40.52126059,
5187,,RESTO,R0800CT,,,2,CIUDAD LINEAL,VENTAS,,,,444318.0,4475005.0,-365639563,40.42381431,
5189,,RESTO,R0800CT,,,2,CHAMARTIN,PROSPERIDAD,,,,442733.0,4476801.0,-367524068,40.43988599,
5195,,RESTO,R0800CT,,,1,FUENCARRAL-EL PARDO,EL PARDO,,,,434106.27,4485537.42,-377785881,40.51794678,
5196,,RESTO,R0800CT,,,2,CHAMARTIN,PROSPERIDAD,,,,442733.0,4476801.0,-367524068,40.43988599,
5201,,RESTO,R0800CT,,,2,CIUDAD LINEAL,CONCEPCION,,,,445200.0,4476752.0,-364614961,40.43961081,
5206,,RESTO,R0800CT,,,1,FUENCARRAL-EL PARDO,EL PARDO,,,,434219.97,4485548.74,-377651791,40.51805778,
5208,,RESTO,R0800CT,,,2,CIUDAD LINEAL,VENTAS,,,,444183.0,4475142.0,-365799898,40.42503943,
5209,,RESTO,R0800CT,,,2,CHAMARTIN,PROSPERIDAD,,,,442618.0,4476857.0,-367660162,40.44038254,
5214,,RESTO,R0800CT,,,1,FUENCARRAL-EL PARDO,EL PARDO,,,,434106.27,4485537.42,-377785881,40.51794678,
5216,,RESTO,R0800CT,,,2,CIUDAD LINEAL,VENTAS,,,,444398.0,4475120.0,-365546268,40.42485564,
5217,,RESTO,R0800CT,,,2,CHAMARTIN,PROSPERIDAD,,,,442552.0,4476805.0,-367737508,40.43990954,
5309,,RESTO,R0800CT,,,2,CIUDAD LINEAL,VENTAS,,,,444352.0,4475037.0,-365599765,40.42410485,
5310,,RESTO,R0800CT,,,2,CHAMARTIN,CIUDAD JARDIN,,,,443206.0,4477899.0,-366976203,40.44980975,
5313,,RESTO,R0800CT,,,2,CHAMARTIN,CIUDAD JARDIN,,,,443206.0,4477899.0,-366976203,40.44980975,
5316,,RESTO,R0800CT,,,2,CIUDAD LINEAL,VENTAS,,,,444207.0,4474934.0,-365769782,40.42316726,
5317,,RESTO,R0800CT,,,1,FUENCARRAL-EL PARDO,EL PARDO,,,,433830.45,4487012.76,-378126882,40.53121489,
5319,,RESTO,R0800CT,,,2,CIUDAD LINEAL,CONCEPCION,,,,445200.0,4476752.0,-364614961,40.43961081,
5322,,RESTO,R0800CT,,,1,FUENCARRAL-EL PARDO,EL PARDO,,,,433915.51,4486895.61,-378025235,40.53016637,
5323,,RESTO,R0800CT,,,2,CIUDAD LINEAL,VENTAS,,,,444691.0,4475568.0,-365204785,40.428911,
5327,,RESTO,R0800CT,,,1,FUENCARRAL-EL PARDO,EL PARDO,,,,433830.45,4487012.76,-378126882,40.53121489,
5328,,RESTO,R0800CT,,,2,CHAMARTIN,CIUDAD JARDIN,,,,443134.0,4477892.0,-367061043,40.44974177,
5330,,RESTO,R0800CT,,,1,FUENCARRAL-EL PARDO,EL PARDO,,,,433915.51,4486895.61,-378025235,40.53016637,
5331,,RESTO,R0800CT,,,2,CHAMARTIN,CIUDAD JARDIN,,,,443206.0,4477899.0,-366976203,40.44980975,
5333,,RESTO,R0800CT,,,2,CIUDAD LINEAL,VENTAS,,,,444413.0,4475044.0,-365527922,40.42417199,
5337,,RESTO,R0800CT,,,1,FUENCARRAL-EL PARDO,EL PARDO,,,,434065.76,4485973.17,-377838238,40.52186886,
5338,,RESTO,R0800CT,,,2,CHAMARTIN,PROSPERIDAD,,,,443816.0,4477546.0,-366253763,40.44667121,
5340,,RESTO,R0800CT,,,2,CIUDAD LINEAL,VENTAS,,,,444374.0,4475058.0,-365574016,40.4242955,
5344,,RESTO,R0800CT,,,1,FUENCARRAL-EL PARDO,EL PARDO,,,,434238.67,4485497.09,-377629181,40.51759399,
5345,,RESTO,R0800CT,,,2,CHAMARTIN,PROSPERIDAD,,,,443870.0,4477443.0,-366189178,40.44574698,
5347,,RESTO,R0800CT,,,2,CIUDAD LINEAL,VENTAS,,,,444130.0,4475150.0,-365862443,40.42510794,
5351,,RESTO,R0800CT,,,1,FUENCARRAL-EL PARDO,EL PARDO,,,,434457.13,4485273.36,-377369001,40.51559588,
5352,,RESTO,R0800CT,,,2,CHAMARTIN,PROSPERIDAD,,,,442618.0,4476721.0,-367658934,40.43915738,
5353,,RESTO,R0800CT,,,2,CIUDAD LINEAL,CONCEPCION,,,,445096.0,4476916.0,-364738998,40.44108135,
5357,,RESTO,R0800CT,,,2,CIUDAD LINEAL,SAN JUAN BAUTISTA,,,,444135.0,4477823.0,-365880049,40.44918806,
5359,,RESTO,R0800CT,,,1,FUENCARRAL-EL PARDO,EL PARDO,,,,434457.13,4485273.36,-377369001,40.51559588,
5360,,RESTO,R0800CT,,,2,CHAMARTIN,PROSPERIDAD,,,,443870.0,4477443.0,-366189178,40.44574698,
5363,,RESTO,R0800CT,,,2,CHAMARTIN,HISPANOAMERICA,,,,443558.0,4478438.0,-366565913,40.4546893,
5364,,RESTO,R0800CT,,,1,FUENCARRAL-EL PARDO,EL PARDO,,,,434457.13,4485273.36,-377369001,40.51559588,
5365,,RESTO,R0800CT,,,2,CIUDAD LINEAL,SAN JUAN BAUTISTA,,,,444105.0,4477891.0,-365916024,40.44979862,
5370,,RESTO,R0800CT,,,2,CHAMARTIN,HISPANOAMERICA,,,,443624.0,4478563.0,-366489189,40.45581984,
5371,,RESTO,R0800CT,,,1,FUENCARRAL-EL PARDO,EL PARDO,,,,434031.66,4485743.48,-377876097,40.51979707,
5372,,RESTO,R0800CT,,,2,CIUDAD LINEAL,CONCEPCION,,,,445141.0,4476845.0,-364685327,40.44044471,
5377,,RESTO,R0800CT,,,2,CHAMARTIN,HISPANOAMERICA,,,,443582.0,4478312.0,-366536490,40.45355586,
5378,,RESTO,R0800CT,,,1,FUENCARRAL-EL PARDO,EL PARDO,,,,434069.02,4485643.99,-377830960,40.51890382,
5379,,RESTO,R0800CT,,,2,CIUDAD LINEAL,VENTAS,,,,444558.4063,4475511.446,-365360599,40.4283927,
5383,,RESTO,R0800CT,,,2,CHAMARTIN,CASTILLA,,,,441901.0,4481077.0,-368544160,40.47834837,
5385,,RESTO,R0800CT,,,2,CIUDAD LINEAL,VENTAS,,,,444691.0,4475568.0,-365204785,40.428911,
5387,,RESTO,R0800CT,,,2,CHAMARTIN,HISPANOAMERICA,,,,443588.15,4478738.283,-366533025,40.45739645,
5390,,RESTO,R0800CT,,,1,FUENCARRAL-EL PARDO,EL PARDO,,,,434031.66,4485743.48,-377876097,40.51979707,
5392,,RESTO,R0800CT,,,2,CHAMARTIN,HISPANOAMERICA,,,,443512.0,4478466.0,-366620409,40.45493842,
5394,,RESTO,R0800CT,,,2,CIUDAD LINEAL,VENTAS,,,,444553.0,4475635.0,-365368050,40.42950539,
5397,,RESTO,R0800CT,,,1,FUENCARRAL-EL PARDO,EL PARDO,,,,434069.02,4485643.99,-377830960,40.51890382,
5399,,RESTO,R0800CT,,,2,CHAMARTIN,HISPANOAMERICA,,,,443508.0,4478408.0,-366624610,40.45441565,
5401,,RESTO,R0800CT,,,2,CIUDAD LINEAL,SAN JUAN BAUTISTA,,,,444135.0,4477823.0,-365880049,40.44918806,
5404,,RESTO,R0800CT,,,1,FUENCARRAL-EL PARDO,EL PARDO,,,,434069.02,4485643.99,-377830960,40.51890382,
5406,,RESTO,R0800CT,,,2,CHAMARTIN,HISPANOAMERICA,,,,443525.0,4478656.0,-366606769,40.45665091,
5408,,RESTO,R0800CT,,,2,CIUDAD LINEAL,VENTAS,,,,444691.0,4475568.0,-365204785,40.428911,
5411,,RESTO,R0800CT,,,1,FUENCARRAL-EL PARDO,EL PARDO,,,,434175.37,4485630.53,-377705286,40.51879101,
5413,,RESTO,R0800CT,,,2,CHAMARTIN,CASTILLA,,,,441821.0,4480422.0,-368632527,40.47244226,
5414,,RESTO,R0800CT,,,2,CIUDAD LINEAL,VENTAS,,,,444510.0,4475138.0,-365414403,40.42502527,
5416,,RESTO,R0800CT,,,2,CIUDAD LINEAL,VENTAS,,,,444183.0,4475142.0,-365799898,40.42503943,
5418,,RESTO,R0800CT,,,1,FUENCARRAL-EL PARDO,EL PARDO,,,,434175.37,4485630.53,-377705286,40.51879101,
5420,,RESTO,R0800CT,,,2,CIUDAD LINEAL,VENTAS,,,,444505.0,4475228.0,-365421082,40.42583571,
5424,,RESTO,R0800CT,,,2,CHAMARTIN,CASTILLA,,,,441821.0,4480422.0,-368632527,40.47244226,
5428,,RESTO,R0800CT,,,2,CHAMARTIN,CASTILLA,,,,441877.0,4480485.0,-368567047,40.47301371,
5430,,RESTO,R0800CT,,,2,CIUDAD LINEAL,VENTAS,,,,444130.0,4475150.0,-365862443,40.42510794,
5433,,RESTO,R0800CT,,,1,FUENCARRAL-EL PARDO,EL PARDO,,,,434175.37,4485630.53,-377705286,40.51879101,
5435,,RESTO,R0800CT,,,2,CHAMARTIN,PROSPERIDAD,,,,443775.0,4477627.0,-366302825,40.44739812,
5437,,RESTO,R0800CT,,,2,CIUDAD LINEAL,VENTAS,,,,444330.0,4475075.0,-365626031,40.42444571,
5440,,RESTO,R0800CT,,,1,FUENCARRAL-EL PARDO,EL PARDO,,,,434204.81,4485797.77,-377672274,40.52029988,
5442,,RESTO,R0800CT,,,2,CHAMARTIN,HISPANOAMERICA,,,,443512.4395,4478465.921,-366619890,40.45493773,
5444,,RESTO,R0800CT,,,2,CIUDAD LINEAL,VENTAS,,,,444351.0962,4475088.836,-365601284,40.42457176,
5511,,RESTO,R0800CT,,,2,CHAMARTIN,HISPANOAMERICA,,,,443620.0,4478416.0,-366492601,40.45449533,
5512,,RESTO,R0800CT,,,2,CHAMARTIN,HISPANOAMERICA,,,,443582.4183,4478311.801,-366535995,40.4535541,
5513,,RESTO,R0800CT,,,2,CHAMARTIN,CASTILLA,,,,441812.0,4480629.0,-368645043,40.47430637,
5514,,RESTO,R0800CT,,,2,CHAMARTIN,HISPANOAMERICA,,,,443508.7215,4478408.638,-366623765,40.45442145,
5515,,RESTO,R0800CT,,,2,CHAMARTIN,CASTILLA,,,,441987.0,4480766.0,-368439860,40.47555276,
5516,,RESTO,R0800CT,,,2,CHAMARTIN,HISPANOAMERICA,,,,443557.8965,4478438.063,-366566035,40.45468987,
5517,,RESTO,R0800CT,,,2,CHAMARTIN,CASTILLA,,,,441771.0,4480115.0,-368688689,40.46967317,
5518,,RESTO,R0800CT,,,2,CIUDAD LINEAL,VENTAS,,,,444466.0,4475186.0,-365466688,40.42545474,
5519,,RESTO,R0800CT,,,2,CIUDAD LINEAL,VENTAS,,,,444719.3572,4474974.198,-365166193,40.42356359,
5520,,RESTO,R0800CT,,,1,FUENCARRAL-EL PARDO,PEÑAGRANDE,,,,438834.1,4481460.48,-372165867,40.48158265,
5521,,RESTO,R0800CT,,,1,FUENCARRAL-EL PARDO,EL PARDO,,,,434272.12,4485387.88,-377588564,40.51661286,
5522,,RESTO,R0800CT,,,1,FUENCARRAL-EL PARDO,EL PARDO,,,,434175.37,4485630.53,-377705286,40.51879101,
5523,,RESTO,R0800CT,,,1,LATINA,CARMENES,,,,437306.11,4471831.69,-373873503,40.39472901,
5524,,RESTO,R0800CT,,,1,FUENCARRAL-EL PARDO,PEÑAGRANDE,,,,438418.56,4480859.69,-372650265,40.47613982,
5525,,RESTO,R0800CT,,,1,LATINA,CARMENES,,,,437959.11,4473011.69,-373115619,40.40540787,
5526,,RESTO,R0800CT,,,1,FUENCARRAL-EL PARDO,PEÑAGRANDE,,,,438523.57,4481727.76,-372534806,40.48396746,
5527,,RESTO,R0800CT,,,1,LATINA,CARMENES,,,,437275.38,4471994.56,-373911314,40.3961939,
5528,,RESTO,R0800CT,,,1,FUENCARRAL-EL PARDO,PEÑAGRANDE,,,,438577.86,4481451.01,-372468074,40.48147843,
5529,,RESTO,R0800CT,,,1,FUENCARRAL-EL PARDO,VALVERDE,,,,441681.89,4483223.56,-368822395,40.49767006,
5530,,RESTO,R0800CT,,,1,LATINA,CARMENES,,,,437044.85,4471943.17,-374182429,40.39571356,
5531,,RESTO,R0800CT,,,1,FUENCARRAL-EL PARDO,PEÑAGRANDE,,,,438030.05,4480997.97,-373109923,40.47735659,
5532,,RESTO,R0800CT,,,1,LATINA,CARMENES,,,,437275.38,4471994.56,-373911314,40.3961939,
5533,,RESTO,R0800CT,,,2,HORTALEZA,PINAR DEL REY,,,,444942.9136,4480053.354,-364946704,40.46933412,
5534,,RESTO,R0800CT,,,1,LATINA,CARMENES,,,,437044.85,4471943.17,-374182429,40.39571356,
5535,,RESTO,R0800CT,,,2,HORTALEZA,PINAR DEL REY,,,,445280.1234,4480581.308,-364553501,40.47411247,
5536,,RESTO,R0800CT,,,1,FUENCARRAL-EL PARDO,PEÑAGRANDE,,,,438117.62,4481031.89,-373006950,40.47766869,
5537,,RESTO,R0800CT,,,1,LATINA,CARMENES,,,,437044.85,4471943.17,-374182429,40.39571356,
5538,,RESTO,R0800CT,,,1,FUENCARRAL-EL PARDO,VALVERDE,,,,441508.5,4483275.72,-369027483,40.49812773,
5539,,RESTO,R0800CT,,,1,FUENCARRAL-EL PARDO,VALVERDE,,,,441381.03,4482489.99,-369170635,40.49104059,
5540,,RESTO,R0800CT,,,1,LATINA,CARMENES,,,,437377.09,4472813.83,-373799533,40.40358189,
5541,,RESTO,R0800CT,,,1,FUENCARRAL-EL PARDO,EL GOLOSO,,,,441720.2124,4488936.276,-368829795,40.5491348,
5542,,RESTO,R0800CT,,,1,FUENCARRAL-EL PARDO,PEÑAGRANDE,,,,438523.57,4481727.76,-372534806,40.48396746,
5543,,RESTO,R0800CT,,,1,LATINA,CARMENES,,,,437377.09,4472813.83,-373799533,40.40358189,
5544,,RESTO,R0800CT,,,1,FUENCARRAL-EL PARDO,EL PARDO,,,,434087.21,4485599.38,-377809024,40.51850341,
5545,,RESTO,R0800CT,,,2,HORTALEZA,PINAR DEL REY,,,,445331.0,4480557.0,-364493276,40.47389684,
5546,,RESTO,R0800CT,,,1,LATINA,CARMENES,,,,437377.09,4472813.83,-373799533,40.40358189,
5547,,RESTO,R0800CT,,,1,FUENCARRAL-EL PARDO,PEÑAGRANDE,,,,437938.7,4481181.33,-373219481,40.47900154,
5548,,RESTO,R0800CT,,,1,FUENCARRAL-EL PARDO,PEÑAGRANDE,,,,438146.84,4480695.27,-372969197,40.47463848,
5549,,RESTO,R0800CT,,,1,LATINA,CARMENES,,,,437377.09,4472813.83,-373799533,40.40358189,
5550,,RESTO,R0800CT,,,1,FUENCARRAL-EL PARDO,VALVERDE,,,,441588.77,4482059.46,-368921550,40.48717685,
5551,,RESTO,R0800CT,,,1,FUENCARRAL-EL PARDO,VALVERDE,,,,441381.03,4482489.99,-369170635,40.49104059,
5552,,RESTO,R0800CT,,,1,LATINA,CARMENES,,,,438697.95,4473351.36,-372248229,40.4085225,
5553,,RESTO,R0800CT,,,1,FUENCARRAL-EL PARDO,PEÑAGRANDE,,,,438282.43,4481587.71,-372817937,40.48268796,
5554,,RESTO,R0800CT,,,1,FUENCARRAL-EL PARDO,PEÑAGRANDE,,,,438523.57,4481727.76,-372534806,40.48396746,
5555,,RESTO,R0800CT,,,1,LATINA,CARMENES,,,,438697.95,4473351.36,-372248229,40.4085225,
5556,,RESTO,R0800CT,,,2,HORTALEZA,PINAR DEL REY,,,,444706.7902,4480331.633,-365227649,40.47182531,
5557,,RESTO,R0800CT,,,2,HORTALEZA,PINAR DEL REY,,,,444699.0,4480417.0,-365237583,40.47259382,
5558,,RESTO,R0800CT,,,1,LATINA,CARMENES,,,,436861.81,4472828.49,-374406875,40.40367504,
5559,,RESTO,R0800CT,,,1,LATINA,CARMENES,,,,437152.3806,4471789.86,-374054218,40.3943406,
5560,,RESTO,R0800CT,,,1,LATINA,CARMENES,,,,436861.81,4472828.49,-374406875,40.40367504,
5561,,RESTO,R0800CT,,,1,LATINA,CARMENES,,,,437152.3806,4471789.86,-374054218,40.3943406,
5562,,RESTO,R0800CT,,,1,LATINA,CARMENES,,,,437109.54,4472756.83,-374114246,40.40304824,
5563,,RESTO,R0800CT,,,1,LATINA,CARMENES,,,,437109.54,4472756.83,-374114246,40.40304824,
5564,,RESTO,R0800CT,,,1,LATINA,CARMENES,,,,437109.54,4472756.83,-374114246,40.40304824,
5565,,RESTO,R0800CT,,,1,LATINA,CARMENES,,,,438542.32,4473184.0,-372430018,40.40700337,
5566,,RESTO,R0800CT,,,1,LATINA,CARMENES,,,,437495.75,4472110.73,-373652803,40.39725698,
5567,,RESTO,R0800CT,,,1,LATINA,CARMENES,,,,438542.32,4473184.0,-372430018,40.40700337,
5568,,RESTO,R0800CT,,,1,LATINA,CARMENES,,,,438518.24,4473040.64,-372457010,40.40571014,
5569,,RESTO,R0800CT,,,1,LATINA,CARMENES,,,,438542.32,4473184.0,-372430018,40.40700337,
5570,,RESTO,R0800CT,,,1,LATINA,CARMENES,,,,437495.75,4472110.73,-373652803,40.39725698,
5571,,RESTO,R0800CT,,,1,LATINA,CARMENES,,,,438518.24,4473040.64,-372457010,40.40571014,
5572,,RESTO,R0800CT,,,1,LATINA,CARMENES,,,,438625.12,4473021.98,-372330880,40.40554993,
5573,,RESTO,R0800CT,,,1,LATINA,CARMENES,,,,438625.12,4473021.98,-372330880,40.40554993,
5574,,RESTO,R0800CT,,,1,LATINA,CARMENES,,,,437390.76,4471984.08,-373775264,40.39610817,
5575,,RESTO,R0800CT,,,1,LATINA,CARMENES,,,,437390.76,4471984.08,-373775264,40.39610817,
5576,,RESTO,R0800CT,,,1,LATINA,CARMENES,,,,437390.76,4471984.08,-373775264,40.39610817,
5577,,RESTO,R0800CT,,,1,LATINA,CARMENES,,,,437021.06,4472723.88,-374218182,40.40274473,
5578,,RESTO,R0800CT,,,1,LATINA,CARMENES,,,,437021.06,4472723.88,-374218182,40.40274473,
5579,,RESTO,R0800CT,,,1,LATINA,CARMENES,,,,437231.38,4471910.53,-373962329,40.39543361,
5580,,RESTO,R0800CT,,,1,LATINA,CARMENES,,,,437231.38,4471910.53,-373962329,40.39543361,
5581,,RESTO,R0800CT,,,1,LATINA,CARMENES,,,,437231.38,4471910.53,-373962329,40.39543361,
5582,,RESTO,R0800CT,,,1,LATINA,CARMENES,,,,437806.71,4472921.83,-373294331,40.404587,
5583,,RESTO,R0800CT,,,1,LATINA,CARMENES,,,,437231.38,4471910.53,-373962329,40.39543361,
5584,,RESTO,R0800CT,,,1,LATINA,CARMENES,,,,437806.71,4472921.83,-373294331,40.404587,
5585,,RESTO,R0800CT,,,1,LATINA,CARMENES,,,,436885.87,4472052.51,-374370830,40.39668651,
5586,,RESTO,R0800CT,,,1,LATINA,CARMENES,,,,437806.71,4472921.83,-373294331,40.404587,
5587,,RESTO,R0800CT,,,1,LATINA,CARMENES,,,,436885.87,4472052.51,-374370830,40.39668651,
5588,,RESTO,R0800CT,,,1,LATINA,CARMENES,,,,437336.83,4471884.17,-373837824,40.39520408,
5589,,RESTO,R0800CT,,,1,LATINA,CARMENES,,,,437336.83,4471884.17,-373837824,40.39520408,
5590,,RESTO,R0800CT,,,1,LATINA,CARMENES,,,,437336.83,4471884.17,-373837824,40.39520408,
5591,,RESTO,R0800CT,,,1,LATINA,CARMENES,,,,437116.63,4471980.28,-374098221,40.39605329,
5592,,RESTO,R0800CT,,,1,LATINA,CARMENES,,,,437401.27,4472223.74,-373765237,40.39826792,
5593,,RESTO,R0800CT,,,1,LATINA,CARMENES,,,,437116.63,4471980.28,-374098221,40.39605329,
5594,,RESTO,R0800CT,,,1,LATINA,CARMENES,,,,438622.72,4472995.15,-372333450,40.40530806,
5595,,RESTO,R0800CT,,,1,LATINA,CARMENES,,,,438624.86,4473064.87,-372331600,40.40593628,
5596,,RESTO,R0800CT,,,1,LATINA,CARMENES,,,,437401.27,4472223.74,-373765237,40.39826792,
5597,,RESTO,R0800CT,,,1,LATINA,CARMENES,,,,438622.72,4472995.15,-372333450,40.40530806,
5598,,RESTO,R0800CT,,,1,LATINA,CARMENES,,,,437401.27,4472223.74,-373765237,40.39826792,
5599,,RESTO,R0800CT,,,1,LATINA,CARMENES,,,,438624.86,4473064.87,-372331600,40.40593628,
5600,,RESTO,R0800CT,,,1,LATINA,CARMENES,,,,437238.1,4472898.85,-373964155,40.40433732,
5601,,RESTO,R0800CT,,,1,LATINA,CARMENES,,,,437238.1,4472898.85,-373964155,40.40433732,
5602,,RESTO,R0800CT,,,1,LATINA,CARMENES,,,,437238.1,4472898.85,-373964155,40.40433732,
5603,,RESTO,R0800CT,,,1,LATINA,CARMENES,,,,437213.33,4472008.55,-373984563,40.39631525,
5604,,RESTO,R0800CT,,,1,LATINA,CARMENES,,,,437213.33,4472008.55,-373984563,40.39631525,
5605,,RESTO,R0800CT,,,1,LATINA,CARMENES,,,,437213.33,4472008.55,-373984563,40.39631525,
5606,,RESTO,R0800CT,,,1,LATINA,CARMENES,,,,436916.47,4472714.98,-374341339,40.40265664,
5607,,RESTO,R0800CT,,,1,LATINA,CARMENES,,,,437213.33,4472008.55,-373984563,40.39631525,
5608,,RESTO,R0800CT,,,1,LATINA,CARMENES,,,,436916.47,4472714.98,-374341339,40.40265664,
5609,,RESTO,R0800CT,,,1,LATINA,CARMENES,,,,437361.31,4471938.48,-373809515,40.39569517,
5610,,RESTO,R0800CT,,,1,LATINA,CARMENES,,,,437361.31,4471938.48,-373809515,40.39569517,
5612,,RESTO,R0800CT,,,1,LATINA,CARMENES,,,,437361.31,4471938.48,-373809515,40.39569517,
5613,,RESTO,R0800CT,,,1,LATINA,CARMENES,,,,437361.31,4471938.48,-373809515,40.39569517,
5614,,RESTO,R0800CT,,,1,LATINA,CARMENES,,,,437289.29,4471808.91,-373893096,40.39452253,
5615,,RESTO,R0800CT,,,1,LATINA,CARMENES,,,,437361.31,4471938.48,-373809515,40.39569517,
5616,,RESTO,R0800CT,,,1,LATINA,CARMENES,,,,437289.29,4471808.91,-373893096,40.39452253,
5617,,RESTO,R0800CT,,,1,LATINA,CARMENES,,,,437289.29,4471808.91,-373893096,40.39452253,
5618,,RESTO,R0800CT,,,1,LATINA,CARMENES,,,,438622.7866,4472944.178,-372332880,40.40484888,
5619,,RESTO,R0800CT,,,1,LATINA,CARMENES,,,,438622.7866,4472944.178,-372332880,40.40484888,
5620,,RESTO,R0800CT,,,1,LATINA,CARMENES,,,,436924.93,4471863.65,-374322936,40.39498814,
5621,,RESTO,R0800CT,,,1,LATINA,CARMENES,,,,436924.93,4471863.65,-374322936,40.39498814,
5622,,RESTO,R0800CT,,,1,LATINA,CARMENES,,,,437581.18,4472193.58,-373552955,40.39800973,
5623,,RESTO,R0800CT,,,1,LATINA,CARMENES,,,,436924.93,4471863.65,-374322936,40.39498814,
5624,,RESTO,R0800CT,,,1,LATINA,CARMENES,,,,438030.13,4472792.9,-373029797,40.4034422,
5625,,RESTO,R0800CT,,,1,LATINA,CARMENES,,,,438030.13,4472792.9,-373029797,40.4034422,
5626,,RESTO,R0800CT,,,1,LATINA,CARMENES,,,,438030.13,4472792.9,-373029797,40.4034422,
5627,,RESTO,R0800CT,,,1,LATINA,CARMENES,,,,436953.71,4471828.49,-374288678,40.39467358,
5628,,RESTO,R0800CT,,,1,LATINA,CARMENES,,,,437414.04,4472018.23,-373748170,40.39641756,
5629,,RESTO,R0800CT,,,1,LATINA,PUERTA DEL ANGEL,,,,437270.77,4473396.54,-373930562,40.40882318,
5630,,RESTO,R0800CT,,,1,LATINA,PUERTA DEL ANGEL,,,,438172.86,4473405.18,-372867555,40.4089685,
5631,,RESTO,R0800CT,,,1,LATINA,CARMENES,,,,436953.71,4471828.49,-374288678,40.39467358,
5632,,RESTO,R0800CT,,,1,LATINA,CARMENES,,,,436948.29,4472726.66,-374303959,40.40276426,
5633,,RESTO,R0800CT,,,1,LATINA,CARMENES,,,,436948.29,4472726.66,-374303959,40.40276426,
5634,,RESTO,R0800CT,,,1,LATINA,CARMENES,,,,436948.29,4472726.66,-374303959,40.40276426,
5635,,RESTO,R0800CT,,,1,LATINA,CARMENES,,,,437093.87,4472867.99,-374133809,40.40404844,
5636,,RESTO,R0800CT,,,1,LATINA,CARMENES,,,,437211.38,4472833.65,-373994998,40.40374796,
5637,,RESTO,R0800CT,,,1,LATINA,CARMENES,,,,437211.38,4472833.65,-373994998,40.40374796,
5638,,RESTO,R0800CT,,,1,LATINA,CARMENES,,,,436986.98,4471793.09,-374249129,40.3943572,
5639,,RESTO,R0800CT,,,1,LATINA,CARMENES,,,,436986.98,4471793.09,-374249129,40.3943572,
5640,,RESTO,R0800CT,,,1,LATINA,CARMENES,,,,436986.98,4471793.09,-374249129,40.3943572,
5641,,RESTO,R0800CT,,,1,LATINA,PUERTA DEL ANGEL,,,,437178.48,4472908.71,-374034508,40.40442165,
5642,,RESTO,R0800CT,,,1,LATINA,PUERTA DEL ANGEL,,,,437178.48,4472908.71,-374034508,40.40442165,
5643,,RESTO,R0800CT,,,1,LATINA,CARMENES,,,,437853.36,4472722.14,-373237409,40.40279159,
5644,,RESTO,R0800CT,,,1,LATINA,CARMENES,,,,437853.36,4472722.14,-373237409,40.40279159,
5645,,RESTO,R0800CT,,,1,LATINA,PUERTA DEL ANGEL,,,,437178.48,4472908.71,-374034508,40.40442165,
5646,,RESTO,R0800CT,,,1,LATINA,CARMENES,,,,437853.36,4472722.14,-373237409,40.40279159,
5647,,RESTO,R0800CT,,,1,LATINA,LUCERO,,,,436200.53,4473168.45,-375189522,40.40668712,
5648,,RESTO,R0800CT,,,1,LATINA,LUCERO,,,,436066.0425,4473035.205,-375346668,40.40547648,
5649,,RESTO,R0800CT,,,1,LATINA,LUCERO,,,,436340.44,4472042.61,-375013389,40.39655581,
5650,,RESTO,R0800CT,,,1,LATINA,PUERTA DEL ANGEL,,,,438503.7,4473855.9,-372482023,40.41305329,
5651,,RESTO,R0800CT,,,1,LATINA,PUERTA DEL ANGEL,,,,438010.19,4473794.5,-373063051,40.41246357,
5652,,RESTO,R0800CT,,,1,LATINA,LUCERO,,,,436746.59,4471888.55,-374533309,40.39519892,
5653,,RESTO,R0800CT,,,2,HORTALEZA,PINAR DEL REY,,,,444817.0,4480263.0,-365097049,40.47121436,
5654,,RESTO,R0800CT,,,1,LATINA,CARMENES,,,,437973.27,4472767.38,-373096552,40.40320807,
5655,,RESTO,R0800CT,,,1,LATINA,PUERTA DEL ANGEL,,,,438010.19,4473794.5,-373063051,40.41246357,
5656,,RESTO,R0800CT,,,1,LATINA,PUERTA DEL ANGEL,,,,438340.87,4473629.5,-372671733,40.41100174,
5657,,RESTO,R0800CT,,,1,LATINA,PUERTA DEL ANGEL,,,,437270.77,4473396.54,-373930562,40.40882318,
5658,,RESTO,R0800CT,,,2,HORTALEZA,PINAR DEL REY,,,,444811.1803,4480310.821,-365104330,40.47164477,
5659,,RESTO,R0800CT,,,1,LATINA,CARMENES,,,,437414.04,4472018.23,-373748170,40.39641756,
5660,,RESTO,R0800CT,,,1,LATINA,LUCERO,,,,436436.88,4473126.08,-374910576,40.40632352,
5661,,RESTO,R0800CT,,,1,LATINA,LUCERO,,,,436746.59,4471888.55,-374533309,40.39519892,
5662,,RESTO,R0800CT,,,1,LATINA,LUCERO,,,,436431.38,4472898.62,-374914786,40.40427405,
5663,,RESTO,R0800CT,,,1,LATINA,PUERTA DEL ANGEL,,,,437859.86,4473886.81,-373241123,40.41328392,
5664,,RESTO,R0800CT,,,1,LATINA,PUERTA DEL ANGEL,,,,438503.7,4473855.9,-372482023,40.41305329,
5665,,RESTO,R0800CT,,,1,LATINA,PUERTA DEL ANGEL,,,,437270.77,4473396.54,-373930562,40.40882318,
5666,,RESTO,R0800CT,,,2,HORTALEZA,PINAR DEL REY,,,,444811.3161,4480310.593,-365104168,40.47164272,
5667,,RESTO,R0800CT,,,1,LATINA,CARMENES,,,,437973.27,4472767.38,-373096552,40.40320807,
5668,,RESTO,R0800CT,,,1,LATINA,LUCERO,,,,436959.3,4473254.69,-374296216,40.40752181,
5669,,RESTO,R0800CT,,,1,LATINA,LUCERO,,,,436652.04,4472896.44,-374654740,40.40427123,
5670,,RESTO,R0800CT,,,1,LATINA,LUCERO,,,,436431.38,4472898.62,-374914786,40.40427405,
5671,,RESTO,R0800CT,,,1,LATINA,LUCERO,,,,436340.44,4472042.61,-375013389,40.39655581,
5672,,RESTO,R0800CT,,,1,LATINA,LUCERO,,,,436429.21,4473294.69,-374921299,40.40784184,
5673,,RESTO,R0800CT,,,1,LATINA,LUCERO,,,,437023.08,4473187.3,-374220387,40.40691956,
5674,,RESTO,R0800CT,,,1,LATINA,LUCERO,,,,436429.21,4473294.69,-374921299,40.40784184,
5675,,RESTO,R0800CT,,,1,LATINA,LUCERO,,,,436429.21,4473294.69,-374921299,40.40784184,
5676,,RESTO,R0800CT,,,1,LATINA,LUCERO,,,,437023.08,4473187.3,-374220387,40.40691956,
5677,,RESTO,R0800CT,,,1,LATINA,LUCERO,,,,437035.21,4473137.86,-374205604,40.4064751,
5678,,RESTO,R0800CT,,,1,LATINA,LUCERO,,,,436712.9,4472971.42,-374583769,40.4049513,
5679,,RESTO,R0800CT,,,1,LATINA,LUCERO,,,,436712.9,4472971.42,-374583769,40.4049513,
5680,,RESTO,R0800CT,,,1,LATINA,LUCERO,,,,437035.21,4473137.86,-374205604,40.4064751,
5681,,RESTO,R0800CT,,,1,LATINA,LUCERO,,,,437035.21,4473137.86,-374205604,40.4064751,
5682,,RESTO,R0800CT,,,1,LATINA,LUCERO,,,,436549.44,4472658.16,-374773268,40.40211689,
5683,,RESTO,R0800CT,,,1,LATINA,LUCERO,,,,436368.36,4471952.27,-374979589,40.39574413,
5684,,RESTO,R0800CT,,,1,LATINA,LUCERO,,,,436549.44,4472658.16,-374773268,40.40211689,
5685,,RESTO,R0800CT,,,1,LATINA,LUCERO,,,,435551.6,4472862.05,-375951139,40.40387697,
5686,,RESTO,R0800CT,,,1,LATINA,LUCERO,,,,436538.5,4472753.78,-374787112,40.40297744,
5687,,RESTO,R0800CT,,,1,LATINA,LUCERO,,,,436368.36,4471952.27,-374979589,40.39574413,
5688,,RESTO,R0800CT,,,1,LATINA,LUCERO,,,,435551.6,4472862.05,-375951139,40.40387697,
5689,,RESTO,R0800CT,,,1,LATINA,LUCERO,,,,436413.03,4472032.64,-374927759,40.39647155,
5690,,RESTO,R0800CT,,,1,LATINA,LUCERO,,,,436413.03,4472032.64,-374927759,40.39647155,
5691,,RESTO,R0800CT,,,1,LATINA,LUCERO,,,,436413.03,4472032.64,-374927759,40.39647155,
5692,,RESTO,R0800CT,,,1,LATINA,LUCERO,,,,436203.87,4472796.9,-375181862,40.40334031,
5693,,RESTO,R0800CT,,,1,LATINA,LUCERO,,,,436781.14,4473149.94,-374505128,40.40656467,
5694,,RESTO,R0800CT,,,1,LATINA,LUCERO,,,,436781.14,4473149.94,-374505128,40.40656467,
5695,,RESTO,R0800CT,,,1,LATINA,LUCERO,,,,436781.14,4473149.94,-374505128,40.40656467,
5696,,RESTO,R0800CT,,,1,LATINA,LUCERO,,,,436203.87,4472796.9,-375181862,40.40334031,
5697,,RESTO,R0800CT,,,1,LATINA,LUCERO,,,,436673.07,4472541.79,-374626430,40.40107799,
5698,,RESTO,R0800CT,,,1,LATINA,LUCERO,,,,436673.07,4472541.79,-374626430,40.40107799,
5699,,RESTO,R0800CT,,,1,LATINA,LUCERO,,,,436673.07,4472541.79,-374626430,40.40107799,
5700,,RESTO,R0800CT,,,1,LATINA,LUCERO,,,,436673.07,4472541.79,-374626430,40.40107799,
5701,,RESTO,R0800CT,,,1,LATINA,LUCERO,,,,436673.07,4472541.79,-374626430,40.40107799,
5702,,RESTO,R0800CT,,,1,LATINA,LUCERO,,,,436733.24,4472724.0,-374557341,40.40272399,
5703,,RESTO,R0800CT,,,1,LATINA,LUCERO,,,,436733.24,4472724.0,-374557341,40.40272399,
5704,,RESTO,R0800CT,,,1,LATINA,LUCERO,,,,436733.24,4472724.0,-374557341,40.40272399,
5705,,RESTO,R0800CT,,,1,LATINA,ALUCHE,,,,436759.95,4471546.93,-374514175,40.39212248,
5706,,RESTO,R0800CT,,,1,LATINA,CAMPAMENTO,,,,434046.5,4472106.11,-377716884,40.39694934,
5707,,RESTO,R0800CT,,,1,LATINA,CARMENES,,,,436861.03,4472880.65,-374408311,40.40414486,
5708,,RESTO,R0800CT,,,1,LATINA,CARMENES,,,,437024.38,4472015.68,-374207265,40.39636522,
5709,,RESTO,R0800CT,,,1,LATINA,CARMENES,,,,436861.03,4472880.65,-374408311,40.40414486,
5710,,RESTO,R0800CT,,,1,LATINA,CARMENES,,,,436861.03,4472880.65,-374408311,40.40414486,
5711,,RESTO,R0800CT,,,1,LATINA,CARMENES,,,,437024.38,4472015.68,-374207265,40.39636522,
5712,,RESTO,R0800CT,,,1,LATINA,CARMENES,,,,438666.41,4473187.88,-372283822,40.40704748,
5713,,RESTO,R0800CT,,,1,LATINA,CARMENES,,,,437024.38,4472015.68,-374207265,40.39636522,
5714,,RESTO,R0800CT,,,1,LATINA,CARMENES,,,,438666.41,4473187.88,-372283822,40.40704748,
5715,,RESTO,R0800CT,,,1,LATINA,CARMENES,,,,438666.41,4473187.88,-372283822,40.40704748,
5716,,RESTO,R0800CT,,,1,LATINA,CARMENES,,,,437386.44,4472095.9,-373781454,40.39711517,
5717,,RESTO,R0800CT,,,1,LATINA,CARMENES,,,,437386.44,4472095.9,-373781454,40.39711517,
5718,,RESTO,R0800CT,,,1,LATINA,CARMENES,,,,437323.08,4472079.48,-373855947,40.39696249,
5719,,RESTO,R0800CT,,,1,LATINA,CARMENES,,,,438676.08,4473221.0,-372272746,40.40734655,
5720,,RESTO,R0800CT,,,1,LATINA,CARMENES,,,,437323.08,4472079.48,-373855947,40.39696249,
5721,,RESTO,R0800CT,,,1,LATINA,CARMENES,,,,437323.08,4472079.48,-373855947,40.39696249,
5722,,RESTO,R0800CT,,,1,LATINA,CARMENES,,,,438686.37,4473261.62,-372261011,40.40771323,
5723,,RESTO,R0800CT,,,1,LATINA,CARMENES,,,,437136.48,4471883.84,-374073880,40.39518601,
5724,,RESTO,R0800CT,,,1,LATINA,CARMENES,,,,437136.48,4471883.84,-374073880,40.39518601,
5725,,RESTO,R0800CT,,,1,LATINA,CARMENES,,,,437300.55,4472216.64,-373883844,40.39819639,
5726,,RESTO,R0800CT,,,1,LATINA,CARMENES,,,,437300.55,4472216.64,-373883844,40.39819639,
5727,,RESTO,R0800CT,,,1,LATINA,CARMENES,,,,437015.19,4472871.47,-374226560,40.40407384,
5728,,RESTO,R0800CT,,,1,LATINA,CARMENES,,,,437015.19,4472871.47,-374226560,40.40407384,
5729,,RESTO,R0800CT,,,1,LATINA,CARMENES,,,,437074.47,4472868.65,-374156677,40.40405292,
5730,,RESTO,R0800CT,,,1,LATINA,CARMENES,,,,437074.47,4472868.65,-374156677,40.40405292,
5731,,RESTO,R0800CT,,,1,LATINA,CARMENES,,,,437455.67,4472069.33,-373699621,40.39688102,
5732,,RESTO,R0800CT,,,1,LATINA,CARMENES,,,,437455.67,4472069.33,-373699621,40.39688102,
5733,,RESTO,R0800CT,,,1,LATINA,CARMENES,,,,438547.88,4473077.45,-372422437,40.40604393,
5734,,RESTO,R0800CT,,,1,LATINA,CARMENES,,,,438547.88,4473077.45,-372422437,40.40604393,
5735,,RESTO,R0800CT,,,1,LATINA,CARMENES,,,,437455.67,4472069.33,-373699621,40.39688102,
5736,,RESTO,R0800CT,,,1,LATINA,CARMENES,,,,438547.88,4473077.45,-372422437,40.40604393,
5737,,RESTO,R0800CT,,,1,LATINA,CARMENES,,,,438580.3601,4473333.896,-372386637,40.40835651,
5738,,RESTO,R0800CT,,,1,LATINA,CARMENES,,,,437116.67,4471835.64,-374096745,40.39475031,
5739,,RESTO,R0800CT,,,1,LATINA,CARMENES,,,,438580.3601,4473333.896,-372386637,40.40835651,
5740,,RESTO,R0800CT,,,1,LATINA,CARMENES,,,,437116.67,4471835.64,-374096745,40.39475031,
5741,,RESTO,R0800CT,,,1,LATINA,CARMENES,,,,438697.75,4473292.24,-372247895,40.40798991,
5742,,RESTO,R0800CT,,,1,LATINA,CARMENES,,,,437974.93,4472939.6,-373096274,40.40475963,
5743,,RESTO,R0800CT,,,1,LATINA,CARMENES,,,,437974.93,4472939.6,-373096274,40.40475963,
5744,,RESTO,R0800CT,,,1,LATINA,CARMENES,,,,437974.93,4472939.6,-373096274,40.40475963,
5745,,RESTO,R0800CT,,,1,LATINA,CARMENES,,,,438697.75,4473292.24,-372247895,40.40798991,
5746,,RESTO,R0800CT,,,1,LATINA,CARMENES,,,,436854.76,4472214.14,-374409088,40.39814018,
5747,,RESTO,R0800CT,,,1,LATINA,CARMENES,,,,436854.76,4472214.14,-374409088,40.39814018,
5748,,RESTO,R0800CT,,,1,LATINA,CARMENES,,,,437275.26,4472858.28,-373919966,40.40397465,
5749,,RESTO,R0800CT,,,1,LATINA,CARMENES,,,,437275.26,4472858.28,-373919966,40.40397465,
5750,,RESTO,R0800CT,,,1,LATINA,CARMENES,,,,437275.26,4472858.28,-373919966,40.40397465,
5751,,RESTO,R0800CT,,,1,LATINA,CARMENES,,,,437117.5,4472912.92,-374106408,40.40445497,
5752,,RESTO,R0800CT,,,1,LATINA,CARMENES,,,,437275.26,4472858.28,-373919966,40.40397465,
5753,,RESTO,R0800CT,,,1,LATINA,CARMENES,,,,437117.5,4472912.92,-374106408,40.40445497,
5754,,RESTO,R0800CT,,,1,LATINA,CARMENES,,,,437363.39,4472860.14,-373816133,40.40399804,
5755,,RESTO,R0800CT,,,1,LATINA,CARMENES,,,,437179.13,4472862.71,-374033288,40.40400731,
5756,,RESTO,R0800CT,,,1,LATINA,CARMENES,,,,437179.13,4472862.71,-374033288,40.40400731,
5757,,RESTO,R0800CT,,,1,LATINA,CARMENES,,,,437050.0003,4472090.008,-374177812,40.39703673,
5758,,RESTO,R0800CT,,,1,LATINA,CARMENES,,,,437897.81,4472729.01,-373185098,40.4028568,
5759,,RESTO,R0800CT,,,1,LATINA,CARMENES,,,,437050.0003,4472090.008,-374177812,40.39703673,
5760,,RESTO,R0800CT,,,1,LATINA,CARMENES,,,,437050.0003,4472090.008,-374177812,40.39703673,
5761,,RESTO,R0800CT,,,1,LATINA,CARMENES,,,,437897.81,4472729.01,-373185098,40.4028568,
5762,,RESTO,R0800CT,,,1,LATINA,CARMENES,,,,437155.78,4472175.26,-374054017,40.39781271,
5763,,RESTO,R0800CT,,,1,LATINA,CARMENES,,,,437101.15,4472145.79,-374118095,40.3975431,
5764,,RESTO,R0800CT,,,1,LATINA,CARMENES,,,,437155.78,4472175.26,-374054017,40.39781271,
5765,,RESTO,R0800CT,,,1,LATINA,CARMENES,,,,437101.15,4472145.79,-374118095,40.3975431,
5766,,RESTO,R0800CT,,,1,LATINA,CARMENES,,,,437155.78,4472175.26,-374054017,40.39781271,
5767,,RESTO,R0800CT,,,1,LATINA,CARMENES,,,,437101.15,4472145.79,-374118095,40.3975431,
5768,,RESTO,R0800CT,,,1,LATINA,PUERTA DEL ANGEL,,,,437384.39,4473550.82,-373798182,40.41022155,
5769,,RESTO,R0800CT,,,1,LATINA,PUERTA DEL ANGEL,,,,438503.7,4473855.9,-372482023,40.41305329,
5770,,RESTO,R0800CT,,,1,LATINA,CARMENES,,,,437414.04,4472018.23,-373748170,40.39641756,
5771,,RESTO,R0800CT,,,1,LATINA,LUCERO,,,,436914.76,4472979.19,-374345973,40.40503662,
5772,,RESTO,R0800CT,,,1,LATINA,LUCERO,,,,436652.04,4472896.44,-374654740,40.40427123,
5773,,RESTO,R0800CT,,,2,HORTALEZA,PINAR DEL REY,,,,444791.0,4480376.0,-365128702,40.47223059,
5774,,RESTO,R0800CT,,,1,LATINA,PUERTA DEL ANGEL,,,,437208.85,4473249.61,-374002083,40.40749491,
5775,,RESTO,R0800CT,,,1,LATINA,PUERTA DEL ANGEL,,,,437683.1,4473588.29,-373446520,40.41058151,
5776,,RESTO,R0800CT,,,1,LATINA,LUCERO,,,,436652.04,4472896.44,-374654740,40.40427123,
5777,,RESTO,R0800CT,,,2,HORTALEZA,PINAR DEL REY,,,,444726.0,4480355.0,-365205193,40.47203709,
5778,,RESTO,R0800CT,,,1,LATINA,PUERTA DEL ANGEL,,,,437384.39,4473550.82,-373798182,40.41022155,
5779,,RESTO,R0800CT,,,1,LATINA,CARMENES,,,,437973.27,4472767.38,-373096552,40.40320807,
5780,,RESTO,R0800CT,,,1,LATINA,LUCERO,,,,436914.76,4472979.19,-374345973,40.40503662,
5781,,RESTO,R0800CT,,,1,LATINA,LUCERO,,,,436436.88,4473126.08,-374910576,40.40632352,
5782,,RESTO,R0800CT,,,1,LATINA,PUERTA DEL ANGEL,,,,437286.79,4473366.91,-373911391,40.40855747,
5783,,RESTO,R0800CT,,,1,LATINA,PUERTA DEL ANGEL,,,,437093.03,4473052.03,-374136618,40.40570628,
5784,,RESTO,R0800CT,,,1,LATINA,PUERTA DEL ANGEL,,,,437061.3681,4473156.093,-374174958,40.40664133,
5785,,RESTO,R0800CT,,,1,LATINA,PUERTA DEL ANGEL,,,,437683.1,4473588.29,-373446520,40.41058151,
5786,,RESTO,R0800CT,,,1,LATINA,LUCERO,,,,436959.3,4473254.69,-374296216,40.40752181,
5787,,RESTO,R0800CT,,,1,LATINA,PUERTA DEL ANGEL,,,,437286.79,4473366.91,-373911391,40.40855747,
5788,,RESTO,R0800CT,,,2,HORTALEZA,PINAR DEL REY,,,,444709.0,4480235.0,-365224200,40.47095494,
5789,,RESTO,R0800CT,,,1,LATINA,PUERTA DEL ANGEL,,,,437093.03,4473052.03,-374136618,40.40570628,
5790,,RESTO,R0800CT,,,1,LATINA,PUERTA DEL ANGEL,,,,437859.86,4473886.81,-373241123,40.41328392,
5791,,RESTO,R0800CT,,,1,LATINA,PUERTA DEL ANGEL,,,,437474.32,4473353.36,-373690259,40.40844951,
5792,,RESTO,R0800CT,,,1,LATINA,PUERTA DEL ANGEL,,,,437141.54,4473295.92,-374081862,40.40790701,
5793,,RESTO,R0800CT,,,2,HORTALEZA,PINAR DEL REY,,,,444721.0,4480200.0,-365209740,40.47064044,
5794,,RESTO,R0800CT,,,1,LATINA,PUERTA DEL ANGEL,,,,437991.57,4473350.35,-373080667,40.40846109,
5795,,RESTO,R0800CT,,,1,LATINA,PUERTA DEL ANGEL,,,,438275.96,4473438.92,-372746381,40.4092801,
5796,,RESTO,R0800CT,,,1,LATINA,PUERTA DEL ANGEL,,,,437061.0785,4473156.269,-374175301,40.40664289,
5797,,RESTO,R0800CT,,,1,LATINA,LUCERO,,,,436386.81,4473300.59,-374971324,40.40789175,
5798,,RESTO,R0800CT,,,1,LATINA,PUERTA DEL ANGEL,,,,437060.8537,4473156.194,-374175566,40.4066422,
5799,,RESTO,R0800CT,,,1,LATINA,PUERTA DEL ANGEL,,,,437474.32,4473353.36,-373690259,40.40844951,
5800,,RESTO,R0800CT,,,1,LATINA,PUERTA DEL ANGEL,,,,438209.92,4473828.13,-372827988,40.41278137,
5801,,RESTO,R0800CT,,,1,LATINA,LUCERO,,,,436914.76,4472979.19,-374345973,40.40503662,
5802,,RESTO,R0800CT,,,1,LATINA,PUERTA DEL ANGEL,,,,437244.76,4473287.65,-373960140,40.40784029,
5803,,RESTO,R0800CT,,,2,HORTALEZA,CANILLAS,,,,445219.5788,4479458.779,-364615229,40.46399618,
5804,,RESTO,R0800CT,,,1,LATINA,LUCERO,,,,436392.34,4472910.88,-374960913,40.40438151,
5805,,RESTO,R0800CT,,,1,LATINA,PUERTA DEL ANGEL,,,,437991.57,4473350.35,-373080667,40.40846109,
5806,,RESTO,R0800CT,,,1,LATINA,PUERTA DEL ANGEL,,,,438326.2,4473740.97,-372690102,40.41200482,
5807,,RESTO,R0800CT,,,1,LATINA,LUCERO,,,,436386.81,4473300.59,-374971324,40.40789175,
5808,,RESTO,R0800CT,,,1,LATINA,PUERTA DEL ANGEL,,,,438209.92,4473828.13,-372827988,40.41278137,
5809,,RESTO,R0800CT,,,2,HORTALEZA,PINAR DEL REY,,,,444742.9957,4480206.138,-365183848,40.4706972,
5810,,RESTO,R0800CT,,,1,LATINA,PUERTA DEL ANGEL,,,,438326.2,4473740.97,-372690102,40.41200482,
5811,,RESTO,R0800CT,,,1,LATINA,LUCERO,,,,436673.8222,4472058.324,-374620735,40.39672278,
5812,,RESTO,R0800CT,,,1,LATINA,PUERTA DEL ANGEL,,,,438389.56,4473527.93,-372613367,40.41009035,
5813,,RESTO,R0800CT,,,1,LATINA,PUERTA DEL ANGEL,,,,437244.76,4473287.65,-373960140,40.40784029,
5814,,RESTO,R0800CT,,,1,LATINA,LUCERO,,,,436392.34,4472910.88,-374960913,40.40438151,
5815,,RESTO,R0800CT,,,1,LATINA,PUERTA DEL ANGEL,,,,438437.6,4473617.78,-372557621,40.41090332,
5816,,RESTO,R0800CT,,,1,LATINA,PUERTA DEL ANGEL,,,,437736.45,4473786.31,-373385584,40.41236935,
5817,,RESTO,R0800CT,,,1,LATINA,LUCERO,,,,436673.8222,4472058.324,-374620735,40.39672278,
5818,,RESTO,R0800CT,,,1,LATINA,PUERTA DEL ANGEL,,,,438411.88,4473641.88,-372588166,40.41111852,
5819,,RESTO,R0800CT,,,1,LATINA,LUCERO,,,,436149.78,4473214.43,-375249789,40.40709744,
5820,,RESTO,R0800CT,,,2,HORTALEZA,CANILLAS,,,,445167.0,4479480.0,-364677427,40.46418388,
5821,,RESTO,R0800CT,,,1,LATINA,PUERTA DEL ANGEL,,,,438389.56,4473527.93,-372613367,40.41009035,
5822,,RESTO,R0800CT,,,1,LATINA,PUERTA DEL ANGEL,,,,438423.82,4473835.27,-372575966,40.41286154,
5823,,RESTO,R0800CT,,,1,LATINA,PUERTA DEL ANGEL,,,,437736.45,4473786.31,-373385584,40.41236935,
5824,,RESTO,R0800CT,,,1,LATINA,PUERTA DEL ANGEL,,,,438097.3505,4473358.396,-372956086,40.40854144,
5825,,RESTO,R0800CT,,,1,LATINA,PUERTA DEL ANGEL,,,,438097.4753,4473358.876,-372955944,40.40854577,
5826,,RESTO,R0800CT,,,1,LATINA,PUERTA DEL ANGEL,,,,437997.86,4473430.77,-373074038,40.40918601,
5827,,RESTO,R0800CT,,,1,LATINA,PUERTA DEL ANGEL,,,,437231.58,4472973.38,-373972573,40.40500823,
5828,,RESTO,R0800CT,,,1,LATINA,PUERTA DEL ANGEL,,,,437997.86,4473430.77,-373074038,40.40918601,
5829,,RESTO,R0800CT,,,1,LATINA,PUERTA DEL ANGEL,,,,437997.86,4473430.77,-373074038,40.40918601,
5830,,RESTO,R0800CT,,,1,LATINA,PUERTA DEL ANGEL,,,,437956.97,4473550.92,-373123398,40.41026533,
5831,,RESTO,R0800CT,,,1,LATINA,PUERTA DEL ANGEL,,,,438617.7,4473543.65,-372344656,40.41024882,
5832,,RESTO,R0800CT,,,1,LATINA,PUERTA DEL ANGEL,,,,438617.7,4473543.65,-372344656,40.41024882,
5833,,RESTO,R0800CT,,,1,LATINA,PUERTA DEL ANGEL,,,,437231.58,4472973.38,-373972573,40.40500823,
5834,,RESTO,R0800CT,,,1,LATINA,PUERTA DEL ANGEL,,,,438617.7,4473543.65,-372344656,40.41024882,
5835,,RESTO,R0800CT,,,1,LATINA,PUERTA DEL ANGEL,,,,437956.97,4473550.92,-373123398,40.41026533,
5836,,RESTO,R0800CT,,,1,LATINA,PUERTA DEL ANGEL,,,,437903.76,4473907.2,-373189583,40.41347088,
5837,,RESTO,R0800CT,,,1,LATINA,PUERTA DEL ANGEL,,,,437588.43,4473198.07,-373554261,40.40705916,
5838,,RESTO,R0800CT,,,1,LATINA,PUERTA DEL ANGEL,,,,438336.05,4473595.6,-372677084,40.41069599,
5839,,RESTO,R0800CT,,,1,LATINA,PUERTA DEL ANGEL,,,,437903.76,4473907.2,-373189583,40.41347088,
5840,,RESTO,R0800CT,,,1,LATINA,PUERTA DEL ANGEL,,,,438336.05,4473595.6,-372677084,40.41069599,
5841,,RESTO,R0800CT,,,1,LATINA,PUERTA DEL ANGEL,,,,438336.05,4473595.6,-372677084,40.41069599,
5842,,RESTO,R0800CT,,,1,LATINA,PUERTA DEL ANGEL,,,,438146.09,4473528.23,-372900299,40.410075,
5843,,RESTO,R0800CT,,,1,LATINA,PUERTA DEL ANGEL,,,,438146.09,4473528.23,-372900299,40.410075,
5844,,RESTO,R0800CT,,,1,LATINA,PUERTA DEL ANGEL,,,,437557.45,4473075.44,-373589566,40.40595213,
5845,,RESTO,R0800CT,,,1,LATINA,PUERTA DEL ANGEL,,,,437868.9,4473413.54,-373225847,40.40902118,
5846,,RESTO,R0800CT,,,1,LATINA,PUERTA DEL ANGEL,,,,437450.14,4473693.71,-373722100,40.41151371,
5847,,RESTO,R0800CT,,,1,LATINA,PUERTA DEL ANGEL,,,,437868.9,4473413.54,-373225847,40.40902118,
5848,,RESTO,R0800CT,,,1,LATINA,PUERTA DEL ANGEL,,,,437868.9,4473413.54,-373225847,40.40902118,
5849,,RESTO,R0800CT,,,1,LATINA,PUERTA DEL ANGEL,,,,437450.14,4473693.71,-373722100,40.41151371,
5850,,RESTO,R0800CT,,,1,LATINA,PUERTA DEL ANGEL,,,,437642.32,4473113.22,-373489924,40.40629883,
5851,,RESTO,R0800CT,,,1,LATINA,PUERTA DEL ANGEL,,,,437642.32,4473113.22,-373489924,40.40629883,
5852,,RESTO,R0800CT,,,1,LATINA,PUERTA DEL ANGEL,,,,438072.96,4473279.24,-372984060,40.40782655,
5853,,RESTO,R0800CT,,,1,LATINA,PUERTA DEL ANGEL,,,,437488.17,4473307.85,-373673491,40.40804058,
5854,,RESTO,R0800CT,,,1,LATINA,PUERTA DEL ANGEL,,,,437488.17,4473307.85,-373673491,40.40804058,
5855,,RESTO,R0800CT,,,1,LATINA,PUERTA DEL ANGEL,,,,438072.96,4473279.24,-372984060,40.40782655,
5856,,RESTO,R0800CT,,,1,LATINA,PUERTA DEL ANGEL,,,,437782.98,4473370.82,-373326684,40.40862992,
5857,,RESTO,R0800CT,,,1,LATINA,PUERTA DEL ANGEL,,,,437419.95,4473677.04,-373757516,40.41136127,
5858,,RESTO,R0800CT,,,1,LATINA,PUERTA DEL ANGEL,,,,437773.95,4473845.44,-373341967,40.41290483,
5859,,RESTO,R0800CT,,,1,LATINA,PUERTA DEL ANGEL,,,,437773.95,4473845.44,-373341967,40.41290483,
5860,,RESTO,R0800CT,,,1,LATINA,PUERTA DEL ANGEL,,,,437534.52,4473630.73,-373622039,40.4109527,
5861,,RESTO,R0800CT,,,1,LATINA,PUERTA DEL ANGEL,,,,437534.52,4473630.73,-373622039,40.4109527,
5862,,RESTO,R0800CT,,,1,LATINA,PUERTA DEL ANGEL,,,,437534.52,4473630.73,-373622039,40.4109527,
5863,,RESTO,R0800CT,,,1,LATINA,PUERTA DEL ANGEL,,,,437277.7,4473162.24,-373920086,40.40671303,
5864,,RESTO,R0800CT,,,1,LATINA,LUCERO,,,,436630.49,4473058.11,-374681744,40.40572597,
5865,,RESTO,R0800CT,,,1,LATINA,PUERTA DEL ANGEL,,,,437277.7,4473162.24,-373920086,40.40671303,
5866,,RESTO,R0800CT,,,1,LATINA,LUCERO,,,,436424.81,4471942.32,-374912978,40.3956588,
5867,,RESTO,R0800CT,,,1,LATINA,LUCERO,,,,436630.49,4473058.11,-374681744,40.40572597,
5868,,RESTO,R0800CT,,,1,LATINA,LUCERO,,,,436424.81,4471942.32,-374912978,40.3956588,
5869,,RESTO,R0800CT,,,1,LATINA,LUCERO,,,,436630.49,4473058.11,-374681744,40.40572597,
5870,,RESTO,R0800CT,,,1,LATINA,LUCERO,,,,436770.06,4473112.39,-374517812,40.40622556,
5871,,RESTO,R0800CT,,,1,LATINA,LUCERO,,,,436770.06,4473112.39,-374517812,40.40622556,
5872,,RESTO,R0800CT,,,1,LATINA,LUCERO,,,,436770.06,4473112.39,-374517812,40.40622556,
5873,,RESTO,R0800CT,,,1,LATINA,LUCERO,,,,436832.89,4472847.19,-374441139,40.4038413,
5874,,RESTO,R0800CT,,,1,LATINA,LUCERO,,,,436832.89,4472847.19,-374441139,40.4038413,
5875,,RESTO,R0800CT,,,1,LATINA,LUCERO,,,,436425.18,4473150.87,-374924611,40.40654594,
5876,,RESTO,R0800CT,,,1,LATINA,LUCERO,,,,436425.18,4473150.87,-374924611,40.40654594,
5877,,RESTO,R0800CT,,,1,LATINA,LUCERO,,,,436425.18,4473150.87,-374924611,40.40654594,
5878,,RESTO,R0800CT,,,1,LATINA,LUCERO,,,,436196.57,4473259.56,-375195102,40.40750757,
5879,,RESTO,R0800CT,,,1,LATINA,LUCERO,,,,436644.3871,4472962.723,-374664418,40.40486775,
5880,,RESTO,R0800CT,,,1,LATINA,LUCERO,,,,436196.57,4473259.56,-375195102,40.40750757,
5881,,RESTO,R0800CT,,,1,LATINA,LUCERO,,,,436644.3871,4472962.723,-374664418,40.40486775,
5882,,RESTO,R0800CT,,,1,LATINA,LUCERO,,,,436644.3871,4472962.723,-374664418,40.40486775,
5883,,RESTO,R0800CT,,,1,LATINA,LUCERO,,,,436574.57,4472724.45,-374744316,40.40271597,
5884,,RESTO,R0800CT,,,1,LATINA,LUCERO,,,,436520.67,4472808.95,-374808673,40.40347307,
5885,,RESTO,R0800CT,,,1,LATINA,LUCERO,,,,436520.67,4472808.95,-374808673,40.40347307,
5886,,RESTO,R0800CT,,,1,LATINA,LUCERO,,,,436520.67,4472808.95,-374808673,40.40347307,
5887,,RESTO,R0800CT,,,1,LATINA,LUCERO,,,,436485.95,4473234.02,-374853828,40.40729963,
5888,,RESTO,R0800CT,,,1,LATINA,LUCERO,,,,436485.95,4473234.02,-374853828,40.40729963,
5889,,RESTO,R0800CT,,,1,LATINA,LUCERO,,,,436869.54,4472924.94,-374398722,40.40454449,
5890,,RESTO,R0800CT,,,1,LATINA,LUCERO,,,,436869.54,4472924.94,-374398722,40.40454449,
5891,,RESTO,R0800CT,,,1,LATINA,LUCERO,,,,436240.04,4473045.48,-375141730,40.40558239,
5892,,RESTO,R0800CT,,,1,LATINA,LUCERO,,,,436240.04,4473045.48,-375141730,40.40558239,
5893,,RESTO,R0800CT,,,1,LATINA,LUCERO,,,,436240.04,4473045.48,-375141730,40.40558239,
5894,,RESTO,R0800CT,,,1,LATINA,LUCERO,,,,436628.2727,4472782.118,-374681609,40.40323956,
5895,,RESTO,R0800CT,,,1,LATINA,LUCERO,,,,436628.2727,4472782.118,-374681609,40.40323956,
5896,,RESTO,R0800CT,,,1,LATINA,LUCERO,,,,436641.12,4472606.17,-374664719,40.40165552,
5897,,RESTO,R0800CT,,,1,LATINA,LUCERO,,,,436826.65,4472923.33,-374449248,40.40452673,
5898,,RESTO,R0800CT,,,1,LATINA,LUCERO,,,,436826.65,4472923.33,-374449248,40.40452673,
5899,,RESTO,R0800CT,,,1,LATINA,LUCERO,,,,436641.12,4472606.17,-374664719,40.40165552,
5900,,RESTO,R0800CT,,,1,LATINA,LUCERO,,,,436641.12,4472606.17,-374664719,40.40165552,
5901,,RESTO,R0800CT,,,1,LATINA,LUCERO,,,,436949.21,4473278.34,-374308341,40.40773409,
5902,,RESTO,R0800CT,,,1,LATINA,LUCERO,,,,436673.57,4473348.6,-374633868,40.4083461,
5903,,RESTO,R0800CT,,,1,LATINA,LUCERO,,,,436673.57,4473348.6,-374633868,40.4083461,
5904,,RESTO,R0800CT,,,1,LATINA,LUCERO,,,,436080.5571,4473143.84,-375330655,40.40645622,
5905,,RESTO,R0800CT,,,1,LATINA,LUCERO,,,,436673.57,4473348.6,-374633868,40.4083461,
5906,,RESTO,R0800CT,,,1,LATINA,LUCERO,,,,436080.5571,4473143.84,-375330655,40.40645622,
5907,,RESTO,R0800CT,,,1,LATINA,LUCERO,,,,436463.53,4472923.74,-374877151,40.40450279,
5908,,RESTO,R0800CT,,,1,LATINA,LUCERO,,,,436463.53,4472923.74,-374877151,40.40450279,
5909,,RESTO,R0800CT,,,1,LATINA,LUCERO,,,,436463.53,4472923.74,-374877151,40.40450279,
5910,,RESTO,R0800CT,,,1,LATINA,LUCERO,,,,436066.0425,4473035.205,-375346668,40.40547648,
5911,,RESTO,R0800CT,,,1,LATINA,LUCERO,,,,436066.0425,4473035.205,-375346668,40.40547648,
5912,,RESTO,R0800CT,,,1,LATINA,PUERTA DEL ANGEL,,,,437809.11,4473016.54,-373292429,40.40544037,
5913,,RESTO,R0800CT,,,1,LATINA,LUCERO,,,,436627.4042,4472623.591,-374681054,40.40181142,
5914,,RESTO,R0800CT,,,1,LATINA,PUERTA DEL ANGEL,,,,438389.56,4473527.93,-372613367,40.41009035,
5915,,RESTO,R0800CT,,,1,LATINA,LUCERO,,,,436531.72,4473324.04,-374800788,40.40811405,
5916,,RESTO,R0800CT,,,2,HORTALEZA,CANILLAS,,,,445167.0,4479480.0,-364677427,40.46418388,
5917,,RESTO,R0800CT,,,1,LATINA,PUERTA DEL ANGEL,,,,437661.02,4473282.51,-373469545,40.40782527,
5918,,RESTO,R0800CT,,,1,LATINA,PUERTA DEL ANGEL,,,,437809.11,4473016.54,-373292429,40.40544037,
5919,,RESTO,R0800CT,,,1,LATINA,LUCERO,,,,436363.22,4472108.57,-374987207,40.39715175,
5920,,RESTO,R0800CT,,,1,LATINA,LUCERO,,,,436531.72,4473324.04,-374800788,40.40811405,
5921,,RESTO,R0800CT,,,1,LATINA,PUERTA DEL ANGEL,,,,438411.88,4473641.88,-372588166,40.41111852,
5922,,RESTO,R0800CT,,,1,LATINA,LUCERO,,,,436149.78,4473214.43,-375249789,40.40709744,
5923,,RESTO,R0800CT,,,2,HORTALEZA,CANILLAS,,,,445172.0,4479423.0,-364671037,40.46367073,
5924,,RESTO,R0800CT,,,1,LATINA,LUCERO,,,,436673.8222,4472058.324,-374620735,40.39672278,
5925,,RESTO,R0800CT,,,1,LATINA,PUERTA DEL ANGEL,,,,437548.85,4473740.33,-373606226,40.41194109,
5926,,RESTO,R0800CT,,,1,LATINA,PUERTA DEL ANGEL,,,,437885.43,4473736.75,-373209522,40.41193403,
5927,,RESTO,R0800CT,,,1,LATINA,LUCERO,,,,436627.2908,4472623.269,-374681185,40.40180851,
5928,,RESTO,R0800CT,,,1,LATINA,PUERTA DEL ANGEL,,,,437630.98,4472966.33,-373501848,40.40497473,
5929,,RESTO,R0800CT,,,2,HORTALEZA,CANILLAS,,,,445172.0,4479423.0,-364671037,40.46367073,
5930,,RESTO,R0800CT,,,1,LATINA,LUCERO,,,,436066.0425,4473035.205,-375346668,40.40547648,
5931,,RESTO,R0800CT,,,1,LATINA,PUERTA DEL ANGEL,,,,437548.85,4473740.33,-373606226,40.41194109,
5932,,RESTO,R0800CT,,,1,LATINA,PUERTA DEL ANGEL,,,,438423.82,4473835.27,-372575966,40.41286154,
5933,,RESTO,R0800CT,,,1,LATINA,LUCERO,,,,436149.78,4473214.43,-375249789,40.40709744,
5934,,RESTO,R0800CT,,,1,LATINA,PUERTA DEL ANGEL,,,,437661.02,4473282.51,-373469545,40.40782527,
5935,,RESTO,R0800CT,,,2,HORTALEZA,CANILLAS,,,,445071.3253,4479395.359,-364789539,40.46341507,
5936,,RESTO,R0800CT,,,1,LATINA,LUCERO,,,,436910.31,4473243.26,-374353835,40.40741513,
5937,,RESTO,R0800CT,,,1,LATINA,PUERTA DEL ANGEL,,,,437155.69,4472975.57,-374062024,40.40502223,
5938,,RESTO,R0800CT,,,1,LATINA,PUERTA DEL ANGEL,,,,437155.69,4472975.57,-374062024,40.40502223,
5939,,RESTO,R0800CT,,,1,LATINA,PUERTA DEL ANGEL,,,,438273.29,4473544.76,-372750555,40.41023335,
5940,,RESTO,R0800CT,,,1,LATINA,PUERTA DEL ANGEL,,,,438433.09,4473685.77,-372563594,40.41151547,
5941,,RESTO,R0800CT,,,1,LATINA,PUERTA DEL ANGEL,,,,438433.09,4473685.77,-372563594,40.41151547,
5942,,RESTO,R0800CT,,,1,LATINA,PUERTA DEL ANGEL,,,,437688.76,4473804.66,-373441968,40.41253109,
5943,,RESTO,R0800CT,,,1,LATINA,PUERTA DEL ANGEL,,,,437688.76,4473804.66,-373441968,40.41253109,
5944,,RESTO,R0800CT,,,1,LATINA,PUERTA DEL ANGEL,,,,438610.27,4473437.25,-372352386,40.40928977,
5945,,RESTO,R0800CT,,,1,LATINA,PUERTA DEL ANGEL,,,,438333.99,4473680.59,-372680336,40.41146147,
5946,,RESTO,R0800CT,,,1,LATINA,PUERTA DEL ANGEL,,,,437831.2,4473707.75,-373273150,40.41166873,
5947,,RESTO,R0800CT,,,1,LATINA,PUERTA DEL ANGEL,,,,437525.86,4473466.48,-373630632,40.40947241,
5948,,RESTO,R0800CT,,,1,LATINA,PUERTA DEL ANGEL,,,,437731.73,4473825.94,-373391535,40.412726,
5949,,RESTO,R0800CT,,,1,LATINA,PUERTA DEL ANGEL,,,,437525.86,4473466.48,-373630632,40.40947241,
5950,,RESTO,R0800CT,,,1,LATINA,PUERTA DEL ANGEL,,,,437731.73,4473825.94,-373391535,40.412726,
5951,,RESTO,R0800CT,,,1,LATINA,PUERTA DEL ANGEL,,,,437731.73,4473825.94,-373391535,40.412726,
5952,,RESTO,R0800CT,,,1,LATINA,PUERTA DEL ANGEL,,,,437470.11,4473167.34,-373693393,40.40677345,
5953,,RESTO,R0800CT,,,1,LATINA,PUERTA DEL ANGEL,,,,437752.9,4473675.83,-373365116,40.41137533,
5954,,RESTO,R0800CT,,,1,LATINA,PUERTA DEL ANGEL,,,,437470.11,4473167.34,-373693393,40.40677345,
5955,,RESTO,R0800CT,,,1,LATINA,PUERTA DEL ANGEL,,,,437465.98,4473270.16,-373699270,40.40769938,
5956,,RESTO,R0800CT,,,1,LATINA,PUERTA DEL ANGEL,,,,437470.11,4473167.34,-373693393,40.40677345,
5957,,RESTO,R0800CT,,,1,LATINA,PUERTA DEL ANGEL,,,,437510.27,4473349.03,-373647851,40.4084132,
5958,,RESTO,R0800CT,,,1,LATINA,PUERTA DEL ANGEL,,,,438383.59,4473894.69,-372623955,40.41339385,
5959,,RESTO,R0800CT,,,1,LATINA,PUERTA DEL ANGEL,,,,437857.11,4473633.72,-373241892,40.41100378,
5960,,RESTO,R0800CT,,,1,LATINA,PUERTA DEL ANGEL,,,,438383.59,4473894.69,-372623955,40.41339385,
5961,,RESTO,R0800CT,,,1,LATINA,PUERTA DEL ANGEL,,,,437510.27,4473349.03,-373647851,40.4084132,
5962,,RESTO,R0800CT,,,1,LATINA,PUERTA DEL ANGEL,,,,438618.18,4473482.07,-372343496,40.40969412,
5963,,RESTO,R0800CT,,,1,LATINA,PUERTA DEL ANGEL,,,,438618.18,4473482.07,-372343496,40.40969412,
5964,,RESTO,R0800CT,,,1,LATINA,PUERTA DEL ANGEL,,,,437857.11,4473633.72,-373241892,40.41100378,
5965,,RESTO,R0800CT,,,1,LATINA,PUERTA DEL ANGEL,,,,437975.57,4473281.87,-373098855,40.407843,
5966,,RESTO,R0800CT,,,1,LATINA,PUERTA DEL ANGEL,,,,437992.09,4473948.58,-373085884,40.41385023,
5967,,RESTO,R0800CT,,,1,LATINA,PUERTA DEL ANGEL,,,,437992.09,4473948.58,-373085884,40.41385023,
5968,,RESTO,R0800CT,,,1,LATINA,PUERTA DEL ANGEL,,,,437992.09,4473948.58,-373085884,40.41385023,
5969,,RESTO,R0800CT,,,1,LATINA,PUERTA DEL ANGEL,,,,437127.64,4472982.87,-374095150,40.40508587,
5970,,RESTO,R0800CT,,,1,LATINA,PUERTA DEL ANGEL,,,,437127.64,4472982.87,-374095150,40.40508587,
5971,,RESTO,R0800CT,,,1,LATINA,PUERTA DEL ANGEL,,,,438068.42,4473606.62,-372992596,40.4107754,
5972,,RESTO,R0800CT,,,1,LATINA,PUERTA DEL ANGEL,,,,438068.42,4473606.62,-372992596,40.4107754,
5973,,RESTO,R0800CT,,,1,LATINA,PUERTA DEL ANGEL,,,,438615.5,4473463.12,-372346472,40.40952321,
5974,,RESTO,R0800CT,,,1,LATINA,PUERTA DEL ANGEL,,,,438615.5,4473463.12,-372346472,40.40952321,
5975,,RESTO,R0800CT,,,1,LATINA,PUERTA DEL ANGEL,,,,438068.42,4473606.62,-372992596,40.4107754,
5976,,RESTO,R0800CT,,,1,LATINA,PUERTA DEL ANGEL,,,,437555.09,4473157.55,-373593153,40.40669163,
5977,,RESTO,R0800CT,,,1,LATINA,PUERTA DEL ANGEL,,,,438388.3,4473932.17,-372618767,40.41373183,
5978,,RESTO,R0800CT,,,1,LATINA,PUERTA DEL ANGEL,,,,437555.09,4473157.55,-373593153,40.40669163,
5979,,RESTO,R0800CT,,,1,LATINA,PUERTA DEL ANGEL,,,,437555.09,4473157.55,-373593153,40.40669163,
5980,,RESTO,R0800CT,,,1,LATINA,PUERTA DEL ANGEL,,,,438388.3,4473932.17,-372618767,40.41373183,
5981,,RESTO,R0800CT,,,1,LATINA,PUERTA DEL ANGEL,,,,438388.3,4473932.17,-372618767,40.41373183,
5982,,RESTO,R0800CT,,,1,LATINA,PUERTA DEL ANGEL,,,,438388.3,4473932.17,-372618767,40.41373183,
5983,,RESTO,R0800CT,,,1,LATINA,PUERTA DEL ANGEL,,,,438584.88,4473530.85,-372383211,40.41013109,
5984,,RESTO,R0800CT,,,1,LATINA,PUERTA DEL ANGEL,,,,437778.0749,4473114.748,-373329961,40.40632275,
5985,,RESTO,R0800CT,,,1,LATINA,PUERTA DEL ANGEL,,,,438584.88,4473530.85,-372383211,40.41013109,
5986,,RESTO,R0800CT,,,1,LATINA,PUERTA DEL ANGEL,,,,438584.88,4473530.85,-372383211,40.41013109,
5987,,RESTO,R0800CT,,,1,LATINA,PUERTA DEL ANGEL,,,,437068.76,4473101.5,-374165708,40.40615009,
5988,,RESTO,R0800CT,,,1,LATINA,PUERTA DEL ANGEL,,,,437068.76,4473101.5,-374165708,40.40615009,
5989,,RESTO,R0800CT,,,1,LATINA,PUERTA DEL ANGEL,,,,437068.76,4473101.5,-374165708,40.40615009,
5990,,RESTO,R0800CT,,,1,LATINA,PUERTA DEL ANGEL,,,,438022.0,4473698.3,-373048196,40.41159783,
5991,,RESTO,R0800CT,,,1,LATINA,PUERTA DEL ANGEL,,,,437068.76,4473101.5,-374165708,40.40615009,
5992,,RESTO,R0800CT,,,1,LATINA,PUERTA DEL ANGEL,,,,438022.0,4473698.3,-373048196,40.41159783,
5993,,RESTO,R0800CT,,,1,LATINA,PUERTA DEL ANGEL,,,,437263.97,4472975.07,-373934421,40.40502589,
5994,,RESTO,R0800CT,,,1,LATINA,PUERTA DEL ANGEL,,,,438365.85,4473844.56,-372644377,40.41294094,
5995,,RESTO,R0800CT,,,1,LATINA,PUERTA DEL ANGEL,,,,437263.97,4472975.07,-373934421,40.40502589,
5996,,RESTO,R0800CT,,,1,LATINA,PUERTA DEL ANGEL,,,,438365.85,4473844.56,-372644377,40.41294094,
5997,,RESTO,R0800CT,,,1,LATINA,PUERTA DEL ANGEL,,,,438365.85,4473844.56,-372644377,40.41294094,
5998,,RESTO,R0800CT,,,1,LATINA,PUERTA DEL ANGEL,,,,438306.97,4473795.96,-372713298,40.41249877,
5999,,RESTO,R0800CT,,,1,LATINA,PUERTA DEL ANGEL,,,,438306.97,4473795.96,-372713298,40.41249877,
6000,,RESTO,R0800CT,,,1,LATINA,PUERTA DEL ANGEL,,,,437379.81,4473451.97,-373802607,40.40933073,
6001,,RESTO,R0800CT,,,1,LATINA,PUERTA DEL ANGEL,,,,438338.73,4473494.52,-372672947,40.40978562,
6002,,RESTO,R0800CT,,,1,LATINA,PUERTA DEL ANGEL,,,,437452.94,4473482.29,-373716722,40.40960936,
6003,,RESTO,R0800CT,,,1,LATINA,PUERTA DEL ANGEL,,,,437901.06,4473546.65,-373189246,40.41022269,
6004,,RESTO,R0800CT,,,1,LATINA,PUERTA DEL ANGEL,,,,437901.06,4473546.65,-373189246,40.41022269,
6005,,RESTO,R0800CT,,,1,LATINA,PUERTA DEL ANGEL,,,,438338.73,4473494.52,-372672947,40.40978562,
6006,,RESTO,R0800CT,,,1,LATINA,PUERTA DEL ANGEL,,,,438338.73,4473494.52,-372672947,40.40978562,
6007,,RESTO,R0800CT,,,1,LATINA,PUERTA DEL ANGEL,,,,437311.06,4472915.49,-373878343,40.40449272,
6008,,RESTO,R0800CT,,,1,LATINA,PUERTA DEL ANGEL,,,,437311.06,4472915.49,-373878343,40.40449272,
6009,,RESTO,R0800CT,,,1,LATINA,PUERTA DEL ANGEL,,,,437169.47,4473267.03,-374048663,40.40764886,
6010,,RESTO,R0800CT,,,1,LATINA,PUERTA DEL ANGEL,,,,437327.92,4473306.29,-373862323,40.40801448,
6011,,RESTO,R0800CT,,,1,LATINA,PUERTA DEL ANGEL,,,,437327.92,4473306.29,-373862323,40.40801448,
6012,,RESTO,R0800CT,,,1,LATINA,PUERTA DEL ANGEL,,,,437925.61,4473483.82,-373159701,40.40965852,
6013,,RESTO,R0800CT,,,1,LATINA,PUERTA DEL ANGEL,,,,437925.61,4473483.82,-373159701,40.40965852,
6014,,RESTO,R0800CT,,,1,LATINA,PUERTA DEL ANGEL,,,,437689.67,4473024.28,-373433254,40.40550117,
6015,,RESTO,R0800CT,,,1,LATINA,PUERTA DEL ANGEL,,,,437689.67,4473024.28,-373433254,40.40550117,
6016,,RESTO,R0800CT,,,1,LATINA,PUERTA DEL ANGEL,,,,437689.67,4473024.28,-373433254,40.40550117,
6017,,RESTO,R0800CT,,,1,LATINA,PUERTA DEL ANGEL,,,,437050.39,4472988.1,-374186234,40.40512715,
6018,,RESTO,R0800CT,,,1,LATINA,PUERTA DEL ANGEL,,,,437050.39,4472988.1,-374186234,40.40512715,
6019,,RESTO,R0800CT,,,1,LATINA,PUERTA DEL ANGEL,,,,437050.39,4472988.1,-374186234,40.40512715,
6020,,RESTO,R0800CT,,,1,LATINA,PUERTA DEL ANGEL,,,,437642.23,4473210.95,-373490987,40.40717922,
6021,,RESTO,R0800CT,,,1,LATINA,PUERTA DEL ANGEL,,,,437642.23,4473210.95,-373490987,40.40717922,
6022,,RESTO,R0800CT,,,1,LATINA,PUERTA DEL ANGEL,,,,437824.25,4473365.13,-373277993,40.40858175,
6023,,RESTO,R0800CT,,,1,LATINA,LUCERO,,,,436910.31,4473243.26,-374353835,40.40741513,
6024,,RESTO,R0800CT,,,1,LATINA,PUERTA DEL ANGEL,,,,437630.98,4472966.33,-373501848,40.40497473,
6025,,RESTO,R0800CT,,,1,LATINA,LUCERO,,,,436332.72,4472966.71,-375031727,40.40487989,
6026,,RESTO,R0800CT,,,1,LATINA,PUERTA DEL ANGEL,,,,437228.0,4473058.92,-373977635,40.40577854,
6027,,RESTO,R0800CT,,,2,HORTALEZA,PINAR DEL REY,,,,444723.7796,4479886.756,-365203732,40.46781877,
6028,,RESTO,R0800CT,,,1,LATINA,PUERTA DEL ANGEL,,,,438238.66,4473687.4,-372792751,40.41151575,
6029,,RESTO,R0800CT,,,1,LATINA,LUCERO,,,,436613.26,4472740.73,-374698887,40.40286558,
6031,,RESTO,R0800CT,,,1,LATINA,LUCERO,,,,436608.4572,4472210.228,-374699264,40.39808623,
6032,,RESTO,R0800CT,,,2,HORTALEZA,PINAR DEL REY,,,,444890.8391,4480175.453,-365009189,40.47043059,
6033,,RESTO,R0800CT,,,1,LATINA,LUCERO,,,,436608.4572,4472210.228,-374699264,40.39808623,
6034,,RESTO,R0800CT,,,2,HORTALEZA,PINAR DEL REY,,,,444890.7761,4480175.503,-365009264,40.47043104,
6035,,RESTO,R0800CT,,,1,LATINA,LUCERO,,,,436215.56,4473097.21,-375171096,40.40604652,
6036,,RESTO,R0800CT,,,2,HORTALEZA,PINAR DEL REY,,,,445712.0,4480701.0,-364045068,40.47521906,
6037,,RESTO,R0800CT,,,1,LATINA,LUCERO,,,,436215.56,4473097.21,-375171096,40.40604652,
6038,,RESTO,R0800CT,,,2,HORTALEZA,PINAR DEL REY,,,,445712.5355,4480506.666,-364042772,40.47346844,
6039,,RESTO,R0800CT,,,1,LATINA,LUCERO,,,,436230.84,4472819.94,-375150312,40.40354993,
6040,,RESTO,R0800CT,,,2,HORTALEZA,PINAR DEL REY,,,,445712.5355,4480506.666,-364042772,40.47346844,
6041,,RESTO,R0800CT,,,1,LATINA,LUCERO,,,,436030.99,4473086.83,-375388493,40.40593885,
6042,,RESTO,R0800CT,,,2,HORTALEZA,PINAR DEL REY,,,,444983.0,4480759.0,-364905540,40.47569358,
6043,,RESTO,R0800CT,,,2,CIUDAD LINEAL,VENTAS,,,,444212.986,4474931.177,-365762701,40.42314223,
6044,,RESTO,R0800CT,,,2,CIUDAD LINEAL,VENTAS,,,,444473.0,4475172.0,-365458314,40.42532909,
6045,,RESTO,R0800CT,,,2,CIUDAD LINEAL,VENTAS,,,,444207.0,4474934.0,-365769782,40.42316726,
6047,,RESTO,R0800CT,,,2,CIUDAD LINEAL,CONCEPCION,,,,445237.0,4476896.0,-364572578,40.44091048,
6048,,RESTO,R0800CT,,,2,CIUDAD LINEAL,SAN JUAN BAUTISTA,,,,444086.0,4478255.0,-365941634,40.45307644,
6052,,RESTO,R0800CT,,,2,CIUDAD LINEAL,VENTAS,,,,444445.0,4475069.0,-365490420,40.42439934,
6054,,RESTO,R0800CT,,,2,CIUDAD LINEAL,VENTAS,,,,444656.0,4475518.0,-365245609,40.42845824,
6055,,RESTO,R0800CT,,,1,FUENCARRAL-EL PARDO,EL PARDO,,,,434175.37,4485630.53,-377705286,40.51879101,
6056,,RESTO,R0800CT,,,2,CIUDAD LINEAL,VENTAS,,,,444118.0,4475206.0,-365877081,40.42561161,
6059,,RESTO,R0800CT,,,1,FUENCARRAL-EL PARDO,EL PARDO,,,,433815.33,4487002.95,-378144630,40.53112531,
6061,,RESTO,R0800CT,,,2,CIUDAD LINEAL,VENTAS,,,,444466.0,4475186.0,-365466688,40.42545474,
6062,,RESTO,R0800CT,,,2,CIUDAD LINEAL,VENTAS,,,,444364.0,4475048.0,-365585717,40.42420475,
6065,,RESTO,R0800CT,,,1,FUENCARRAL-EL PARDO,VALVERDE,,,,441508.5,4483275.72,-369027483,40.49812773,
6066,,RESTO,R0800CT,,,1,FUENCARRAL-EL PARDO,EL PARDO,,,,433817.18,4487141.04,-378143891,40.53236939,
6067,,RESTO,R0800CT,,,1,FUENCARRAL-EL PARDO,EL GOLOSO,,,,441720.3165,4488936.084,-368829670,40.54913308,
6068,,RESTO,R0800CT,,,1,FUENCARRAL-EL PARDO,PEÑAGRANDE,,,,438192.08,4480803.91,-372916889,40.47562051,
6069,,RESTO,R0800CT,,,1,FUENCARRAL-EL PARDO,PEÑAGRANDE,,,,438017.18,4480919.44,-373124338,40.47664821,
6070,,RESTO,R0800CT,,,1,FUENCARRAL-EL PARDO,PEÑAGRANDE,,,,438577.86,4481451.01,-372468074,40.48147843,
6071,,RESTO,R0800CT,,,1,FUENCARRAL-EL PARDO,VALVERDE,,,,441183.9701,4482741.781,-369405487,40.49329487,
6073,,RESTO,R0800CT,,,1,FUENCARRAL-EL PARDO,VALVERDE,,,,441681.89,4483223.56,-368822395,40.49767006,
6074,,RESTO,R0800CT,,,1,FUENCARRAL-EL PARDO,VALVERDE,,,,440893.85,4482954.65,-369749803,40.49519187,
6075,,RESTO,R0800CT,,,2,CIUDAD LINEAL,VENTAS,,,,444423.0,4475094.0,-365516572,40.42462309,
6076,,RESTO,R0800CT,,,2,HORTALEZA,PINAR DEL REY,,,,445183.5593,4481146.52,-364672297,40.4791978,
6077,,RESTO,R0800CT,,,1,FUENCARRAL-EL PARDO,PEÑAGRANDE,,,,438729.03,4481042.74,-372285787,40.47781176,
6078,,RESTO,R0800CT,,,1,FUENCARRAL-EL PARDO,PEÑAGRANDE,,,,438282.43,4481587.71,-372817937,40.48268796,
6079,,RESTO,R0800CT,,,1,FUENCARRAL-EL PARDO,PEÑAGRANDE,,,,438091.05,4480862.26,-373036638,40.47613862,
6080,,RESTO,R0800CT,,,2,CIUDAD LINEAL,VENTAS,,,,444341.0,4475027.0,-365612644,40.42401403,
6081,,RESTO,R0800CT,,,2,HORTALEZA,CANILLAS,,,,445156.0,4479619.0,-364691603,40.46543534,
6083,,RESTO,R0800CT,,,1,FUENCARRAL-EL PARDO,PEÑAGRANDE,,,,438677.99,4480791.75,-372343571,40.47554699,
6084,,RESTO,R0800CT,,,1,FUENCARRAL-EL PARDO,EL GOLOSO,,,,441552.227,4488889.66,-369027745,40.54870304,
6086,,RESTO,R0800CT,,,1,FUENCARRAL-EL PARDO,PEÑAGRANDE,,,,438017.18,4480919.44,-373124338,40.47664821,
6087,,RESTO,R0800CT,,,1,FUENCARRAL-EL PARDO,EL PARDO,,,,434204.81,4485797.77,-377672274,40.52029988,
6088,,RESTO,R0800CT,,,1,FUENCARRAL-EL PARDO,EL PARDO,,,,433817.18,4487141.04,-378143891,40.53236939,
6089,,RESTO,R0800CT,,,1,FUENCARRAL-EL PARDO,VALVERDE,,,,441184.3046,4482741.424,-369405089,40.49329169,
6090,,RESTO,R0800CT,,,1,FUENCARRAL-EL PARDO,PEÑAGRANDE,,,,438163.62,4481395.41,-372956230,40.48094682,
6092,,RESTO,R0800CT,,,1,FUENCARRAL-EL PARDO,VALVERDE,,,,440893.85,4482954.65,-369749803,40.49519187,
6093,,RESTO,R0800CT,,,2,HORTALEZA,PINAR DEL REY,,,,445331.0,4480557.0,-364493276,40.47389684,
6094,,RESTO,R0800CT,,,2,CIUDAD LINEAL,VENTAS,,,,444332.0,4475127.0,-365624129,40.42491428,
6095,,RESTO,R0800CT,,,1,FUENCARRAL-EL PARDO,PEÑAGRANDE,,,,438729.03,4481042.74,-372285787,40.47781176,
6096,,RESTO,R0800CT,,,1,FUENCARRAL-EL PARDO,PEÑAGRANDE,,,,437788.07,4480971.08,-373395117,40.47709627,
6097,,RESTO,R0800CT,,,2,CIUDAD LINEAL,SAN JUAN BAUTISTA,,,,444135.0,4477823.0,-365880049,40.44918806,
6098,,RESTO,R0800CT,,,2,HORTALEZA,PINAR DEL REY,,,,445486.0,4480555.0,-364310415,40.47388902,
6099,,RESTO,R0800CT,,,1,FUENCARRAL-EL PARDO,VALVERDE,,,,441588.77,4482059.46,-368921550,40.48717685,
6101,,RESTO,R0800CT,,,1,FUENCARRAL-EL PARDO,PEÑAGRANDE,,,,438677.99,4480791.75,-372343571,40.47554699,
6102,,RESTO,R0800CT,,,1,FUENCARRAL-EL PARDO,VALVERDE,,,,441642.83,4481875.6,-368856074,40.48552437,
6104,,RESTO,R0800CT,,,1,FUENCARRAL-EL PARDO,PEÑAGRANDE,,,,438374.17,4481131.03,-372705267,40.47858085,
6105,,RESTO,R0800CT,,,1,FUENCARRAL-EL PARDO,PEÑAGRANDE,,,,437788.07,4480971.08,-373395117,40.47709627,
6106,,RESTO,R0800CT,,,1,FUENCARRAL-EL PARDO,EL PARDO,,,,433689.77,4487377.75,-378296796,40.53449152,
6107,,RESTO,R0800CT,,,1,FUENCARRAL-EL PARDO,VALVERDE,,,,441194.24,4482422.19,-369390403,40.49041661,
6108,,RESTO,R0800CT,,,1,FUENCARRAL-EL PARDO,PEÑAGRANDE,,,,438863.32,4481742.86,-372134118,40.48412858,
6109,,RESTO,R0800CT,,,2,CIUDAD LINEAL,VENTAS,,,,444609.0,4475322.0,-365299307,40.42668944,
6110,,RESTO,R0800CT,,,1,FUENCARRAL-EL PARDO,VALVERDE,,,,441832.6415,4483040.267,-368642819,40.49602946,
6111,,RESTO,R0800CT,,,1,FUENCARRAL-EL PARDO,EL GOLOSO,,,,441283.7187,4488618.564,-369342316,40.54624194,
6113,,RESTO,R0800CT,,,2,HORTALEZA,CANILLAS,,,,445134.2937,4479491.629,-364716103,40.46428649,
6114,,RESTO,R0800CT,,,1,FUENCARRAL-EL PARDO,VALVERDE,,,,441303.28,4482740.0,-369264690,40.49328728,
6115,,RESTO,R0800CT,,,2,CIUDAD LINEAL,SAN JUAN BAUTISTA,,,,444104.8139,4477890.985,-365916243,40.44979848,
6116,,RESTO,R0800CT,,,1,FUENCARRAL-EL PARDO,PEÑAGRANDE,,,,437796.8508,4480777.319,-373382858,40.47535147,
6117,,RESTO,R0800CT,,,1,FUENCARRAL-EL PARDO,VALVERDE,,,,441834.67,4483186.36,-368641767,40.49734567,
6118,,RESTO,R0800CT,,,1,FUENCARRAL-EL PARDO,EL PARDO,,,,433689.77,4487377.75,-378296796,40.53449152,
6119,,RESTO,R0800CT,,,1,FUENCARRAL-EL PARDO,VALVERDE,,,,441267.64,4483178.13,-369310805,40.49723159,
6120,,RESTO,R0800CT,,,2,HORTALEZA,CANILLAS,,,,445169.0,4479454.0,-364674843,40.46394979,
6122,,RESTO,R0800CT,,,1,FUENCARRAL-EL PARDO,VALVERDE,,,,440902.27,4482568.15,-369736263,40.49171073,
6123,,RESTO,R0800CT,,,1,FUENCARRAL-EL PARDO,PEÑAGRANDE,,,,438414.7,4481120.7,-372657354,40.4784908,
6124,,RESTO,R0800CT,,,2,CIUDAD LINEAL,CONCEPCION,,,,445170.0,4476795.0,-364650703,40.4399962,
6125,,RESTO,R0800CT,,,1,FUENCARRAL-EL PARDO,VALVERDE,,,,441832.4314,4483039.825,-368643063,40.49602547,
6126,,RESTO,R0800CT,,,1,FUENCARRAL-EL PARDO,PEÑAGRANDE,,,,437796.8508,4480777.319,-373382858,40.47535147,
6129,,RESTO,R0800CT,,,2,CIUDAD LINEAL,SAN JUAN BAUTISTA,,,,444128.0,4477951.0,-365889430,40.45034068,
6130,,RESTO,R0800CT,,,1,FUENCARRAL-EL PARDO,EL PARDO,,,,434179.08,4485510.34,-377699657,40.51770862,
6132,,RESTO,R0800CT,,,2,CIUDAD LINEAL,VENTAS,,,,444305.0,4475063.0,-365655395,40.42433593,
6135,,RESTO,R0800CT,,,2,CIUDAD LINEAL,SAN JUAN BAUTISTA,,,,444128.0497,4477950.941,-365889371,40.45034015,
6136,,RESTO,R0800CT,,,1,FUENCARRAL-EL PARDO,EL PARDO,,,,434179.08,4485510.34,-377699657,40.51770862,
6138,,RESTO,R0800CT,,,2,CIUDAD LINEAL,VENTAS,,,,444305.0,4475063.0,-365655395,40.42433593,
6141,,RESTO,R0800CT,,,2,CIUDAD LINEAL,VENTAS,,,,444369.0,4475686.0,-365585405,40.42995254,
6142,,RESTO,R0800CT,,,1,FUENCARRAL-EL PARDO,EL PARDO,,,,434095.07,4485746.17,-377801275,40.51982634,
6144,,RESTO,R0800CT,,,2,CIUDAD LINEAL,VENTAS,,,,444130.0,4475150.0,-365862443,40.42510794,
6145,,RESTO,R0800CT,,,2,CIUDAD LINEAL,VENTAS,,,,444445.0,4475069.0,-365490420,40.42439934,
6147,,RESTO,R0800CT,,,2,CIUDAD LINEAL,VENTAS,,,,444529.0,4475250.0,-365392983,40.42603549,
6148,,RESTO,R0800CT,,,1,FUENCARRAL-EL PARDO,EL PARDO,,,,434095.07,4485746.17,-377801275,40.51982634,
6149,,RESTO,R0800CT,,,2,CIUDAD LINEAL,VENTAS,,,,444669.33,4474926.536,-365224748,40.4231309,
6153,,RESTO,R0800CT,,,2,CIUDAD LINEAL,VENTAS,,,,444642.1042,4475477.046,-365261633,40.42808838,
6156,,RESTO,R0800CT,,,1,FUENCARRAL-EL PARDO,EL PARDO,,,,434095.07,4485746.17,-377801275,40.51982634,
6158,,RESTO,R0800CT,,,2,CIUDAD LINEAL,VENTAS,,,,444207.0,4474934.0,-365769782,40.42316726,
6159,,RESTO,R0800CT,,,2,CIUDAD LINEAL,VENTAS,,,,444669.33,4474926.536,-365224748,40.4231309,
6162,,RESTO,R0800CT,,,1,FUENCARRAL-EL PARDO,EL PARDO,,,,434095.07,4485746.17,-377801275,40.51982634,
6164,,RESTO,R0800CT,,,2,CIUDAD LINEAL,VENTAS,,,,444244.0,4475090.0,-365727536,40.42457508,
6165,,RESTO,R0800CT,,,2,CIUDAD LINEAL,VENTAS,,,,444758.388,4475009.707,-365120494,40.42388607,
6168,,RESTO,R0800CT,,,1,FUENCARRAL-EL PARDO,EL PARDO,,,,434095.07,4485746.17,-377801275,40.51982634,
6170,,RESTO,R0800CT,,,2,CIUDAD LINEAL,VENTAS,,,,444686.4131,4475435.262,-365209037,40.42771491,
6171,,RESTO,R0800CT,,,2,CIUDAD LINEAL,VENTAS,,,,444758.388,4475009.707,-365120494,40.42388607,
6174,,RESTO,R0800CT,,,1,FUENCARRAL-EL PARDO,EL PARDO,,,,433778.52,4487305.42,-378191255,40.53384706,
6176,,RESTO,R0800CT,,,2,CIUDAD LINEAL,VENTAS,,,,444686.4131,4475435.262,-365209037,40.42771491,
6177,,RESTO,R0800CT,,,2,CIUDAD LINEAL,VENTAS,,,,444529.0,4475250.0,-365392983,40.42603549,
6182,,RESTO,R0800CT,,,2,CIUDAD LINEAL,SAN JUAN BAUTISTA,,,,444086.0,4478255.0,-365941634,40.45307644,
6184,,RESTO,R0800CT,,,1,FUENCARRAL-EL PARDO,EL PARDO,,,,433778.52,4487305.42,-378191255,40.53384706,
6185,,RESTO,R0800CT,,,2,CIUDAD LINEAL,VENTAS,,,,444257.0,4475045.0,-365711818,40.42417056,
6187,,RESTO,R0800CT,,,1,FUENCARRAL-EL PARDO,EL PARDO,,,,433918.79,4487262.32,-378025195,40.53347001,
6190,,RESTO,R0800CT,,,2,CIUDAD LINEAL,VENTAS,,,,444212.986,4474931.177,-365762701,40.42314223,
6191,,RESTO,R0800CT,,,2,CIUDAD LINEAL,VENTAS,,,,444515.0,4475641.0,-365412899,40.4295569,
6193,,RESTO,R0800CT,,,1,FUENCARRAL-EL PARDO,EL PARDO,,,,433918.79,4487262.32,-378025195,40.53347001,
6196,,RESTO,R0800CT,,,2,CIUDAD LINEAL,VENTAS,,,,444369.0,4475686.0,-365585405,40.42995254,
6197,,RESTO,R0800CT,,,2,CIUDAD LINEAL,VENTAS,,,,444515.0,4475641.0,-365412899,40.4295569,
6199,,RESTO,R0800CT,,,1,FUENCARRAL-EL PARDO,EL PARDO,,,,434133.93,4485424.37,-377752056,40.5169306,
6202,,RESTO,R0800CT,,,2,CIUDAD LINEAL,CONCEPCION,,,,445260.0,4476842.0,-364544994,40.44042553,
6203,,RESTO,R0800CT,,,2,CIUDAD LINEAL,VENTAS,,,,444553.0,4475635.0,-365368050,40.42950539,
6205,,RESTO,R0800CT,,,1,FUENCARRAL-EL PARDO,EL PARDO,,,,433918.79,4487262.32,-378025195,40.53347001,
6208,,RESTO,R0800CT,,,2,CIUDAD LINEAL,VENTAS,,,,444686.4131,4475435.262,-365209037,40.42771491,
6209,,RESTO,R0800CT,,,2,CIUDAD LINEAL,VENTAS,,,,444553.0,4475635.0,-365368050,40.42950539,
6213,,RESTO,R0800CT,,,2,CIUDAD LINEAL,SAN JUAN BAUTISTA,,,,444086.0,4478255.0,-365941634,40.45307644,
6214,,RESTO,R0800CT,,,1,FUENCARRAL-EL PARDO,EL PARDO,,,,434133.93,4485424.37,-377752056,40.5169306,
6215,,RESTO,R0800CT,,,2,CIUDAD LINEAL,VENTAS,,,,444553.0,4475635.0,-365368050,40.42950539,
6219,,RESTO,R0800CT,,,2,CIUDAD LINEAL,VENTAS,,,,444445.0,4475069.0,-365490420,40.42439934,
6220,,RESTO,R0800CT,,,1,FUENCARRAL-EL PARDO,EL PARDO,,,,433814.8,4487343.97,-378148824,40.53419722,
6222,,RESTO,R0800CT,,,2,CIUDAD LINEAL,VENTAS,,,,444609.0,4475322.0,-365299307,40.42668944,
6223,,RESTO,R0800CT,,,1,FUENCARRAL-EL PARDO,EL PARDO,,,,434272.12,4485387.88,-377588564,40.51661286,
6224,,RESTO,R0800CT,,,2,CIUDAD LINEAL,VENTAS,,,,444212.986,4474931.177,-365762701,40.42314223,
6229,,RESTO,R0800CT,,,2,CIUDAD LINEAL,VENTAS,,,,444510.0,4475138.0,-365414403,40.42502527,
6230,,RESTO,R0800CT,,,1,FUENCARRAL-EL PARDO,EL PARDO,,,,433814.8,4487343.97,-378148824,40.53419722,
6231,,RESTO,R0800CT,,,2,CIUDAD LINEAL,SAN JUAN BAUTISTA,,,,444086.0,4478255.0,-365941634,40.45307644,
6236,,RESTO,R0800CT,,,2,CIUDAD LINEAL,VENTAS,,,,444589.0,4475304.0,-365322726,40.42652595,
6237,,RESTO,R0800CT,,,1,FUENCARRAL-EL PARDO,EL PARDO,,,,434272.12,4485387.88,-377588564,40.51661286,
6238,,RESTO,R0800CT,,,2,CIUDAD LINEAL,VENTAS,,,,444480.0,4475648.0,-365454220,40.42961763,
6243,,RESTO,R0800CT,,,2,CIUDAD LINEAL,VENTAS,,,,444505.0,4475228.0,-365421082,40.42583571,
6244,,RESTO,R0800CT,,,1,FUENCARRAL-EL PARDO,EL PARDO,,,,433939.03,4487057.57,-377999160,40.53162721,
6250,,RESTO,R0800CT,,,2,CIUDAD LINEAL,VENTAS,,,,444322.1173,4474960.795,-365634323,40.42341636,
6253,,RESTO,R0800CT,,,1,FUENCARRAL-EL PARDO,EL PARDO,,,,433945.47,4486924.52,-377990167,40.53042919,
6254,,RESTO,R0800CT,,,2,CIUDAD LINEAL,SAN JUAN BAUTISTA,,,,444086.0,4478255.0,-365941634,40.45307644,
6255,,RESTO,R0800CT,,,1,FUENCARRAL-EL PARDO,EL PARDO,,,,434445.57,4485419.82,-377384163,40.51691431,
6260,,RESTO,R0800CT,,,1,FUENCARRAL-EL PARDO,EL PARDO,,,,433947.38,4487160.44,-377990376,40.53255454,
6261,,RESTO,R0800CT,,,2,CIUDAD LINEAL,VENTAS,,,,444758.388,4475009.707,-365120494,40.42388607,
6262,,RESTO,R0800CT,,,2,CIUDAD LINEAL,VENTAS,,,,444322.1173,4474960.795,-365634323,40.42341636,
6267,,RESTO,R0800CT,,,1,FUENCARRAL-EL PARDO,EL PARDO,,,,434445.57,4485419.82,-377384163,40.51691431,
6268,,RESTO,R0800CT,,,2,CIUDAD LINEAL,SAN JUAN BAUTISTA,,,,444086.0,4478255.0,-365941634,40.45307644,
6269,,RESTO,R0800CT,,,2,CIUDAD LINEAL,VENTAS,,,,444257.0,4475045.0,-365711818,40.42417056,
6274,,RESTO,R0800CT,,,1,FUENCARRAL-EL PARDO,EL PARDO,,,,434135.39,4485799.88,-377754240,40.52031337,
6275,,RESTO,R0800CT,,,2,CIUDAD LINEAL,SAN JUAN BAUTISTA,,,,444178.0,4477729.0,-365828517,40.44834415,
6278,,RESTO,R0800CT,,,1,FUENCARRAL-EL PARDO,EL PARDO,,,,434135.39,4485799.88,-377754240,40.52031337,
6281,,RESTO,R0800CT,,,2,CIUDAD LINEAL,VENTAS,,,,444589.0,4475304.0,-365322726,40.42652595,
6282,,RESTO,R0800CT,,,1,FUENCARRAL-EL PARDO,EL PARDO,,,,434135.39,4485799.88,-377754240,40.52031337,
6286,,RESTO,R0800CT,,,2,CIUDAD LINEAL,VENTAS,,,,444130.0,4475150.0,-365862443,40.42510794,
6290,,RESTO,R0800CT,,,1,FUENCARRAL-EL PARDO,EL PARDO,,,,434135.39,4485799.88,-377754240,40.52031337,
6291,,RESTO,R0800CT,,,2,CIUDAD LINEAL,CONCEPCION,,,,445076.0,4476950.0,-364762873,40.44138632,
6292,,RESTO,R0800CT,,,2,CIUDAD LINEAL,VENTAS,,,,444473.0,4475172.0,-365458314,40.42532909,
6297,,RESTO,R0800CT,,,1,FUENCARRAL-EL PARDO,EL PARDO,,,,433941.78,4487184.65,-377997240,40.53277218,
6298,,RESTO,R0800CT,,,2,CIUDAD LINEAL,CONCEPCION,,,,445141.0,4476845.0,-364685327,40.44044471,
6299,,RESTO,R0800CT,,,2,CIUDAD LINEAL,VENTAS,,,,444686.4131,4475435.262,-365209037,40.42771491,
6304,,RESTO,R0800CT,,,1,FUENCARRAL-EL PARDO,EL PARDO,,,,433967.11,4487082.12,-377966264,40.53185059,
6305,,RESTO,R0800CT,,,2,CIUDAD LINEAL,CONCEPCION,,,,445096.0,4476916.0,-364738998,40.44108135,
6306,,RESTO,R0800CT,,,2,CIUDAD LINEAL,VENTAS,,,,444505.0,4475228.0,-365421082,40.42583571,
6392,,RESTO,R0800CT,,,1,FUENCARRAL-EL PARDO,EL PARDO,,,,433941.78,4487184.65,-377997240,40.53277218,
6393,,RESTO,R0800CT,,,2,CIUDAD LINEAL,CONCEPCION,,,,445200.0,4476752.0,-364614961,40.43961081,
6394,,RESTO,R0800CT,,,2,CIUDAD LINEAL,VENTAS,,,,444267.0,4475100.0,-365700512,40.4246667,
6397,,RESTO,R0800CT,,,2,CIUDAD LINEAL,VENTAS,,,,444567.0,4475565.0,-365350935,40.42887572,
6398,,RESTO,R0800CT,,,1,FUENCARRAL-EL PARDO,EL PARDO,,,,434205.93,4485585.02,-377668740,40.51838348,
6400,,RESTO,R0800CT,,,2,CIUDAD LINEAL,CONCEPCION,,,,445200.0,4476752.0,-364614961,40.43961081,
6403,,RESTO,R0800CT,,,2,CIUDAD LINEAL,SAN JUAN BAUTISTA,,,,444128.0,4477951.0,-365889430,40.45034068,
6404,,RESTO,R0800CT,,,2,CIUDAD LINEAL,VENTAS,,,,444480.0,4475648.0,-365454220,40.42961763,
6407,,RESTO,R0800CT,,,2,CIUDAD LINEAL,SAN JUAN BAUTISTA,,,,444178.0,4477729.0,-365828517,40.44834415,
6409,,RESTO,R0800CT,,,2,CIUDAD LINEAL,VENTAS,,,,444267.0,4475100.0,-365700512,40.4246667,
6412,,RESTO,R0800CT,,,2,CIUDAD LINEAL,SAN JUAN BAUTISTA,,,,444057.4469,4478280.438,-365975530,40.45330367,
6413,,RESTO,R0800CT,,,1,FUENCARRAL-EL PARDO,EL PARDO,,,,434205.93,4485585.02,-377668740,40.51838348,
6415,,RESTO,R0800CT,,,1,FUENCARRAL-EL PARDO,PEÑAGRANDE,,,,439158.88,4481522.79,-371783306,40.48216782,
6417,,RESTO,R0800CT,,,2,CIUDAD LINEAL,SAN JUAN BAUTISTA,,,,444105.0,4477891.0,-365916024,40.44979862,
6418,,RESTO,R0800CT,,,1,FUENCARRAL-EL PARDO,EL PARDO,,,,434205.93,4485585.02,-377668740,40.51838348,
6420,,RESTO,R0800CT,,,2,CHAMARTIN,PROSPERIDAD,,,,443791.0,4477581.0,-366283551,40.44698481,
6421,,RESTO,R0800CT,,,1,FUENCARRAL-EL PARDO,PEÑAGRANDE,,,,438595.17,4481377.13,-372446937,40.48081417,
6423,,RESTO,R0800CT,,,1,FUENCARRAL-EL PARDO,EL PARDO,,,,433720.42,4487244.94,-378259217,40.53329761,
6424,,RESTO,R0800CT,,,2,CHAMARTIN,CASTILLA,,,,441885.0,4480998.0,-368562311,40.47763558,
6426,,RESTO,R0800CT,,,1,FUENCARRAL-EL PARDO,PEÑAGRANDE,,,,438595.17,4481377.13,-372446937,40.48081417,
6428,,RESTO,R0800CT,,,1,FUENCARRAL-EL PARDO,EL PARDO,,,,433720.42,4487244.94,-378259217,40.53329761,
6429,,RESTO,R0800CT,,,2,CIUDAD LINEAL,VENTAS,,,,444669.33,4474926.536,-365224748,40.4231309,
6432,,RESTO,R0800CT,,,2,CIUDAD LINEAL,VENTAS,,,,444332.0,4475127.0,-365624129,40.42491428,
6434,,RESTO,R0800CT,,,1,FUENCARRAL-EL PARDO,EL PARDO,,,,434255.95,4485430.39,-377608091,40.51699451,
6436,,RESTO,R0800CT,,,1,FUENCARRAL-EL PARDO,PEÑAGRANDE,,,,438418.56,4480859.69,-372650265,40.47613982,
6437,,RESTO,R0800CT,,,1,TETUAN,ALMENARA,,,,441140.4761,4480557.228,-369436526,40.4736125,
6438,,RESTO,R0800CT,,,2,CIUDAD LINEAL,CONCEPCION,,,,445076.0,4476950.0,-364762873,40.44138632,
6440,,RESTO,R0800CT,,,1,FUENCARRAL-EL PARDO,EL PARDO,,,,433720.42,4487244.94,-378259217,40.53329761,
6442,,RESTO,R0800CT,,,1,FUENCARRAL-EL PARDO,PEÑAGRANDE,,,,438595.17,4481377.13,-372446937,40.48081417,
6443,,RESTO,R0800CT,,,2,CHAMARTIN,HISPANOAMERICA,,,,443505.0,4478624.0,-366630070,40.45636128,
6444,,RESTO,R0800CT,,,2,CIUDAD LINEAL,VENTAS,,,,444480.0,4475648.0,-365454220,40.42961763,
6446,,RESTO,R0800CT,,,1,FUENCARRAL-EL PARDO,EL PARDO,,,,434255.95,4485430.39,-377608091,40.51699451,
6448,,RESTO,R0800CT,,,1,FUENCARRAL-EL PARDO,VALVERDE,,,,441525.3,4482986.21,-369004987,40.4955209,
6449,,RESTO,R0800CT,,,2,CHAMARTIN,CASTILLA,,,,441704.0,4480034.0,-368766975,40.46893879,
6450,,RESTO,R0800CT,,,2,CIUDAD LINEAL,VENTAS,,,,444567.0,4475565.0,-365350935,40.42887572,
6452,,RESTO,R0800CT,,,1,FUENCARRAL-EL PARDO,EL PARDO,,,,433773.09,4487143.98,-378195975,40.53239236,
6454,,RESTO,R0800CT,,,1,FUENCARRAL-EL PARDO,VALVERDE,,,,441525.3,4482986.21,-369004987,40.4955209,
6456,,RESTO,R0800CT,,,2,CIUDAD LINEAL,VENTAS,,,,444413.0,4475044.0,-365527922,40.42417199,
6457,,RESTO,R0800CT,,,1,FUENCARRAL-EL PARDO,EL PARDO,,,,433773.09,4487143.98,-378195975,40.53239236,
6458,,RESTO,R0800CT,,,2,CIUDAD LINEAL,VENTAS,,,,444589.0,4475304.0,-365322726,40.42652595,
6461,,RESTO,R0800CT,,,1,FUENCARRAL-EL PARDO,VALVERDE,,,,441525.3,4482986.21,-369004987,40.4955209,
6462,,RESTO,R0800CT,,,2,CHAMARTIN,HISPANOAMERICA,,,,443536.0,4478843.0,-366595459,40.45833624,
6463,,RESTO,R0800CT,,,2,CIUDAD LINEAL,VENTAS,,,,444244.0,4475090.0,-365727536,40.42457508,
6465,,RESTO,R0800CT,,,1,FUENCARRAL-EL PARDO,VALVERDE,,,,441696.18,4482997.4,-368803451,40.49563373,
6466,,RESTO,R0800CT,,,1,FUENCARRAL-EL PARDO,EL PARDO,,,,433773.09,4487143.98,-378195975,40.53239236,
6467,,RESTO,R0800CT,,,2,CHAMARTIN,PROSPERIDAD,,,,443799.0,4477541.0,-366273764,40.44662502,
6469,,RESTO,R0800CT,,,2,CIUDAD LINEAL,VENTAS,,,,444188.572,4475094.745,-365792915,40.4246141,
6471,,RESTO,R0800CT,,,1,FUENCARRAL-EL PARDO,VALVERDE,,,,441746.04,4482648.27,-368741406,40.49249213,
6472,,RESTO,R0800CT,,,1,FUENCARRAL-EL PARDO,EL PARDO,,,,434306.05,4485445.93,-377549117,40.51713847,
6473,,RESTO,R0800CT,,,2,CHAMARTIN,CIUDAD JARDIN,,,,443028.0,4477899.0,-367186101,40.44979757,
6475,,RESTO,R0800CT,,,2,CIUDAD LINEAL,VENTAS,,,,444188.572,4475094.745,-365792915,40.4246141,
6477,,RESTO,R0800CT,,,1,FUENCARRAL-EL PARDO,EL PARDO,,,,434269.32,4485571.52,-377593776,40.5182669,
6478,,RESTO,R0800CT,,,1,FUENCARRAL-EL PARDO,EL PARDO,,,,434014.2,4485784.74,-377897137,40.52016735,
6479,,RESTO,R0800CT,,,2,CHAMARTIN,CASTILLA,,,,441739.0,4480121.0,-368726490,40.46972497,
6481,,RESTO,R0800CT,,,2,CIUDAD LINEAL,VENTAS,,,,444207.0,4474934.0,-365769782,40.42316726,
6483,,RESTO,R0800CT,,,1,FUENCARRAL-EL PARDO,EL PARDO,,,,434269.32,4485571.52,-377593776,40.5182669,
6484,,RESTO,R0800CT,,,1,FUENCARRAL-EL PARDO,EL PARDO,,,,434306.05,4485445.93,-377549117,40.51713847,
6485,,RESTO,R0800CT,,,2,CHAMARTIN,CASTILLA,,,,441987.0,4480766.0,-368439860,40.47555276,
6487,,RESTO,R0800CT,,,2,CIUDAD LINEAL,VENTAS,,,,444212.986,4474931.177,-365762701,40.42314223,
6489,,RESTO,R0800CT,,,1,FUENCARRAL-EL PARDO,EL PARDO,,,,434306.05,4485445.93,-377549117,40.51713847,
6490,,RESTO,R0800CT,,,1,FUENCARRAL-EL PARDO,EL PARDO,,,,434269.32,4485571.52,-377593776,40.5182669,
6493,,RESTO,R0800CT,,,2,CIUDAD LINEAL,VENTAS,,,,444351.0962,4475088.836,-365601284,40.42457176,
6494,,RESTO,R0800CT,,,2,CHAMARTIN,CASTILLA,,,,441895.0,4481053.0,-368551018,40.47813174,
6495,,RESTO,R0800CT,,,2,CHAMARTIN,HISPANOAMERICA,,,,443546.0,4478701.0,-366582403,40.45705772,
6496,,RESTO,R0800CT,,,2,CHAMARTIN,PROSPERIDAD,,,,443736.0,4477701.0,-366349468,40.44806211,
6497,,RESTO,R0800CT,,,2,CHAMARTIN,CASTILLA,,,,441701.0,4479923.0,-368769494,40.46793864,
6498,,RESTO,R0800CT,,,2,CHAMARTIN,PROSPERIDAD,,,,442482.0,4476760.0,-367819633,40.43949932,
6499,,RESTO,R0800CT,,,2,CHAMARTIN,CASTILLA,,,,441701.0,4479922.0,-368769484,40.46792963,
6501,,RESTO,R0800CT,,,2,CIUDAD LINEAL,VENTAS,,,,444330.0,4475075.0,-365626031,40.42444571,
6502,,RESTO,R0800CT,,,2,CHAMARTIN,PROSPERIDAD,,,,442606.0,4476855.0,-367674292,40.44036369,
6503,,RESTO,R0800CT,,,1,FUENCARRAL-EL PARDO,VALVERDE,,,,441303.28,4482740.0,-369264690,40.49328728,
6506,,RESTO,R0800CT,,,1,FUENCARRAL-EL PARDO,EL PARDO,,,,434306.05,4485445.93,-377549117,40.51713847,
6507,,RESTO,R0800CT,,,2,CIUDAD LINEAL,SAN JUAN BAUTISTA,,,,444135.0,4477823.0,-365880049,40.44918806,
6508,,RESTO,R0800CT,,,2,CHAMARTIN,CASTILLA,,,,441774.0,4480001.0,-368684104,40.46864642,
6509,,RESTO,R0800CT,,,1,FUENCARRAL-EL PARDO,EL PARDO,,,,434197.37,4485458.02,-377677524,40.51723876,
6512,,RESTO,R0800CT,,,1,FUENCARRAL-EL PARDO,EL PARDO,,,,433995.08,4486196.83,-377924005,40.523878,
6513,,RESTO,R0800CT,,,2,CHAMARTIN,CASTILLA,,,,441838.0,4480623.0,-368614317,40.47425414,
6514,,RESTO,R0800CT,,,1,FUENCARRAL-EL PARDO,EL PARDO,,,,434197.37,4485458.02,-377677524,40.51723876,
6517,,RESTO,R0800CT,,,1,FUENCARRAL-EL PARDO,EL PARDO,,,,434005.92,4485810.22,-377907176,40.52039622,
6518,,RESTO,R0800CT,,,2,CHAMARTIN,CASTILLA,,,,441739.0,4480121.0,-368726490,40.46972497,
6519,,RESTO,R0800CT,,,1,FUENCARRAL-EL PARDO,EL PARDO,,,,434299.26,4485316.16,-377555784,40.51596894,
6521,,RESTO,R0800CT,,,1,FUENCARRAL-EL PARDO,EL PARDO,,,,433995.08,4486196.83,-377924005,40.523878,
6522,,RESTO,R0800CT,,,2,CHAMARTIN,CASTILLA,,,,441821.0,4480422.0,-368632527,40.47244226,
6523,,RESTO,R0800CT,,,1,FUENCARRAL-EL PARDO,EL PARDO,,,,434299.26,4485316.16,-377555784,40.51596894,
6527,,RESTO,R0800CT,,,1,FUENCARRAL-EL PARDO,VALVERDE,,,,441303.28,4482740.0,-369264690,40.49328728,
6528,,RESTO,R0800CT,,,1,FUENCARRAL-EL PARDO,EL PARDO,,,,433860.71,4487160.39,-378092700,40.53254718,
6530,,RESTO,R0800CT,,,2,CHAMARTIN,CASTILLA,,,,441741.0,4480127.0,-368724186,40.46977916,
6532,,RESTO,R0800CT,,,1,FUENCARRAL-EL PARDO,EL PARDO,,,,434299.26,4485316.16,-377555784,40.51596894,
6533,,RESTO,R0800CT,,,1,FUENCARRAL-EL PARDO,EL PARDO,,,,433860.71,4487160.39,-378092700,40.53254718,
6535,,RESTO,R0800CT,,,2,CHAMARTIN,CASTILLA,,,,441805.0,4480433.0,-368651502,40.47254023,
6537,,RESTO,R0800CT,,,1,FUENCARRAL-EL PARDO,EL PARDO,,,,434376.25,4485364.64,-377465413,40.51641175,
6538,,RESTO,R0800CT,,,1,FUENCARRAL-EL PARDO,EL PARDO,,,,433734.62,4487394.75,-378244021,40.53464825,
6540,,RESTO,R0800CT,,,2,CHAMARTIN,CASTILLA,,,,441953.0,4480897.0,-368481168,40.47673049,
6542,,RESTO,R0800CT,,,1,FUENCARRAL-EL PARDO,EL PARDO,,,,434376.25,4485364.64,-377465413,40.51641175,
6543,,RESTO,R0800CT,,,1,FUENCARRAL-EL PARDO,EL PARDO,,,,433734.62,4487394.75,-378244021,40.53464825,
6546,,RESTO,R0800CT,,,1,FUENCARRAL-EL PARDO,EL PARDO,,,,434087.21,4485599.38,-377809024,40.51850341,
6547,,RESTO,R0800CT,,,1,FUENCARRAL-EL PARDO,EL PARDO,,,,434042.98,4486042.66,-377865853,40.52249303,
6550,,RESTO,R0800CT,,,1,FUENCARRAL-EL PARDO,EL PARDO,,,,434121.35,4485478.11,-377767464,40.5174137,
6551,,RESTO,R0800CT,,,1,FUENCARRAL-EL PARDO,EL PARDO,,,,434042.98,4486042.66,-377865853,40.52249303,
6555,,RESTO,R0800CT,,,1,FUENCARRAL-EL PARDO,EL PARDO,,,,434121.35,4485478.11,-377767464,40.5174137,
6557,,RESTO,R0800CT,,,1,FUENCARRAL-EL PARDO,EL PARDO,,,,434345.36,4485340.11,-377501619,40.51618834,
6559,,RESTO,R0800CT,,,1,FUENCARRAL-EL PARDO,EL PARDO,,,,434250.35,4485637.77,-377616856,40.51886218,
6561,,RESTO,R0800CT,,,1,FUENCARRAL-EL PARDO,EL PARDO,,,,434345.36,4485340.11,-377501619,40.51618834,
6563,,RESTO,R0800CT,,,1,FUENCARRAL-EL PARDO,EL PARDO,,,,433892.66,4487038.29,-378053703,40.53144983,
6565,,RESTO,R0800CT,,,1,FUENCARRAL-EL PARDO,EL PARDO,,,,434345.36,4485340.11,-377501619,40.51618834,
6567,,RESTO,R0800CT,,,1,FUENCARRAL-EL PARDO,EL PARDO,,,,433892.66,4487038.29,-378053703,40.53144983,
6569,,RESTO,R0800CT,,,1,FUENCARRAL-EL PARDO,EL PARDO,,,,434345.36,4485340.11,-377501619,40.51618834,
6572,,RESTO,R0800CT,,,1,FUENCARRAL-EL PARDO,EL PARDO,,,,434345.36,4485340.11,-377501619,40.51618834,
6575,,RESTO,R0800CT,,,1,FUENCARRAL-EL PARDO,FUENTELAREINA,,,,437337.8651,4481365.478,-373930106,40.48061528,
6578,,RESTO,R0800CT,,,1,FUENCARRAL-EL PARDO,FUENTELAREINA,,,,437392.24,4480919.22,-373861552,40.47659935,
6581,,RESTO,R0800CT,,,1,FUENCARRAL-EL PARDO,FUENTELAREINA,,,,437451.99,4481368.19,-373795496,40.48064831,
6583,,RESTO,R0800CT,,,1,FUENCARRAL-EL PARDO,FUENTELAREINA,,,,437416.67,4481318.41,-373836673,40.48019722,
6585,,RESTO,R0800CT,,,1,FUENCARRAL-EL PARDO,FUENTELAREINA,,,,437451.99,4481368.19,-373795496,40.48064831,
6586,,RESTO,R0800CT,,,1,FUENCARRAL-EL PARDO,PEÑAGRANDE,,,,438285.24,4481101.34,-372809888,40.47830679,
6587,,RESTO,R0800CT,,,1,FUENCARRAL-EL PARDO,EL GOLOSO,,,,441552.2417,4488889.663,-369027727,40.54870307,
6588,,RESTO,R0800CT,,,1,FUENCARRAL-EL PARDO,VALVERDE,,,,441588.77,4482059.46,-368921550,40.48717685,
6589,,RESTO,R0800CT,,,1,FUENCARRAL-EL PARDO,VALVERDE,,,,441642.83,4481875.6,-368856074,40.48552437,
6590,,RESTO,R0800CT,,,2,HORTALEZA,PINAR DEL REY,,,,445207.0,4481124.0,-364644449,40.47899648,
6591,,RESTO,R0800CT,,,1,FUENCARRAL-EL PARDO,PEÑAGRANDE,,,,438799.92,4480569.42,-372197592,40.47355316,
6592,,RESTO,R0800CT,,,1,FUENCARRAL-EL PARDO,PEÑAGRANDE,,,,438894.34,4481591.71,-372096064,40.48276925,
6593,,RESTO,R0800CT,,,1,FUENCARRAL-EL PARDO,PEÑAGRANDE,,,,438863.32,4481742.86,-372134118,40.48412858,
6594,,RESTO,R0800CT,,,1,FUENCARRAL-EL PARDO,EL GOLOSO,,,,441283.6677,4488618.548,-369342376,40.54624179,
6595,,RESTO,R0800CT,,,2,HORTALEZA,CANILLAS,,,,445134.076,4479492.352,-364716367,40.46429298,
6596,,RESTO,R0800CT,,,1,FUENCARRAL-EL PARDO,VALVERDE,,,,441588.77,4482059.46,-368921550,40.48717685,
6597,,RESTO,R0800CT,,,1,FUENCARRAL-EL PARDO,PEÑAGRANDE,,,,439158.88,4481522.79,-371783306,40.48216782,
6598,,RESTO,R0800CT,,,1,FUENCARRAL-EL PARDO,VALVERDE,,,,441642.83,4481875.6,-368856074,40.48552437,
6599,,RESTO,R0800CT,,,1,FUENCARRAL-EL PARDO,VALVERDE,,,,441365.57,4483257.95,-369195983,40.49795757,
6600,,RESTO,R0800CT,,,2,HORTALEZA,PINAR DEL REY,,,,445875.0,4480805.0,-363853671,40.47616658,
6601,,RESTO,R0800CT,,,1,FUENCARRAL-EL PARDO,PEÑAGRANDE,,,,438146.84,4480695.27,-372969197,40.47463848,
6602,,RESTO,R0800CT,,,1,FUENCARRAL-EL PARDO,PEÑAGRANDE,,,,437788.07,4480971.08,-373395117,40.47709627,
6603,,RESTO,R0800CT,,,1,FUENCARRAL-EL PARDO,VALVERDE,,,,441697.58,4482663.85,-368798730,40.49262908,
6604,,RESTO,R0800CT,,,2,HORTALEZA,PINAR DEL REY,,,,444681.0,4480322.0,-365257987,40.47173681,
6605,,RESTO,R0800CT,,,1,FUENCARRAL-EL PARDO,PEÑAGRANDE,,,,437877.68,4480748.28,-373287224,40.47509592,
6606,,RESTO,R0800CT,,,1,FUENCARRAL-EL PARDO,PEÑAGRANDE,,,,438399.33,4481390.49,-372678106,40.48092002,
6607,,RESTO,R0800CT,,,2,HORTALEZA,PINAR DEL REY,,,,445437.0,4480547.0,-364368148,40.47381373,
6608,,RESTO,R0800CT,,,2,HORTALEZA,PINAR DEL REY,,,,444721.0,4480200.0,-365209740,40.47064044,
6609,,RESTO,R0800CT,,,1,FUENCARRAL-EL PARDO,VALVERDE,,,,440902.27,4482568.15,-369736263,40.49171073,
6610,,RESTO,R0800CT,,,1,FUENCARRAL-EL PARDO,EL GOLOSO,,,,441283.6276,4488618.649,-369342425,40.5462427,
6611,,RESTO,R0800CT,,,1,FUENCARRAL-EL PARDO,VALVERDE,,,,441831.9521,4483040.063,-368643631,40.49602758,
6612,,RESTO,R0800CT,,,1,FUENCARRAL-EL PARDO,PEÑAGRANDE,,,,438285.24,4481101.34,-372809888,40.47830679,
6613,,RESTO,R0800CT,,,1,FUENCARRAL-EL PARDO,PEÑAGRANDE,,,,438195.75,4481733.39,-372921620,40.48399384,
6614,,RESTO,R0800CT,,,1,FUENCARRAL-EL PARDO,VALVERDE,,,,441891.2,4482722.53,-368570806,40.49317127,
6615,,RESTO,R0800CT,,,1,FUENCARRAL-EL PARDO,PEÑAGRANDE,,,,437900.37,4481053.14,-373263443,40.4778439,
6616,,RESTO,R0800CT,,,1,FUENCARRAL-EL PARDO,EL GOLOSO,,,,441399.2218,4488539.333,-369205185,40.54553638,
6617,,RESTO,R0800CT,,,1,FUENCARRAL-EL PARDO,PEÑAGRANDE,,,,437504.24,4481034.44,-373730566,40.47764572,
6618,,RESTO,R0800CT,,,1,FUENCARRAL-EL PARDO,PEÑAGRANDE,,,,438562.48,4481549.12,-372487170,40.4823611,
6619,,RESTO,R0800CT,,,2,HORTALEZA,PINAR DEL REY,,,,444983.0,4480759.0,-364905540,40.47569358,
6620,,RESTO,R0800CT,,,2,HORTALEZA,PINAR DEL REY,,,,445237.8205,4481130.908,-364608149,40.47906075,
6621,,RESTO,R0800CT,,,1,FUENCARRAL-EL PARDO,VALVERDE,,,,441675.55,4482010.47,-368818711,40.48674163,
6622,,RESTO,R0800CT,,,1,FUENCARRAL-EL PARDO,PEÑAGRANDE,,,,438205.51,4481187.89,-372904788,40.47908053,
6623,,RESTO,R0800CT,,,1,FUENCARRAL-EL PARDO,VALVERDE,,,,441588.77,4482059.46,-368921550,40.48717685,
6624,,RESTO,R0800CT,,,1,FUENCARRAL-EL PARDO,PEÑAGRANDE,,,,438146.84,4480695.27,-372969197,40.47463848,
6625,,RESTO,R0800CT,,,1,FUENCARRAL-EL PARDO,PEÑAGRANDE,,,,438863.32,4481742.86,-372134118,40.48412858,
6626,,RESTO,R0800CT,,,1,FUENCARRAL-EL PARDO,VALVERDE,,,,441697.58,4482663.85,-368798730,40.49262908,
6627,,RESTO,R0800CT,,,2,HORTALEZA,CANILLAS,,,,445169.0,4479454.0,-364674843,40.46394979,
6628,,RESTO,R0800CT,,,1,FUENCARRAL-EL PARDO,PEÑAGRANDE,,,,437964.53,4481033.03,-373187558,40.47766753,
6629,,RESTO,R0800CT,,,1,FUENCARRAL-EL PARDO,EL GOLOSO,,,,440849.346,4488243.056,-369851748,40.54282835,
6630,,RESTO,R0800CT,,,1,FUENCARRAL-EL PARDO,PEÑAGRANDE,,,,438226.23,4481225.42,-372880711,40.47942015,
6631,,RESTO,R0800CT,,,1,FUENCARRAL-EL PARDO,VALVERDE,,,,441891.2,4482722.53,-368570806,40.49317127,
6632,,RESTO,R0800CT,,,1,FUENCARRAL-EL PARDO,PEÑAGRANDE,,,,438195.75,4481733.39,-372921620,40.48399384,
6633,,RESTO,R0800CT,,,1,FUENCARRAL-EL PARDO,VALVERDE,,,,441588.77,4482059.46,-368921550,40.48717685,
6634,,RESTO,R0800CT,,,1,FUENCARRAL-EL PARDO,VALVERDE,,,,441793.6931,4481930.014,-368678581,40.48602515,
6635,,RESTO,R0800CT,,,1,FUENCARRAL-EL PARDO,PEÑAGRANDE,,,,438799.92,4480569.42,-372197592,40.47355316,
6636,,RESTO,R0800CT,,,1,FUENCARRAL-EL PARDO,PEÑAGRANDE,,,,438915.04,4481451.93,-372070296,40.48151159,
6637,,RESTO,R0800CT,,,1,FUENCARRAL-EL PARDO,VALVERDE,,,,441210.6418,4482875.169,-369375253,40.49449838,
6638,,RESTO,R0800CT,,,2,HORTALEZA,PINAR DEL REY,,,,445541.1041,4480560.087,-364245456,40.47393845,
6639,,RESTO,R0800CT,,,1,FUENCARRAL-EL PARDO,PEÑAGRANDE,,,,438728.29,4481217.39,-372288347,40.47938501,
6640,,RESTO,R0800CT,,,1,FUENCARRAL-EL PARDO,VALVERDE,,,,441856.78,4482904.42,-368613089,40.49480739,
6641,,RESTO,R0800CT,,,2,HORTALEZA,CANILLAS,,,,444807.0221,4479462.981,-365101860,40.46400674,
6642,,RESTO,R0800CT,,,1,FUENCARRAL-EL PARDO,PEÑAGRANDE,,,,438330.76,4481368.25,-372758785,40.48071458,
6643,,RESTO,R0800CT,,,1,FUENCARRAL-EL PARDO,EL GOLOSO,,,,441403.0065,4488539.36,-369200716,40.54553689,
6644,,RESTO,R0800CT,,,1,FUENCARRAL-EL PARDO,VALVERDE,,,,441854.68,4482669.07,-368613407,40.49268712,
6645,,RESTO,R0800CT,,,1,FUENCARRAL-EL PARDO,VALVERDE,,,,441891.2,4482722.53,-368570806,40.49317127,
6646,,RESTO,R0800CT,,,1,FUENCARRAL-EL PARDO,PEÑAGRANDE,,,,437964.53,4481033.03,-373187558,40.47766753,
6647,,RESTO,R0800CT,,,1,FUENCARRAL-EL PARDO,VALVERDE,,,,441588.77,4482059.46,-368921550,40.48717685,
6648,,RESTO,R0800CT,,,1,FUENCARRAL-EL PARDO,PEÑAGRANDE,,,,438226.23,4481225.42,-372880711,40.47942015,
6649,,RESTO,R0800CT,,,1,FUENCARRAL-EL PARDO,PEÑAGRANDE,,,,438817.67,4480638.43,-372177319,40.47417614,
6650,,RESTO,R0800CT,,,1,FUENCARRAL-EL PARDO,PEÑAGRANDE,,,,438195.75,4481733.39,-372921620,40.48399384,
6651,,RESTO,R0800CT,,,1,FUENCARRAL-EL PARDO,PEÑAGRANDE,,,,437686.5,4481104.42,-373516246,40.47828982,
6652,,RESTO,R0800CT,,,1,FUENCARRAL-EL PARDO,PEÑAGRANDE,,,,438195.75,4481733.39,-372921620,40.48399384,
6653,,RESTO,R0800CT,,,1,FUENCARRAL-EL PARDO,PEÑAGRANDE,,,,438863.32,4481742.86,-372134118,40.48412858,
6654,,RESTO,R0800CT,,,1,FUENCARRAL-EL PARDO,PEÑAGRANDE,,,,438918.44,4481520.21,-372066943,40.48212693,
6655,,RESTO,R0800CT,,,2,HORTALEZA,PINAR DEL REY,,,,444726.0,4480355.0,-365205193,40.47203709,
6656,,RESTO,R0800CT,,,1,FUENCARRAL-EL PARDO,PEÑAGRANDE,,,,438195.75,4481733.39,-372921620,40.48399384,
6657,,RESTO,R0800CT,,,1,FUENCARRAL-EL PARDO,EL GOLOSO,,,,440849.3624,4488243.222,-369851730,40.54282986,
6658,,RESTO,R0800CT,,,1,FUENCARRAL-EL PARDO,PEÑAGRANDE,,,,438656.32,4481106.68,-372372180,40.47838239,
6659,,RESTO,R0800CT,,,1,FUENCARRAL-EL PARDO,VALVERDE,,,,441891.2,4482722.53,-368570806,40.49317127,
6660,,RESTO,R0800CT,,,1,FUENCARRAL-EL PARDO,PEÑAGRANDE,,,,438918.44,4481520.21,-372066943,40.48212693,
6661,,RESTO,R0800CT,,,1,FUENCARRAL-EL PARDO,VALVERDE,,,,441588.77,4482059.46,-368921550,40.48717685,
6662,,RESTO,R0800CT,,,1,FUENCARRAL-EL PARDO,PEÑAGRANDE,,,,438656.32,4481106.68,-372372180,40.47838239,
6663,,RESTO,R0800CT,,,1,FUENCARRAL-EL PARDO,PEÑAGRANDE,,,,438817.67,4480638.43,-372177319,40.47417614,
6664,,RESTO,R0800CT,,,1,FUENCARRAL-EL PARDO,PEÑAGRANDE,,,,438533.46,4481311.81,-372519106,40.48022118,
6665,,RESTO,R0800CT,,,1,FUENCARRAL-EL PARDO,VALVERDE,,,,441210.6418,4482875.169,-369375253,40.49449838,
6666,,RESTO,R0800CT,,,1,FUENCARRAL-EL PARDO,PEÑAGRANDE,,,,438897.59,4481744.25,-372093700,40.48414362,
6667,,RESTO,R0800CT,,,1,FUENCARRAL-EL PARDO,PEÑAGRANDE,,,,438728.29,4481217.39,-372288347,40.47938501,
6668,,RESTO,R0800CT,,,1,FUENCARRAL-EL PARDO,PEÑAGRANDE,,,,438533.46,4481311.81,-372519106,40.48022118,
6669,,RESTO,R0800CT,,,2,HORTALEZA,PINAR DEL REY,,,,444637.0,4480143.0,-365308327,40.47012136,
6670,,RESTO,R0800CT,,,1,FUENCARRAL-EL PARDO,PEÑAGRANDE,,,,438897.59,4481744.25,-372093700,40.48414362,
6671,,RESTO,R0800CT,,,1,FUENCARRAL-EL PARDO,EL GOLOSO,,,,440849.4807,4488243.177,-369851590,40.54282946,
6672,,RESTO,R0800CT,,,1,FUENCARRAL-EL PARDO,PEÑAGRANDE,,,,438897.59,4481744.25,-372093700,40.48414362,
6673,,RESTO,R0800CT,,,1,FUENCARRAL-EL PARDO,VALVERDE,,,,441599.28,4482650.35,-368914594,40.49250056,
6674,,RESTO,R0800CT,,,1,FUENCARRAL-EL PARDO,PEÑAGRANDE,,,,438897.59,4481744.25,-372093700,40.48414362,
6675,,RESTO,R0800CT,,,1,FUENCARRAL-EL PARDO,VALVERDE,,,,441588.77,4482059.46,-368921550,40.48717685,
6676,,RESTO,R0800CT,,,1,FUENCARRAL-EL PARDO,PEÑAGRANDE,,,,438897.59,4481744.25,-372093700,40.48414362,
6677,,RESTO,R0800CT,,,1,FUENCARRAL-EL PARDO,PEÑAGRANDE,,,,438525.3,4480859.25,-372524345,40.47614377,
6678,,RESTO,R0800CT,,,1,FUENCARRAL-EL PARDO,PEÑAGRANDE,,,,438323.64,4481725.71,-372770662,40.48393417,
6679,,RESTO,R0800CT,,,1,FUENCARRAL-EL PARDO,VALVERDE,,,,441852.02,4482612.15,-368616024,40.49217418,
6680,,RESTO,R0800CT,,,1,FUENCARRAL-EL PARDO,PEÑAGRANDE,,,,438323.64,4481725.71,-372770662,40.48393417,
6681,,RESTO,R0800CT,,,1,FUENCARRAL-EL PARDO,VALVERDE,,,,441599.28,4482650.35,-368914594,40.49250056,
6682,,RESTO,R0800CT,,,1,FUENCARRAL-EL PARDO,PEÑAGRANDE,,,,438323.64,4481725.71,-372770662,40.48393417,
6683,,RESTO,R0800CT,,,1,FUENCARRAL-EL PARDO,PEÑAGRANDE,,,,438675.35,4480858.94,-372347335,40.47615207,
6684,,RESTO,R0800CT,,,1,FUENCARRAL-EL PARDO,PEÑAGRANDE,,,,438323.64,4481725.71,-372770662,40.48393417,
6686,,RESTO,R0800CT,,,1,FUENCARRAL-EL PARDO,PEÑAGRANDE,,,,438323.64,4481725.71,-372770662,40.48393417,
6687,,RESTO,R0800CT,,,1,FUENCARRAL-EL PARDO,EL GOLOSO,,,,440849.6099,4488243.145,-369851437,40.54282918,
6688,,RESTO,R0800CT,,,1,FUENCARRAL-EL PARDO,PEÑAGRANDE,,,,438452.27,4481325.99,-372615025,40.48034291,
6689,,RESTO,R0800CT,,,1,FUENCARRAL-EL PARDO,PEÑAGRANDE,,,,438285.24,4481101.34,-372809888,40.47830679,
6690,,RESTO,R0800CT,,,1,FUENCARRAL-EL PARDO,PEÑAGRANDE,,,,438890.53,4481407.35,-372098782,40.48110819,
6691,,RESTO,R0800CT,,,1,FUENCARRAL-EL PARDO,PEÑAGRANDE,,,,438452.27,4481325.99,-372615025,40.48034291,
6692,,RESTO,R0800CT,,,1,FUENCARRAL-EL PARDO,PEÑAGRANDE,,,,438890.53,4481407.35,-372098782,40.48110819,
6693,,RESTO,R0800CT,,,1,FUENCARRAL-EL PARDO,PEÑAGRANDE,,,,438817.67,4480638.43,-372177319,40.47417614,
6694,,RESTO,R0800CT,,,1,FUENCARRAL-EL PARDO,PEÑAGRANDE,,,,438890.53,4481407.35,-372098782,40.48110819,
6695,,RESTO,R0800CT,,,1,FUENCARRAL-EL PARDO,VALVERDE,,,,441777.68,4482678.37,-368704349,40.4927655,
6696,,RESTO,R0800CT,,,1,FUENCARRAL-EL PARDO,PEÑAGRANDE,,,,438158.56,4481457.04,-372962801,40.48150163,
6697,,RESTO,R0800CT,,,1,FUENCARRAL-EL PARDO,VALVERDE,,,,441576.93,4483291.11,-368946875,40.49827119,
6698,,RESTO,R0800CT,,,1,FUENCARRAL-EL PARDO,PEÑAGRANDE,,,,438268.59,4480665.76,-372825290,40.4743817,
6699,,RESTO,R0800CT,,,1,FUENCARRAL-EL PARDO,PEÑAGRANDE,,,,438728.29,4481217.39,-372288347,40.47938501,
6700,,RESTO,R0800CT,,,1,FUENCARRAL-EL PARDO,PEÑAGRANDE,,,,438158.56,4481457.04,-372962801,40.48150163,
6701,,RESTO,R0800CT,,,2,HORTALEZA,PINAR DEL REY,,,,443944.0,4479653.0,-366121436,40.46566074,
6702,,RESTO,R0800CT,,,1,FUENCARRAL-EL PARDO,PEÑAGRANDE,,,,438268.59,4480665.76,-372825290,40.4743817,
6703,,RESTO,R0800CT,,,1,FUENCARRAL-EL PARDO,EL GOLOSO,,,,440849.2554,4488243.266,-369851857,40.54283024,
6704,,RESTO,R0800CT,,,1,FUENCARRAL-EL PARDO,PEÑAGRANDE,,,,438268.59,4480665.76,-372825290,40.4743817,
6705,,RESTO,R0800CT,,,1,FUENCARRAL-EL PARDO,VALVERDE,,,,440905.26,4482605.01,-369733079,40.49204299,
6706,,RESTO,R0800CT,,,1,FUENCARRAL-EL PARDO,PEÑAGRANDE,,,,438268.59,4480665.76,-372825290,40.4743817,
6707,,RESTO,R0800CT,,,1,FUENCARRAL-EL PARDO,PEÑAGRANDE,,,,438817.67,4480638.43,-372177319,40.47417614,
6708,,RESTO,R0800CT,,,1,FUENCARRAL-EL PARDO,PEÑAGRANDE,,,,438627.23,4481474.32,-372410056,40.48169206,
6709,,RESTO,R0800CT,,,1,FUENCARRAL-EL PARDO,VALVERDE,,,,441777.68,4482678.37,-368704349,40.4927655,
6710,,RESTO,R0800CT,,,1,FUENCARRAL-EL PARDO,PEÑAGRANDE,,,,438627.23,4481474.32,-372410056,40.48169206,
6711,,RESTO,R0800CT,,,1,FUENCARRAL-EL PARDO,VALVERDE,,,,441599.28,4482650.35,-368914594,40.49250056,
6712,,RESTO,R0800CT,,,1,FUENCARRAL-EL PARDO,PEÑAGRANDE,,,,437776.38,4481133.13,-373410497,40.47855519,
6713,,RESTO,R0800CT,,,1,FUENCARRAL-EL PARDO,PEÑAGRANDE,,,,438457.7554,4480657.645,-372602068,40.47432264,
6714,,RESTO,R0800CT,,,1,FUENCARRAL-EL PARDO,PEÑAGRANDE,,,,438387.98,4481720.15,-372694700,40.48388886,
6715,,RESTO,R0800CT,,,2,HORTALEZA,PINAR DEL REY,,,,444969.4978,4480213.145,-364916733,40.47077536,
6716,,RESTO,R0800CT,,,1,FUENCARRAL-EL PARDO,PEÑAGRANDE,,,,437776.38,4481133.13,-373410497,40.47855519,
6717,,RESTO,R0800CT,,,1,FUENCARRAL-EL PARDO,EL GOLOSO,,,,440849.2457,4488243.134,-369851867,40.54282905,
6718,,RESTO,R0800CT,,,1,FUENCARRAL-EL PARDO,PEÑAGRANDE,,,,438387.98,4481720.15,-372694700,40.48388886,
6719,,RESTO,R0800CT,,,1,FUENCARRAL-EL PARDO,VALVERDE,,,,441184.1849,4482741.684,-369405233,40.49329402,
6720,,RESTO,R0800CT,,,1,FUENCARRAL-EL PARDO,PEÑAGRANDE,,,,438440.01,4480771.89,-372624110,40.47535048,
6721,,RESTO,R0800CT,,,1,FUENCARRAL-EL PARDO,PEÑAGRANDE,,,,438556.83,4481238.39,-372490824,40.47956152,
6722,,RESTO,R0800CT,,,1,FUENCARRAL-EL PARDO,PEÑAGRANDE,,,,438387.98,4481720.15,-372694700,40.48388886,
6723,,RESTO,R0800CT,,,1,FUENCARRAL-EL PARDO,VALVERDE,,,,441416.94,4482760.55,-369130765,40.49348043,
6724,,RESTO,R0800CT,,,1,FUENCARRAL-EL PARDO,PEÑAGRANDE,,,,438200.69,4481061.23,-372909240,40.47793918,
6725,,RESTO,R0800CT,,,1,FUENCARRAL-EL PARDO,VALVERDE,,,,441293.09,4482459.78,-369274117,40.49076223,
6726,,RESTO,R0800CT,,,1,FUENCARRAL-EL PARDO,PEÑAGRANDE,,,,438250.23,4481298.21,-372853106,40.48007766,
6727,,RESTO,R0800CT,,,1,FUENCARRAL-EL PARDO,PEÑAGRANDE,,,,438457.7554,4480657.645,-372602068,40.47432264,
6728,,RESTO,R0800CT,,,2,HORTALEZA,PINAR DEL REY,,,,444791.0,4480376.0,-365128702,40.47223059,
6729,,RESTO,R0800CT,,,1,FUENCARRAL-EL PARDO,PEÑAGRANDE,,,,438696.82,4480650.9,-372319997,40.47427956,
6730,,RESTO,R0800CT,,,1,FUENCARRAL-EL PARDO,EL GOLOSO,,,,440849.3199,4488243.094,-369851779,40.5428287,
6731,,RESTO,R0800CT,,,1,FUENCARRAL-EL PARDO,PEÑAGRANDE,,,,438696.82,4480650.9,-372319997,40.47427956,
6732,,RESTO,R0800CT,,,1,FUENCARRAL-EL PARDO,VALVERDE,,,,441184.0925,4482741.881,-369405344,40.49329578,
6733,,RESTO,R0800CT,,,1,FUENCARRAL-EL PARDO,PEÑAGRANDE,,,,438696.82,4480650.9,-372319997,40.47427956,
6734,,RESTO,R0800CT,,,1,FUENCARRAL-EL PARDO,PEÑAGRANDE,,,,438306.62,4481293.83,-372786539,40.48004239,
6735,,RESTO,R0800CT,,,1,FUENCARRAL-EL PARDO,PEÑAGRANDE,,,,438456.0,4481181.7,-372609224,40.47904337,
6736,,RESTO,R0800CT,,,1,FUENCARRAL-EL PARDO,PEÑAGRANDE,,,,438556.83,4481238.39,-372490824,40.47956152,
6737,,RESTO,R0800CT,,,1,FUENCARRAL-EL PARDO,PEÑAGRANDE,,,,438456.0,4481181.7,-372609224,40.47904337,
6738,,RESTO,R0800CT,,,1,FUENCARRAL-EL PARDO,PEÑAGRANDE,,,,438556.83,4481238.39,-372490824,40.47956152,
6739,,RESTO,R0800CT,,,1,FUENCARRAL-EL PARDO,PEÑAGRANDE,,,,438456.0,4481181.7,-372609224,40.47904337,
6740,,RESTO,R0800CT,,,1,FUENCARRAL-EL PARDO,PEÑAGRANDE,,,,437667.93,4481214.0,-373539230,40.47927556,
6741,,RESTO,R0800CT,,,1,FUENCARRAL-EL PARDO,PEÑAGRANDE,,,,437743.08,4480855.76,-373447058,40.47605406,
6742,,RESTO,R0800CT,,,1,FUENCARRAL-EL PARDO,PEÑAGRANDE,,,,437727.94,4481205.91,-373468356,40.47920718,
6743,,RESTO,R0800CT,,,1,FUENCARRAL-EL PARDO,PEÑAGRANDE,,,,437784.4132,4480842.473,-373398169,40.47593746,
6744,,RESTO,R0800CT,,,1,FUENCARRAL-EL PARDO,PEÑAGRANDE,,,,437727.94,4481205.91,-373468356,40.47920718,
6745,,RESTO,R0800CT,,,1,FUENCARRAL-EL PARDO,PEÑAGRANDE,,,,438702.28,4481783.61,-372324506,40.48448379,
6746,,RESTO,R0800CT,,,1,FUENCARRAL-EL PARDO,PEÑAGRANDE,,,,437667.93,4481214.0,-373539230,40.47927556,
6747,,RESTO,R0800CT,,,1,FUENCARRAL-EL PARDO,PEÑAGRANDE,,,,438702.28,4481783.61,-372324506,40.48448379,
6748,,RESTO,R0800CT,,,1,FUENCARRAL-EL PARDO,PEÑAGRANDE,,,,437645.0,4480884.11,-373563036,40.47630209,
6749,,RESTO,R0800CT,,,1,FUENCARRAL-EL PARDO,PEÑAGRANDE,,,,438702.28,4481783.61,-372324506,40.48448379,
6750,,RESTO,R0800CT,,,1,FUENCARRAL-EL PARDO,PEÑAGRANDE,,,,437645.0,4480884.11,-373563036,40.47630209,
6751,,RESTO,R0800CT,,,1,FUENCARRAL-EL PARDO,PEÑAGRANDE,,,,438702.28,4481783.61,-372324506,40.48448379,
6752,,RESTO,R0800CT,,,1,FUENCARRAL-EL PARDO,PEÑAGRANDE,,,,438189.7336,4480780.156,-372919426,40.47540635,
6753,,RESTO,R0800CT,,,1,FUENCARRAL-EL PARDO,PEÑAGRANDE,,,,439007.91,4481491.85,-371961117,40.48187803,
6754,,RESTO,R0800CT,,,1,FUENCARRAL-EL PARDO,PEÑAGRANDE,,,,438189.7336,4480780.156,-372919426,40.47540635,
6755,,RESTO,R0800CT,,,1,FUENCARRAL-EL PARDO,PEÑAGRANDE,,,,439007.91,4481491.85,-371961117,40.48187803,
6756,,RESTO,R0800CT,,,1,FUENCARRAL-EL PARDO,PEÑAGRANDE,,,,438189.7336,4480780.156,-372919426,40.47540635,
6757,,RESTO,R0800CT,,,1,FUENCARRAL-EL PARDO,PEÑAGRANDE,,,,438702.28,4481783.61,-372324506,40.48448379,
6758,,RESTO,R0800CT,,,1,FUENCARRAL-EL PARDO,PEÑAGRANDE,,,,438709.48,4480507.04,-372303673,40.47298455,
6759,,RESTO,R0800CT,,,1,FUENCARRAL-EL PARDO,PEÑAGRANDE,,,,438894.34,4481591.71,-372096064,40.48276925,
6760,,RESTO,R0800CT,,,1,FUENCARRAL-EL PARDO,PEÑAGRANDE,,,,438709.48,4480507.04,-372303673,40.47298455,
6761,,RESTO,R0800CT,,,1,FUENCARRAL-EL PARDO,PEÑAGRANDE,,,,438894.34,4481591.71,-372096064,40.48276925,
6762,,RESTO,R0800CT,,,1,FUENCARRAL-EL PARDO,PEÑAGRANDE,,,,438727.71,4480671.58,-372283758,40.47446813,
6763,,RESTO,R0800CT,,,1,FUENCARRAL-EL PARDO,PEÑAGRANDE,,,,438187.04,4481441.3,-372929048,40.48136195,
6764,,RESTO,R0800CT,,,1,FUENCARRAL-EL PARDO,PEÑAGRANDE,,,,438727.71,4480671.58,-372283758,40.47446813,
6765,,RESTO,R0800CT,,,1,FUENCARRAL-EL PARDO,PEÑAGRANDE,,,,438894.34,4481591.71,-372096064,40.48276925,
6766,,RESTO,R0800CT,,,1,FUENCARRAL-EL PARDO,PEÑAGRANDE,,,,438610.91,4480945.32,-372424188,40.47692545,
6767,,RESTO,R0800CT,,,1,FUENCARRAL-EL PARDO,PEÑAGRANDE,,,,438894.34,4481591.71,-372096064,40.48276925,
6768,,RESTO,R0800CT,,,1,FUENCARRAL-EL PARDO,PEÑAGRANDE,,,,438727.71,4480671.58,-372283758,40.47446813,
6769,,RESTO,R0800CT,,,1,FUENCARRAL-EL PARDO,PEÑAGRANDE,,,,439021.25,4480497.96,-371935822,40.4729257,
6770,,RESTO,R0800CT,,,1,FUENCARRAL-EL PARDO,PEÑAGRANDE,,,,438612.63,4481482.1,-372427356,40.48176107,
6771,,RESTO,R0800CT,,,1,FUENCARRAL-EL PARDO,PEÑAGRANDE,,,,438098.53,4480776.18,-373026974,40.47536375,
6772,,RESTO,R0800CT,,,1,FUENCARRAL-EL PARDO,PEÑAGRANDE,,,,438841.97,4481381.23,-372155818,40.48086932,
6773,,RESTO,R0800CT,,,1,FUENCARRAL-EL PARDO,PEÑAGRANDE,,,,438192.08,4480803.91,-372916889,40.47562051,
6774,,RESTO,R0800CT,,,1,FUENCARRAL-EL PARDO,PEÑAGRANDE,,,,438612.63,4481482.1,-372427356,40.48176107,
6775,,RESTO,R0800CT,,,1,FUENCARRAL-EL PARDO,PEÑAGRANDE,,,,438192.08,4480803.91,-372916889,40.47562051,
6776,,RESTO,R0800CT,,,1,FUENCARRAL-EL PARDO,PEÑAGRANDE,,,,439081.99,4480424.72,-371863470,40.47227039,
6777,,RESTO,R0800CT,,,1,FUENCARRAL-EL PARDO,PEÑAGRANDE,,,,439021.25,4480497.96,-371935822,40.4729257,
6778,,RESTO,R0800CT,,,1,FUENCARRAL-EL PARDO,PEÑAGRANDE,,,,438841.97,4481381.23,-372155818,40.48086932,
6779,,RESTO,R0800CT,,,1,FUENCARRAL-EL PARDO,PEÑAGRANDE,,,,437915.59,4480815.06,-373243158,40.47570033,
6780,,RESTO,R0800CT,,,1,FUENCARRAL-EL PARDO,PEÑAGRANDE,,,,438841.97,4481381.23,-372155818,40.48086932,
6781,,RESTO,R0800CT,,,1,FUENCARRAL-EL PARDO,PEÑAGRANDE,,,,438233.84,4481403.92,-372873472,40.48102871,
6782,,RESTO,R0800CT,,,1,FUENCARRAL-EL PARDO,PEÑAGRANDE,,,,439081.99,4480424.72,-371863470,40.47227039,
6783,,RESTO,R0800CT,,,1,FUENCARRAL-EL PARDO,PEÑAGRANDE,,,,438509.12,4481037.1,-372545156,40.4777447,
6784,,RESTO,R0800CT,,,1,FUENCARRAL-EL PARDO,PEÑAGRANDE,,,,439081.99,4480424.72,-371863470,40.47227039,
6785,,RESTO,R0800CT,,,1,FUENCARRAL-EL PARDO,PEÑAGRANDE,,,,438338.6734,4480795.071,-372743876,40.47555179,
6786,,RESTO,R0800CT,,,1,FUENCARRAL-EL PARDO,PEÑAGRANDE,,,,439081.99,4480424.72,-371863470,40.47227039,
6787,,RESTO,R0800CT,,,1,FUENCARRAL-EL PARDO,PEÑAGRANDE,,,,438346.29,4481244.43,-372739259,40.47960033,
6788,,RESTO,R0800CT,,,1,FUENCARRAL-EL PARDO,PEÑAGRANDE,,,,438757.09,4480995.14,-372252225,40.47738504,
6789,,RESTO,R0800CT,,,1,FUENCARRAL-EL PARDO,PEÑAGRANDE,,,,438346.29,4481244.43,-372739259,40.47960033,
6790,,RESTO,R0800CT,,,1,FUENCARRAL-EL PARDO,PEÑAGRANDE,,,,438757.09,4480995.14,-372252225,40.47738504,
6791,,RESTO,R0800CT,,,1,FUENCARRAL-EL PARDO,PEÑAGRANDE,,,,438265.915,4480719.521,-372828969,40.4748658,
6792,,RESTO,R0800CT,,,1,FUENCARRAL-EL PARDO,PEÑAGRANDE,,,,438610.2,4481111.0,-372426629,40.4784179,
6793,,RESTO,R0800CT,,,1,FUENCARRAL-EL PARDO,PEÑAGRANDE,,,,438415.92,4480946.31,-372654221,40.47691993,
6794,,RESTO,R0800CT,,,1,FUENCARRAL-EL PARDO,PEÑAGRANDE,,,,438610.2,4481111.0,-372426629,40.4784179,
6795,,RESTO,R0800CT,,,1,FUENCARRAL-EL PARDO,PEÑAGRANDE,,,,438005.8,4480730.74,-373135918,40.47494749,
6796,,RESTO,R0800CT,,,1,FUENCARRAL-EL PARDO,PEÑAGRANDE,,,,438610.2,4481111.0,-372426629,40.4784179,
6797,,RESTO,R0800CT,,,1,FUENCARRAL-EL PARDO,PEÑAGRANDE,,,,438005.8,4480730.74,-373135918,40.47494749,
6798,,RESTO,R0800CT,,,1,FUENCARRAL-EL PARDO,PEÑAGRANDE,,,,438428.19,4481704.52,-372647109,40.48375104,
6799,,RESTO,R0800CT,,,1,FUENCARRAL-EL PARDO,PEÑAGRANDE,,,,438643.32,4481240.57,-372388812,40.47958755,
6800,,RESTO,R0800CT,,,1,FUENCARRAL-EL PARDO,PEÑAGRANDE,,,,438643.32,4481240.57,-372388812,40.47958755,
6801,,RESTO,R0800CT,,,1,FUENCARRAL-EL PARDO,PEÑAGRANDE,,,,438428.19,4481704.52,-372647109,40.48375104,
6802,,RESTO,R0800CT,,,1,FUENCARRAL-EL PARDO,PEÑAGRANDE,,,,437796.97,4481102.8,-373385910,40.47828351,
6803,,RESTO,R0800CT,,,1,FUENCARRAL-EL PARDO,PEÑAGRANDE,,,,437796.97,4481102.8,-373385910,40.47828351,
6804,,RESTO,R0800CT,,,1,FUENCARRAL-EL PARDO,PEÑAGRANDE,,,,438428.19,4481704.52,-372647109,40.48375104,
6805,,RESTO,R0800CT,,,1,FUENCARRAL-EL PARDO,PEÑAGRANDE,,,,438540.17,4481501.35,-372513027,40.48192912,
6806,,RESTO,R0800CT,,,1,FUENCARRAL-EL PARDO,PEÑAGRANDE,,,,438710.53,4481492.21,-372311956,40.48185937,
6807,,RESTO,R0800CT,,,1,FUENCARRAL-EL PARDO,PEÑAGRANDE,,,,438540.17,4481501.35,-372513027,40.48192912,
6808,,RESTO,R0800CT,,,1,FUENCARRAL-EL PARDO,PEÑAGRANDE,,,,438710.53,4481492.21,-372311956,40.48185937,
6809,,RESTO,R0800CT,,,1,FUENCARRAL-EL PARDO,PEÑAGRANDE,,,,438657.27,4481401.54,-372373912,40.48103866,
6810,,RESTO,R0800CT,,,1,FUENCARRAL-EL PARDO,PEÑAGRANDE,,,,438345.46,4481036.64,-372738218,40.47772842,
6811,,RESTO,R0800CT,,,1,FUENCARRAL-EL PARDO,PEÑAGRANDE,,,,438657.27,4481401.54,-372373912,40.48103866,
6812,,RESTO,R0800CT,,,1,FUENCARRAL-EL PARDO,PEÑAGRANDE,,,,438710.53,4481492.21,-372311956,40.48185937,
6813,,RESTO,R0800CT,,,1,FUENCARRAL-EL PARDO,PEÑAGRANDE,,,,438974.68,4481598.54,-372001347,40.48283669,
6814,,RESTO,R0800CT,,,1,FUENCARRAL-EL PARDO,PEÑAGRANDE,,,,438710.53,4481492.21,-372311956,40.48185937,
6815,,RESTO,R0800CT,,,1,FUENCARRAL-EL PARDO,PEÑAGRANDE,,,,438974.68,4481598.54,-372001347,40.48283669,
6816,,RESTO,R0800CT,,,1,FUENCARRAL-EL PARDO,PEÑAGRANDE,,,,437489.609,4480922.261,-373746720,40.47663408,
6817,,RESTO,R0800CT,,,1,FUENCARRAL-EL PARDO,PEÑAGRANDE,,,,437755.15,4480786.573,-373432140,40.4754317,
6818,,RESTO,R0800CT,,,1,FUENCARRAL-EL PARDO,PEÑAGRANDE,,,,438710.53,4481492.21,-372311956,40.48185937,
6819,,RESTO,R0800CT,,,1,FUENCARRAL-EL PARDO,PEÑAGRANDE,,,,437755.15,4480786.573,-373432140,40.4754317,
6820,,RESTO,R0800CT,,,1,FUENCARRAL-EL PARDO,PEÑAGRANDE,,,,437489.609,4480922.261,-373746720,40.47663408,
6821,,RESTO,R0800CT,,,1,FUENCARRAL-EL PARDO,PEÑAGRANDE,,,,439016.59,4480445.3,-371940812,40.47245098,
6822,,RESTO,R0800CT,,,1,FUENCARRAL-EL PARDO,PEÑAGRANDE,,,,437602.82,4481016.03,-373614092,40.47748729,
6823,,RESTO,R0800CT,,,1,FUENCARRAL-EL PARDO,PEÑAGRANDE,,,,437893.72,4480964.52,-373270420,40.47704508,
6824,,RESTO,R0800CT,,,1,FUENCARRAL-EL PARDO,PEÑAGRANDE,,,,438790.57,4480540.05,-372208338,40.4732879,
6825,,RESTO,R0800CT,,,1,FUENCARRAL-EL PARDO,PEÑAGRANDE,,,,438340.59,4480658.3,-372740285,40.47431985,
6826,,RESTO,R0800CT,,,1,FUENCARRAL-EL PARDO,PEÑAGRANDE,,,,437852.9335,4480822.97,-373317148,40.4757669,
6827,,RESTO,R0800CT,,,1,FUENCARRAL-EL PARDO,PEÑAGRANDE,,,,439016.59,4480445.3,-371940812,40.47245098,
6828,,RESTO,R0800CT,,,1,FUENCARRAL-EL PARDO,PEÑAGRANDE,,,,438369.68,4480858.09,-372707911,40.47612178,
6829,,RESTO,R0800CT,,,1,FUENCARRAL-EL PARDO,PEÑAGRANDE,,,,439016.59,4480445.3,-371940812,40.47245098,
6830,,RESTO,R0800CT,,,1,FUENCARRAL-EL PARDO,PEÑAGRANDE,,,,438790.57,4480540.05,-372208338,40.4732879,
6831,,RESTO,R0800CT,,,1,FUENCARRAL-EL PARDO,PEÑAGRANDE,,,,437796.8508,4480777.319,-373382858,40.47535147,
6832,,RESTO,R0800CT,,,1,FUENCARRAL-EL PARDO,PEÑAGRANDE,,,,438790.57,4480540.05,-372208338,40.4732879,
6834,,RESTO,R0800CT,,,1,FUENCARRAL-EL PARDO,PEÑAGRANDE,,,,438790.57,4480540.05,-372208338,40.4732879,
6835,,RESTO,R0800CT,,,1,FUENCARRAL-EL PARDO,PEÑAGRANDE,,,,437669.39,4480880.77,-373534232,40.47627383,
6836,,RESTO,R0800CT,,,1,FUENCARRAL-EL PARDO,PEÑAGRANDE,,,,439158.88,4481522.79,-371783306,40.48216782,
6837,,RESTO,R0800CT,,,1,FUENCARRAL-EL PARDO,PEÑAGRANDE,,,,437669.39,4480880.77,-373534232,40.47627383,
6838,,RESTO,R0800CT,,,1,FUENCARRAL-EL PARDO,PEÑAGRANDE,,,,438330.76,4481368.25,-372758785,40.48071458,
6839,,RESTO,R0800CT,,,1,FUENCARRAL-EL PARDO,PEÑAGRANDE,,,,438750.62,4480790.75,-372257884,40.47554334,
6840,,RESTO,R0800CT,,,1,FUENCARRAL-EL PARDO,PEÑAGRANDE,,,,438226.23,4481225.42,-372880711,40.47942015,
6841,,RESTO,R0800CT,,,1,FUENCARRAL-EL PARDO,PEÑAGRANDE,,,,437566.29,4480906.3,-373656105,40.47649607,
6842,,RESTO,R0800CT,,,1,FUENCARRAL-EL PARDO,PEÑAGRANDE,,,,438915.04,4481451.93,-372070296,40.48151159,
6843,,RESTO,R0800CT,,,1,FUENCARRAL-EL PARDO,PEÑAGRANDE,,,,437614.3849,4480733.427,-373597669,40.47494239,
6844,,RESTO,R0800CT,,,1,FUENCARRAL-EL PARDO,VALVERDE,,,,441793.6931,4481930.014,-368678581,40.48602515,
6845,,RESTO,R0800CT,,,1,FUENCARRAL-EL PARDO,PEÑAGRANDE,,,,437566.29,4480906.3,-373656105,40.47649607,
6846,,RESTO,R0800CT,,,1,FUENCARRAL-EL PARDO,VALVERDE,,,,441365.57,4483257.95,-369195983,40.49795757,
6847,,RESTO,R0800CT,,,1,FUENCARRAL-EL PARDO,EL GOLOSO,,,,440849.2867,4488243.071,-369851818,40.54282849,
6848,,RESTO,R0800CT,,,1,FUENCARRAL-EL PARDO,PEÑAGRANDE,,,,438736.58,4481299.64,-372279362,40.48012656,
6849,,RESTO,R0800CT,,,1,FUENCARRAL-EL PARDO,VALVERDE,,,,441524.9264,4483377.45,-369009039,40.49904531,
6850,,RESTO,R0800CT,,,2,HORTALEZA,PINAR DEL REY,,,,445437.0,4480547.0,-364368148,40.47381373,
6851,,RESTO,R0800CT,,,1,FUENCARRAL-EL PARDO,PEÑAGRANDE,,,,438548.87,4481405.3,-372501832,40.48106451,
6852,,RESTO,R0800CT,,,1,FUENCARRAL-EL PARDO,MIRASIERRA,,,,440459.49,4483625.05,-370268646,40.50120001,
6853,,RESTO,R0800CT,,,2,HORTALEZA,CANILLAS,,,,445102.5998,4479627.961,-364754665,40.46551254,
6854,,RESTO,R0800CT,,,1,FUENCARRAL-EL PARDO,PEÑAGRANDE,,,,439158.88,4481522.79,-371783306,40.48216782,
6855,,RESTO,R0800CT,,,1,FUENCARRAL-EL PARDO,EL GOLOSO,,,,440849.2783,4488243.16,-369851829,40.54282929,
6856,,RESTO,R0800CT,,,1,FUENCARRAL-EL PARDO,VALVERDE,,,,441793.6931,4481930.014,-368678581,40.48602515,
6857,,RESTO,R0800CT,,,1,FUENCARRAL-EL PARDO,PEÑAGRANDE,,,,438548.87,4481405.3,-372501832,40.48106451,
6858,,RESTO,R0800CT,,,1,FUENCARRAL-EL PARDO,PEÑAGRANDE,,,,438573.73,4481793.85,-372476268,40.48456654,
6859,,RESTO,R0800CT,,,2,HORTALEZA,CANILLAS,,,,445060.0,4479479.0,-364803621,40.46416781,
6860,,RESTO,R0800CT,,,1,FUENCARRAL-EL PARDO,VALVERDE,,,,441854.68,4482669.07,-368613407,40.49268712,
6861,,RESTO,R0800CT,,,1,FUENCARRAL-EL PARDO,VALVERDE,,,,441524.5537,4483377.816,-369009482,40.49904858,
6862,,RESTO,R0800CT,,,1,FUENCARRAL-EL PARDO,PEÑAGRANDE,,,,438736.58,4481299.64,-372279362,40.48012656,
6863,,RESTO,R0800CT,,,1,FUENCARRAL-EL PARDO,EL GOLOSO,,,,440849.346,4488243.056,-369851748,40.54282835,
6864,,RESTO,R0800CT,,,1,FUENCARRAL-EL PARDO,PEÑAGRANDE,,,,438573.73,4481793.85,-372476268,40.48456654,
6865,,RESTO,R0800CT,,,1,FUENCARRAL-EL PARDO,PEÑAGRANDE,,,,438753.34,4480859.8,-372255342,40.47616557,
6866,,RESTO,R0800CT,,,1,FUENCARRAL-EL PARDO,MIRASIERRA,,,,440459.49,4483625.05,-370268646,40.50120001,
6867,,RESTO,R0800CT,,,1,FUENCARRAL-EL PARDO,VALVERDE,,,,441416.94,4482760.55,-369130765,40.49348043,
6868,,RESTO,R0800CT,,,1,FUENCARRAL-EL PARDO,PEÑAGRANDE,,,,439158.88,4481522.79,-371783306,40.48216782,
6869,,RESTO,R0800CT,,,1,FUENCARRAL-EL PARDO,VALVERDE,,,,441903.92,4482772.03,-368556250,40.49361808,
6870,,RESTO,R0800CT,,,1,FUENCARRAL-EL PARDO,PEÑAGRANDE,,,,438736.58,4481299.64,-372279362,40.48012656,
6871,,RESTO,R0800CT,,,1,FUENCARRAL-EL PARDO,VALVERDE,,,,441282.78,4481982.83,-369281864,40.48646495,
6872,,RESTO,R0800CT,,,1,FUENCARRAL-EL PARDO,VALVERDE,,,,441675.55,4482010.47,-368818711,40.48674163,
6873,,RESTO,R0800CT,,,2,HORTALEZA,CANILLAS,,,,444819.0,4479402.0,-365087202,40.46345818,
6874,,RESTO,R0800CT,,,1,FUENCARRAL-EL PARDO,PEÑAGRANDE,,,,438573.73,4481793.85,-372476268,40.48456654,
6875,,RESTO,R0800CT,,,1,FUENCARRAL-EL PARDO,VALVERDE,,,,441416.94,4482760.55,-369130765,40.49348043,
6876,,RESTO,R0800CT,,,1,FUENCARRAL-EL PARDO,VALVERDE,,,,441905.93,4481765.29,-368544651,40.48454911,
6877,,RESTO,R0800CT,,,1,FUENCARRAL-EL PARDO,EL GOLOSO,,,,441669.1678,4488616.555,-368887124,40.54625107,
6878,,RESTO,R0800CT,,,1,FUENCARRAL-EL PARDO,VALVERDE,,,,441655.35,4481830.27,-368840885,40.4851169,
6879,,RESTO,R0800CT,,,1,FUENCARRAL-EL PARDO,VALVERDE,,,,441696.18,4482997.4,-368803451,40.49563373,
6880,,RESTO,R0800CT,,,1,FUENCARRAL-EL PARDO,PEÑAGRANDE,,,,437504.24,4481034.44,-373730566,40.47764572,
6881,,RESTO,R0800CT,,,1,FUENCARRAL-EL PARDO,PEÑAGRANDE,,,,438548.87,4481405.3,-372501832,40.48106451,
6882,,RESTO,R0800CT,,,2,HORTALEZA,CANILLAS,,,,444810.4484,4479543.881,-365098522,40.46473574,
6883,,RESTO,R0800CT,,,2,HORTALEZA,CANILLAS,,,,445219.0,4479459.0,-364615914,40.46399814,
6884,,RESTO,R0800CT,,,1,FUENCARRAL-EL PARDO,PEÑAGRANDE,,,,439158.88,4481522.79,-371783306,40.48216782,
6885,,RESTO,R0800CT,,,1,FUENCARRAL-EL PARDO,VALVERDE,,,,441903.92,4482772.03,-368556250,40.49361808,
6886,,RESTO,R0800CT,,,1,FUENCARRAL-EL PARDO,PEÑAGRANDE,,,,438736.58,4481299.64,-372279362,40.48012656,
6887,,RESTO,R0800CT,,,1,FUENCARRAL-EL PARDO,PEÑAGRANDE,,,,438753.34,4480859.8,-372255342,40.47616557,
6888,,RESTO,R0800CT,,,1,FUENCARRAL-EL PARDO,VALVERDE,,,,441911.56,4481850.21,-368538786,40.48531449,
6889,,RESTO,R0800CT,,,1,FUENCARRAL-EL PARDO,EL GOLOSO,,,,441669.1678,4488616.555,-368887124,40.54625107,
6890,,RESTO,R0800CT,,,1,FUENCARRAL-EL PARDO,PEÑAGRANDE,,,,438573.73,4481793.85,-372476268,40.48456654,
6891,,RESTO,R0800CT,,,1,FUENCARRAL-EL PARDO,PEÑAGRANDE,,,,438657.27,4481401.54,-372373912,40.48103866,
6892,,RESTO,R0800CT,,,1,FUENCARRAL-EL PARDO,VALVERDE,,,,441509.01,4483223.33,-369026398,40.49765582,
6893,,RESTO,R0800CT,,,1,FUENCARRAL-EL PARDO,VALVERDE,,,,441696.18,4482997.4,-368803451,40.49563373,
6894,,RESTO,R0800CT,,,1,FUENCARRAL-EL PARDO,VALVERDE,,,,441711.57,4483171.43,-368786892,40.49720254,
6895,,RESTO,R0800CT,,,2,HORTALEZA,CANILLAS,,,,445208.0193,4479589.026,-364629988,40.46516876,
6896,,RESTO,R0800CT,,,1,FUENCARRAL-EL PARDO,PEÑAGRANDE,,,,439006.08,4481445.92,-371962834,40.48146414,
6897,,RESTO,R0800CT,,,1,FUENCARRAL-EL PARDO,VALVERDE,,,,441903.92,4482772.03,-368556250,40.49361808,
6898,,RESTO,R0800CT,,,2,HORTALEZA,PINAR DEL REY,,,,444699.0,4480417.0,-365237583,40.47259382,
6899,,RESTO,R0800CT,,,1,FUENCARRAL-EL PARDO,PEÑAGRANDE,,,,438753.34,4480859.8,-372255342,40.47616557,
6900,,RESTO,R0800CT,,,1,FUENCARRAL-EL PARDO,PEÑAGRANDE,,,,437567.57,4480833.09,-373653875,40.47583666,
6901,,RESTO,R0800CT,,,1,FUENCARRAL-EL PARDO,EL GOLOSO,,,,441669.1678,4488616.555,-368887124,40.54625107,
6902,,RESTO,R0800CT,,,1,FUENCARRAL-EL PARDO,PEÑAGRANDE,,,,438711.49,4481326.52,-372309221,40.48036685,
6903,,RESTO,R0800CT,,,1,FUENCARRAL-EL PARDO,PEÑAGRANDE,,,,438657.27,4481401.54,-372373912,40.48103866,
6904,,RESTO,R0800CT,,,1,FUENCARRAL-EL PARDO,VALVERDE,,,,441911.56,4481850.21,-368538786,40.48531449,
6905,,RESTO,R0800CT,,,1,FUENCARRAL-EL PARDO,VALVERDE,,,,441696.18,4482997.4,-368803451,40.49563373,
6906,,RESTO,R0800CT,,,1,FUENCARRAL-EL PARDO,PEÑAGRANDE,,,,438573.73,4481793.85,-372476268,40.48456654,
6907,,RESTO,R0800CT,,,2,HORTALEZA,CANILLAS,,,,445156.0,4479619.0,-364691603,40.46543534,
6908,,RESTO,R0800CT,,,1,FUENCARRAL-EL PARDO,VALVERDE,,,,441509.01,4483223.33,-369026398,40.49765582,
6909,,RESTO,R0800CT,,,1,FUENCARRAL-EL PARDO,VALVERDE,,,,441808.52,4481709.81,-368659067,40.4840425,
6910,,RESTO,R0800CT,,,1,FUENCARRAL-EL PARDO,VALVERDE,,,,441655.35,4481830.27,-368840885,40.4851169,
6911,,RESTO,R0800CT,,,1,FUENCARRAL-EL PARDO,PEÑAGRANDE,,,,437833.06,4480996.25,-373342290,40.47732638,
6912,,RESTO,R0800CT,,,1,FUENCARRAL-EL PARDO,VALVERDE,,,,441711.57,4483171.43,-368786892,40.49720254,
6913,,RESTO,R0800CT,,,1,FUENCARRAL-EL PARDO,EL GOLOSO,,,,441669.1678,4488616.555,-368887124,40.54625107,
6914,,RESTO,R0800CT,,,1,FUENCARRAL-EL PARDO,VALVERDE,,,,441711.57,4483171.43,-368786892,40.49720254,
6915,,RESTO,R0800CT,,,1,FUENCARRAL-EL PARDO,VALVERDE,,,,441152.46,4483020.84,-369445260,40.49580651,
6916,,RESTO,R0800CT,,,1,FUENCARRAL-EL PARDO,VALVERDE,,,,441173.01,4482819.06,-369419137,40.49399026,
6917,,RESTO,R0800CT,,,1,FUENCARRAL-EL PARDO,VALVERDE,,,,441746.04,4482648.27,-368741406,40.49249213,
6918,,RESTO,R0800CT,,,1,FUENCARRAL-EL PARDO,VALVERDE,,,,441386.53,4482588.95,-369165061,40.49193244,
6919,,RESTO,R0800CT,,,2,HORTALEZA,CANILLAS,,,,445207.942,4479589.097,-364630079,40.46516939,
6920,,RESTO,R0800CT,,,1,FUENCARRAL-EL PARDO,VALVERDE,,,,441173.01,4482819.06,-369419137,40.49399026,
6921,,RESTO,R0800CT,,,1,FUENCARRAL-EL PARDO,VALVERDE,,,,441808.52,4481709.81,-368659067,40.4840425,
6922,,RESTO,R0800CT,,,1,FUENCARRAL-EL PARDO,VALVERDE,,,,441386.53,4482588.95,-369165061,40.49193244,
6923,,RESTO,R0800CT,,,1,FUENCARRAL-EL PARDO,PEÑAGRANDE,,,,438411.85,4481551.01,-372664895,40.48236696,
6924,,RESTO,R0800CT,,,1,FUENCARRAL-EL PARDO,VALVERDE,,,,441386.53,4482588.95,-369165061,40.49193244,
6925,,RESTO,R0800CT,,,1,FUENCARRAL-EL PARDO,EL GOLOSO,,,,441669.1678,4488616.555,-368887124,40.54625107,
6926,,RESTO,R0800CT,,,1,FUENCARRAL-EL PARDO,VALVERDE,,,,441994.2,4482435.25,-368446640,40.49059054,
6927,,RESTO,R0800CT,,,1,FUENCARRAL-EL PARDO,PEÑAGRANDE,,,,438799.92,4480569.42,-372197592,40.47355316,
6928,,RESTO,R0800CT,,,1,FUENCARRAL-EL PARDO,VALVERDE,,,,441994.2,4482435.25,-368446640,40.49059054,
6929,,RESTO,R0800CT,,,1,FUENCARRAL-EL PARDO,VALVERDE,,,,442008.75,4482169.26,-368427038,40.48819542,
6930,,RESTO,R0800CT,,,1,FUENCARRAL-EL PARDO,VALVERDE,,,,441550.38,4482713.96,-368972881,40.49307014,
6931,,RESTO,R0800CT,,,2,HORTALEZA,PINAR DEL REY,,,,444743.0,4480206.0,-365183842,40.47069596,
6932,,RESTO,R0800CT,,,1,FUENCARRAL-EL PARDO,VALVERDE,,,,441550.38,4482713.96,-368972881,40.49307014,
6933,,RESTO,R0800CT,,,1,FUENCARRAL-EL PARDO,VALVERDE,,,,441808.52,4481709.81,-368659067,40.4840425,
6934,,RESTO,R0800CT,,,1,FUENCARRAL-EL PARDO,VALVERDE,,,,441550.38,4482713.96,-368972881,40.49307014,
6935,,RESTO,R0800CT,,,1,FUENCARRAL-EL PARDO,PEÑAGRANDE,,,,438411.85,4481551.01,-372664895,40.48236696,
6936,,RESTO,R0800CT,,,1,FUENCARRAL-EL PARDO,VALVERDE,,,,441550.38,4482713.96,-368972881,40.49307014,
6937,,RESTO,R0800CT,,,1,FUENCARRAL-EL PARDO,VALVERDE,,,,442008.75,4482169.26,-368427038,40.48819542,
6938,,RESTO,R0800CT,,,1,FUENCARRAL-EL PARDO,VALVERDE,,,,441550.38,4482713.96,-368972881,40.49307014,
6939,,RESTO,R0800CT,,,1,FUENCARRAL-EL PARDO,VALVERDE,,,,441905.51,4482540.61,-368552252,40.49153347,
6940,,RESTO,R0800CT,,,1,FUENCARRAL-EL PARDO,VALVERDE,,,,441988.65,4482014.22,-368449335,40.48679735,
6941,,RESTO,R0800CT,,,2,HORTALEZA,PINAR DEL REY,,,,444708.9927,4480235.015,-365224209,40.47095507,
6942,,RESTO,R0800CT,,,1,FUENCARRAL-EL PARDO,VALVERDE,,,,441550.38,4482713.96,-368972881,40.49307014,
6943,,RESTO,R0800CT,,,1,FUENCARRAL-EL PARDO,EL GOLOSO,,,,441373.2487,4488382.14,-369234398,40.5441185,
6944,,RESTO,R0800CT,,,1,FUENCARRAL-EL PARDO,VALVERDE,,,,441988.65,4482014.22,-368449335,40.48679735,
6945,,RESTO,R0800CT,,,1,FUENCARRAL-EL PARDO,PEÑAGRANDE,,,,438411.85,4481551.01,-372664895,40.48236696,
6946,,RESTO,R0800CT,,,1,FUENCARRAL-EL PARDO,VALVERDE,,,,441988.65,4482014.22,-368449335,40.48679735,
6947,,RESTO,R0800CT,,,1,FUENCARRAL-EL PARDO,VALVERDE,,,,441746.04,4482648.27,-368741406,40.49249213,
6948,,RESTO,R0800CT,,,1,FUENCARRAL-EL PARDO,VALVERDE,,,,441830.62,4483215.03,-368646809,40.49760365,
6949,,RESTO,R0800CT,,,1,FUENCARRAL-EL PARDO,VALVERDE,,,,441823.69,4482536.4,-368648756,40.49148981,
6950,,RESTO,R0800CT,,,1,FUENCARRAL-EL PARDO,VALVERDE,,,,441903.64,4481742.24,-368547141,40.4843413,
6951,,RESTO,R0800CT,,,1,FUENCARRAL-EL PARDO,VALVERDE,,,,441314.25,4483031.81,-369254448,40.49591679,
6952,,RESTO,R0800CT,,,1,FUENCARRAL-EL PARDO,VALVERDE,,,,440992.75,4482444.05,-369628347,40.49059923,
6953,,RESTO,R0800CT,,,2,HORTALEZA,PINAR DEL REY,,,,444791.0,4480376.0,-365128702,40.47223059,
6954,,RESTO,R0800CT,,,1,FUENCARRAL-EL PARDO,VALVERDE,,,,441903.64,4481742.24,-368547141,40.4843413,
6955,,RESTO,R0800CT,,,1,FUENCARRAL-EL PARDO,EL GOLOSO,,,,441373.2487,4488382.14,-369234398,40.5441185,
6956,,RESTO,R0800CT,,,1,FUENCARRAL-EL PARDO,VALVERDE,,,,441903.64,4481742.24,-368547141,40.4843413,
6957,,RESTO,R0800CT,,,1,FUENCARRAL-EL PARDO,VALVERDE,,,,441905.51,4482540.61,-368552252,40.49153347,
6958,,RESTO,R0800CT,,,1,FUENCARRAL-EL PARDO,VALVERDE,,,,440992.75,4482444.05,-369628347,40.49059923,
6959,,RESTO,R0800CT,,,1,FUENCARRAL-EL PARDO,PEÑAGRANDE,,,,437649.08,4480804.2,-373557438,40.47558254,
6960,,RESTO,R0800CT,,,1,FUENCARRAL-EL PARDO,VALVERDE,,,,441434.7,4483232.74,-369114174,40.49773535,
6961,,RESTO,R0800CT,,,1,FUENCARRAL-EL PARDO,VALVERDE,,,,441314.25,4483031.81,-369254448,40.49591679,
6962,,RESTO,R0800CT,,,1,FUENCARRAL-EL PARDO,VALVERDE,,,,441434.7,4483232.74,-369114174,40.49773535,
6963,,RESTO,R0800CT,,,1,FUENCARRAL-EL PARDO,PEÑAGRANDE,,,,438562.48,4481549.12,-372487170,40.4823611,
6964,,RESTO,R0800CT,,,1,FUENCARRAL-EL PARDO,VALVERDE,,,,441434.7,4483232.74,-369114174,40.49773535,
6965,,RESTO,R0800CT,,,2,HORTALEZA,PINAR DEL REY,,,,445207.0,4481124.0,-364644449,40.47899648,
6966,,RESTO,R0800CT,,,1,FUENCARRAL-EL PARDO,VALVERDE,,,,441406.37,4483240.82,-369147679,40.49780613,
6967,,RESTO,R0800CT,,,1,FUENCARRAL-EL PARDO,EL GOLOSO,,,,441373.2487,4488382.14,-369234398,40.5441185,
6968,,RESTO,R0800CT,,,1,FUENCARRAL-EL PARDO,VALVERDE,,,,441807.01,4481816.5,-368661827,40.4850035,
6969,,RESTO,R0800CT,,,1,FUENCARRAL-EL PARDO,VALVERDE,,,,441905.51,4482540.61,-368552252,40.49153347,
6970,,RESTO,R0800CT,,,1,FUENCARRAL-EL PARDO,VALVERDE,,,,441807.01,4481816.5,-368661827,40.4850035,
6971,,RESTO,R0800CT,,,1,FUENCARRAL-EL PARDO,PEÑAGRANDE,,,,437649.08,4480804.2,-373557438,40.47558254,
6972,,RESTO,R0800CT,,,1,FUENCARRAL-EL PARDO,VALVERDE,,,,441406.37,4483240.82,-369147679,40.49780613,
6973,,RESTO,R0800CT,,,1,FUENCARRAL-EL PARDO,VALVERDE,,,,441808.52,4481709.81,-368659067,40.4840425,
6974,,RESTO,R0800CT,,,1,FUENCARRAL-EL PARDO,VALVERDE,,,,441807.01,4481816.5,-368661827,40.4850035,
6975,,RESTO,R0800CT,,,1,FUENCARRAL-EL PARDO,PEÑAGRANDE,,,,438548.87,4481405.3,-372501832,40.48106451,
6976,,RESTO,R0800CT,,,1,FUENCARRAL-EL PARDO,EL GOLOSO,,,,440801.35,4488810.53,-369913739,40.54793689,
6977,,RESTO,R0800CT,,,2,HORTALEZA,CANILLAS,,,,445071.3253,4479395.359,-364789539,40.46341507,
6978,,RESTO,R0800CT,,,1,FUENCARRAL-EL PARDO,VALVERDE,,,,441406.37,4483240.82,-369147679,40.49780613,
6979,,RESTO,R0800CT,,,1,FUENCARRAL-EL PARDO,EL GOLOSO,,,,441434.98,4488308.93,-369160824,40.54346337,
6980,,RESTO,R0800CT,,,1,FUENCARRAL-EL PARDO,VALVERDE,,,,441807.01,4481816.5,-368661827,40.4850035,
6981,,RESTO,R0800CT,,,1,FUENCARRAL-EL PARDO,VALVERDE,,,,441905.51,4482540.61,-368552252,40.49153347,
6982,,RESTO,R0800CT,,,1,FUENCARRAL-EL PARDO,VALVERDE,,,,441807.01,4481816.5,-368661827,40.4850035,
6983,,RESTO,R0800CT,,,1,FUENCARRAL-EL PARDO,PEÑAGRANDE,,,,437649.08,4480804.2,-373557438,40.47558254,
6984,,RESTO,R0800CT,,,1,FUENCARRAL-EL PARDO,VALVERDE,,,,441807.01,4481816.5,-368661827,40.4850035,
6985,,RESTO,R0800CT,,,1,FUENCARRAL-EL PARDO,VALVERDE,,,,441431.35,4482108.88,-369107739,40.48761096,
6986,,RESTO,R0800CT,,,1,FUENCARRAL-EL PARDO,VALVERDE,,,,441168.61,4483129.6,-369427213,40.4967874,
6987,,RESTO,R0800CT,,,1,FUENCARRAL-EL PARDO,PEÑAGRANDE,,,,438915.04,4481451.93,-372070296,40.48151159,
6988,,RESTO,R0800CT,,,1,FUENCARRAL-EL PARDO,VALVERDE,,,,441168.61,4483129.6,-369427213,40.4967874,
6989,,RESTO,R0800CT,,,2,HORTALEZA,PINAR DEL REY,,,,445183.9087,4481147.146,-364671891,40.47920347,
6990,,RESTO,R0800CT,,,1,FUENCARRAL-EL PARDO,VALVERDE,,,,441059.27,4482530.8,-369550666,40.49138543,
6991,,RESTO,R0800CT,,,1,FUENCARRAL-EL PARDO,EL GOLOSO,,,,441434.98,4488308.93,-369160824,40.54346337,
6992,,RESTO,R0800CT,,,1,FUENCARRAL-EL PARDO,VALVERDE,,,,441964.75,4482728.21,-368484071,40.49322758,
6993,,RESTO,R0800CT,,,1,FUENCARRAL-EL PARDO,VALVERDE,,,,441390.3,4483057.6,-369164947,40.49615449,
6994,,RESTO,R0800CT,,,1,FUENCARRAL-EL PARDO,VALVERDE,,,,441964.75,4482728.21,-368484071,40.49322758,
6995,,RESTO,R0800CT,,,1,FUENCARRAL-EL PARDO,PEÑAGRANDE,,,,438916.06,4481467.7,-372069244,40.48165373,
6996,,RESTO,R0800CT,,,1,FUENCARRAL-EL PARDO,VALVERDE,,,,441561.53,4482576.46,-368958456,40.49183227,
6997,,RESTO,R0800CT,,,1,FUENCARRAL-EL PARDO,VALVERDE,,,,441567.42,4482772.07,-368953310,40.49359481,
6998,,RESTO,R0800CT,,,1,FUENCARRAL-EL PARDO,VALVERDE,,,,441561.53,4482576.46,-368958456,40.49183227,
6999,,RESTO,R0800CT,,,1,FUENCARRAL-EL PARDO,PEÑAGRANDE,,,,438895.17,4481658.46,-372095728,40.48337062,
7000,,RESTO,R0800CT,,,1,FUENCARRAL-EL PARDO,VALVERDE,,,,441561.53,4482576.46,-368958456,40.49183227,
7001,,RESTO,R0800CT,,,2,HORTALEZA,PINAR DEL REY,,,,445713.0,4480458.0,-364041808,40.47303006,
7002,,RESTO,R0800CT,,,1,FUENCARRAL-EL PARDO,VALVERDE,,,,441561.53,4482576.46,-368958456,40.49183227,
7003,,RESTO,R0800CT,,,1,FUENCARRAL-EL PARDO,VALVERDE,,,,441390.3,4483057.6,-369164947,40.49615449,
7004,,RESTO,R0800CT,,,1,FUENCARRAL-EL PARDO,VALVERDE,,,,441561.53,4482576.46,-368958456,40.49183227,
7005,,RESTO,R0800CT,,,1,FUENCARRAL-EL PARDO,EL GOLOSO,,,,441337.09,4488252.54,-369275893,40.54294847,
7006,,RESTO,R0800CT,,,1,FUENCARRAL-EL PARDO,VALVERDE,,,,441561.53,4482576.46,-368958456,40.49183227,
7007,,RESTO,R0800CT,,,1,FUENCARRAL-EL PARDO,PEÑAGRANDE,,,,438280.6475,4480870.846,-372813063,40.47623008,
7008,,RESTO,R0800CT,,,1,FUENCARRAL-EL PARDO,VALVERDE,,,,441652.49,4482451.04,-368849974,40.49070884,
7009,,RESTO,R0800CT,,,1,FUENCARRAL-EL PARDO,VALVERDE,,,,441390.3,4483057.6,-369164947,40.49615449,
7010,,RESTO,R0800CT,,,1,FUENCARRAL-EL PARDO,VALVERDE,,,,441833.51,4482907.04,-368640571,40.49482937,
7011,,RESTO,R0800CT,,,1,FUENCARRAL-EL PARDO,PEÑAGRANDE,,,,438382.98,4481459.88,-372698069,40.48154389,
7012,,RESTO,R0800CT,,,1,FUENCARRAL-EL PARDO,VALVERDE,,,,441833.51,4482907.04,-368640571,40.49482937,
7013,,RESTO,R0800CT,,,2,HORTALEZA,PINAR DEL REY,,,,444817.0,4480263.0,-365097049,40.47121436,
7014,,RESTO,R0800CT,,,1,FUENCARRAL-EL PARDO,VALVERDE,,,,441423.5,4481838.29,-369114501,40.48517282,
7015,,RESTO,R0800CT,,,1,FUENCARRAL-EL PARDO,VALVERDE,,,,441544.62,4481863.41,-368971832,40.48540765,
7016,,RESTO,R0800CT,,,1,FUENCARRAL-EL PARDO,VALVERDE,,,,441652.49,4482451.04,-368849974,40.49070884,
7017,,RESTO,R0800CT,,,1,FUENCARRAL-EL PARDO,PEÑAGRANDE,,,,438916.06,4481467.7,-372069244,40.48165373,
7018,,RESTO,R0800CT,,,1,FUENCARRAL-EL PARDO,VALVERDE,,,,441652.49,4482451.04,-368849974,40.49070884,
7019,,RESTO,R0800CT,,,1,FUENCARRAL-EL PARDO,EL GOLOSO,,,,441337.09,4488252.54,-369275893,40.54294847,
7020,,RESTO,R0800CT,,,1,FUENCARRAL-EL PARDO,VALVERDE,,,,441423.5,4481838.29,-369114501,40.48517282,
7022,,RESTO,R0800CT,,,1,FUENCARRAL-EL PARDO,VALVERDE,,,,441554.7493,4481984.206,-368960995,40.48649654,
7023,,RESTO,R0800CT,,,1,FUENCARRAL-EL PARDO,VALVERDE,,,,441852.02,4482612.15,-368616024,40.49217418,
7024,,RESTO,R0800CT,,,1,FUENCARRAL-EL PARDO,VALVERDE,,,,441652.49,4482451.04,-368849974,40.49070884,
7025,,RESTO,R0800CT,,,1,FUENCARRAL-EL PARDO,VALVERDE,,,,441567.42,4482772.07,-368953310,40.49359481,
7026,,RESTO,R0800CT,,,1,FUENCARRAL-EL PARDO,VALVERDE,,,,441554.7493,4481984.206,-368960995,40.48649654,
7027,,RESTO,R0800CT,,,1,FUENCARRAL-EL PARDO,PEÑAGRANDE,,,,438334.62,4481479.78,-372755316,40.48171957,
7028,,RESTO,R0800CT,,,1,FUENCARRAL-EL PARDO,VALVERDE,,,,441554.7493,4481984.206,-368960995,40.48649654,
7029,,RESTO,R0800CT,,,1,FUENCARRAL-EL PARDO,PEÑAGRANDE,,,,438916.06,4481467.7,-372069244,40.48165373,
7030,,RESTO,R0800CT,,,1,FUENCARRAL-EL PARDO,VALVERDE,,,,441554.7493,4481984.206,-368960995,40.48649654,
7031,,RESTO,R0800CT,,,1,FUENCARRAL-EL PARDO,EL GOLOSO,,,,441337.09,4488252.54,-369275893,40.54294847,
7032,,RESTO,R0800CT,,,1,FUENCARRAL-EL PARDO,VALVERDE,,,,441554.7493,4481984.206,-368960995,40.48649654,
7033,,RESTO,R0800CT,,,2,HORTALEZA,PINAR DEL REY,,,,445078.0,4480764.0,-364793515,40.47574491,
7034,,RESTO,R0800CT,,,1,FUENCARRAL-EL PARDO,VALVERDE,,,,440900.8,4482856.47,-369740687,40.49430792,
7035,,RESTO,R0800CT,,,1,FUENCARRAL-EL PARDO,VALVERDE,,,,441390.3,4483057.6,-369164947,40.49615449,
7036,,RESTO,R0800CT,,,1,FUENCARRAL-EL PARDO,VALVERDE,,,,440900.8,4482856.47,-369740687,40.49430792,
7037,,RESTO,R0800CT,,,1,FUENCARRAL-EL PARDO,VALVERDE,,,,441567.42,4482772.07,-368953310,40.49359481,
7038,,RESTO,R0800CT,,,1,FUENCARRAL-EL PARDO,VALVERDE,,,,440900.8,4482856.47,-369740687,40.49430792,
7039,,RESTO,R0800CT,,,1,FUENCARRAL-EL PARDO,PEÑAGRANDE,,,,438702.28,4481783.61,-372324506,40.48448379,
7040,,RESTO,R0800CT,,,1,FUENCARRAL-EL PARDO,VALVERDE,,,,441798.37,4482699.18,-368680127,40.49295442,
7041,,RESTO,R0800CT,,,1,FUENCARRAL-EL PARDO,PEÑAGRANDE,,,,438280.6475,4480870.846,-372813063,40.47623008,
7042,,RESTO,R0800CT,,,1,FUENCARRAL-EL PARDO,VALVERDE,,,,441091.81,4482777.96,-369514569,40.49361425,
7043,,RESTO,R0800CT,,,1,FUENCARRAL-EL PARDO,EL GOLOSO,,,,441337.09,4488252.54,-369275893,40.54294847,
7044,,RESTO,R0800CT,,,1,FUENCARRAL-EL PARDO,VALVERDE,,,,441798.37,4482699.18,-368680127,40.49295442,
7045,,RESTO,R0800CT,,,2,HORTALEZA,PINAR DEL REY,,,,444919.0,4480739.0,-364980865,40.47550917,
7046,,RESTO,R0800CT,,,1,FUENCARRAL-EL PARDO,VALVERDE,,,,441091.81,4482777.96,-369514569,40.49361425,
7047,,RESTO,R0800CT,,,1,FUENCARRAL-EL PARDO,VALVERDE,,,,441852.02,4482612.15,-368616024,40.49217418,
7048,,RESTO,R0800CT,,,1,FUENCARRAL-EL PARDO,VALVERDE,,,,441091.81,4482777.96,-369514569,40.49361425,
7049,,RESTO,R0800CT,,,1,FUENCARRAL-EL PARDO,VALVERDE,,,,441544.62,4481863.41,-368971832,40.48540765,
7050,,RESTO,R0800CT,,,1,FUENCARRAL-EL PARDO,VALVERDE,,,,441091.81,4482777.96,-369514569,40.49361425,
7051,,RESTO,R0800CT,,,1,FUENCARRAL-EL PARDO,PEÑAGRANDE,,,,438899.59,4481544.22,-372089412,40.48234183,
7052,,RESTO,R0800CT,,,1,FUENCARRAL-EL PARDO,VALVERDE,,,,441563.54,4481932.66,-368950148,40.48603281,
7053,,RESTO,R0800CT,,,1,FUENCARRAL-EL PARDO,PEÑAGRANDE,,,,438976.53,4481531.32,-371998517,40.48223128,
7054,,RESTO,R0800CT,,,1,FUENCARRAL-EL PARDO,VALVERDE,,,,441563.54,4481932.66,-368950148,40.48603281,
7055,,RESTO,R0800CT,,,1,FUENCARRAL-EL PARDO,EL GOLOSO,,,,441337.09,4488252.54,-369275893,40.54294847,
7056,,RESTO,R0800CT,,,1,FUENCARRAL-EL PARDO,VALVERDE,,,,441563.54,4481932.66,-368950148,40.48603281,
7057,,RESTO,R0800CT,,,2,HORTALEZA,PINAR DEL REY,,,,444666.9456,4480225.415,-365273723,40.47086579,
7058,,RESTO,R0800CT,,,1,FUENCARRAL-EL PARDO,VALVERDE,,,,440917.46,4482688.06,-369719458,40.49279201,
7059,,RESTO,R0800CT,,,1,FUENCARRAL-EL PARDO,VALVERDE,,,,441852.02,4482612.15,-368616024,40.49217418,
7060,,RESTO,R0800CT,,,1,FUENCARRAL-EL PARDO,VALVERDE,,,,440917.46,4482688.06,-369719458,40.49279201,
7061,,RESTO,R0800CT,,,1,FUENCARRAL-EL PARDO,VALVERDE,,,,441544.62,4481863.41,-368971832,40.48540765,
7062,,RESTO,R0800CT,,,1,FUENCARRAL-EL PARDO,VALVERDE,,,,440917.46,4482688.06,-369719458,40.49279201,
7063,,RESTO,R0800CT,,,1,FUENCARRAL-EL PARDO,PEÑAGRANDE,,,,437504.24,4481034.44,-373730566,40.47764572,
7064,,RESTO,R0800CT,,,1,FUENCARRAL-EL PARDO,VALVERDE,,,,441810.53,4483302.27,-368671318,40.49838814,
7065,,RESTO,R0800CT,,,1,FUENCARRAL-EL PARDO,PEÑAGRANDE,,,,438899.59,4481544.22,-372089412,40.48234183,
7066,,RESTO,R0800CT,,,1,FUENCARRAL-EL PARDO,VALVERDE,,,,441810.53,4483302.27,-368671318,40.49838814,
7067,,RESTO,R0800CT,,,1,FUENCARRAL-EL PARDO,EL GOLOSO,,,,441337.09,4488252.54,-369275893,40.54294847,
7068,,RESTO,R0800CT,,,1,FUENCARRAL-EL PARDO,VALVERDE,,,,441810.53,4483302.27,-368671318,40.49838814,
7069,,RESTO,R0800CT,,,2,HORTALEZA,PINAR DEL REY,,,,444681.0021,4480322.028,-365257985,40.47173707,
7070,,RESTO,R0800CT,,,1,FUENCARRAL-EL PARDO,VALVERDE,,,,441317.3105,4483041.376,-369250925,40.49600318,
7071,,RESTO,R0800CT,,,1,FUENCARRAL-EL PARDO,VALVERDE,,,,441544.62,4481863.41,-368971832,40.48540765,
7072,,RESTO,R0800CT,,,1,FUENCARRAL-EL PARDO,VALVERDE,,,,441318.3514,4483040.919,-369249693,40.49599913,
7073,,RESTO,R0800CT,,,1,FUENCARRAL-EL PARDO,VALVERDE,,,,441466.02,4483160.64,-369076549,40.49708805,
7074,,RESTO,R0800CT,,,1,FUENCARRAL-EL PARDO,VALVERDE,,,,441863.95,4483233.99,-368607652,40.49777679,
7075,,RESTO,R0800CT,,,1,FUENCARRAL-EL PARDO,PEÑAGRANDE,,,,438702.28,4481783.61,-372324506,40.48448379,
7076,,RESTO,R0800CT,,,1,FUENCARRAL-EL PARDO,VALVERDE,,,,441863.95,4483233.99,-368607652,40.49777679,
7077,,RESTO,R0800CT,,,1,FUENCARRAL-EL PARDO,PEÑAGRANDE,,,,438899.59,4481544.22,-372089412,40.48234183,
7078,,RESTO,R0800CT,,,1,FUENCARRAL-EL PARDO,VALVERDE,,,,441775.63,4482499.32,-368705123,40.49115241,
7079,,RESTO,R0800CT,,,1,FUENCARRAL-EL PARDO,VALVERDE,,,,441466.02,4483160.64,-369076549,40.49708805,
7080,,RESTO,R0800CT,,,1,FUENCARRAL-EL PARDO,VALVERDE,,,,441775.63,4482499.32,-368705123,40.49115241,
7081,,RESTO,R0800CT,,,2,HORTALEZA,PINAR DEL REY,,,,444783.0,4480267.0,-365137190,40.47124813,
7082,,RESTO,R0800CT,,,1,FUENCARRAL-EL PARDO,VALVERDE,,,,441775.63,4482499.32,-368705123,40.49115241,
7083,,RESTO,R0800CT,,,1,FUENCARRAL-EL PARDO,PEÑAGRANDE,,,,439038.69,4480564.71,-371915891,40.47352829,
7084,,RESTO,R0800CT,,,1,FUENCARRAL-EL PARDO,VALVERDE,,,,441775.63,4482499.32,-368705123,40.49115241,
7085,,RESTO,R0800CT,,,1,FUENCARRAL-EL PARDO,EL GOLOSO,,,,441500.79,4488194.36,-369082052,40.54243594,
7086,,RESTO,R0800CT,,,1,FUENCARRAL-EL PARDO,VALVERDE,,,,441775.63,4482499.32,-368705123,40.49115241,
7087,,RESTO,R0800CT,,,1,FUENCARRAL-EL PARDO,MIRASIERRA,,,,438292.32,4482138.22,-372811628,40.48764786,
7088,,RESTO,R0800CT,,,1,FUENCARRAL-EL PARDO,VALVERDE,,,,441159.26,4482550.69,-369432870,40.4915717,
7089,,RESTO,R0800CT,,,1,FUENCARRAL-EL PARDO,PEÑAGRANDE,,,,438899.59,4481544.22,-372089412,40.48234183,
7090,,RESTO,R0800CT,,,1,FUENCARRAL-EL PARDO,VALVERDE,,,,441159.26,4482550.69,-369432870,40.4915717,
7091,,RESTO,R0800CT,,,1,FUENCARRAL-EL PARDO,VALVERDE,,,,441623.51,4481782.15,-368878008,40.48468118,
7092,,RESTO,R0800CT,,,1,FUENCARRAL-EL PARDO,VALVERDE,,,,441381.03,4482489.99,-369170635,40.49104059,
7093,,RESTO,R0800CT,,,2,HORTALEZA,PINAR DEL REY,,,,444706.791,4480331.632,-365227648,40.4718253,
7094,,RESTO,R0800CT,,,1,FUENCARRAL-EL PARDO,VALVERDE,,,,440893.85,4482954.65,-369749803,40.49519187,
7095,,RESTO,R0800CT,,,1,FUENCARRAL-EL PARDO,MIRASIERRA,,,,438259.32,4482092.76,-372850121,40.48723589,
7096,,RESTO,R0800CT,,,1,FUENCARRAL-EL PARDO,VALVERDE,,,,441911.56,4481850.21,-368538786,40.48531449,
7097,,RESTO,R0800CT,,,1,FUENCARRAL-EL PARDO,EL GOLOSO,,,,441500.79,4488194.36,-369082052,40.54243594,
7098,,RESTO,R0800CT,,,1,FUENCARRAL-EL PARDO,VALVERDE,,,,441905.93,4481765.29,-368544651,40.48454911,
7099,,RESTO,R0800CT,,,1,FUENCARRAL-EL PARDO,MIRASIERRA,,,,438381.3,4482223.61,-372707475,40.48842369,
7100,,RESTO,R0800CT,,,1,FUENCARRAL-EL PARDO,PEÑAGRANDE,,,,438711.49,4481326.52,-372309221,40.48036685,
7101,,RESTO,R0800CT,,,1,FUENCARRAL-EL PARDO,PEÑAGRANDE,,,,438895.17,4481658.46,-372095728,40.48337062,
7102,,RESTO,R0800CT,,,1,FUENCARRAL-EL PARDO,PEÑAGRANDE,,,,438155.11,4481232.84,-372964684,40.4794817,
7103,,RESTO,R0800CT,,,1,FUENCARRAL-EL PARDO,VALVERDE,,,,441623.51,4481782.15,-368878008,40.48468118,
7104,,RESTO,R0800CT,,,2,HORTALEZA,PINAR DEL REY,,,,444780.0,4479963.0,-365138083,40.46850935,
7105,,RESTO,R0800CT,,,2,HORTALEZA,PINAR DEL REY,,,,444783.0,4480267.0,-365137190,40.47124813,
7106,,RESTO,R0800CT,,,1,FUENCARRAL-EL PARDO,PEÑAGRANDE,,,,438155.11,4481232.84,-372964684,40.4794817,
7107,,RESTO,R0800CT,,,1,FUENCARRAL-EL PARDO,MIRASIERRA,,,,438560.69,4482275.85,-372496325,40.48890758,
7108,,RESTO,R0800CT,,,1,FUENCARRAL-EL PARDO,PEÑAGRANDE,,,,438711.49,4481326.52,-372309221,40.48036685,
7109,,RESTO,R0800CT,,,1,FUENCARRAL-EL PARDO,EL GOLOSO,,,,441500.79,4488194.36,-369082052,40.54243594,
7110,,RESTO,R0800CT,,,1,FUENCARRAL-EL PARDO,VALVERDE,,,,441509.01,4483223.33,-369026398,40.49765582,
7111,,RESTO,R0800CT,,,1,FUENCARRAL-EL PARDO,MIRASIERRA,,,,438381.3,4482223.61,-372707475,40.48842369,
7112,,RESTO,R0800CT,,,1,FUENCARRAL-EL PARDO,VALVERDE,,,,441561.13,4483125.01,-368963987,40.49677379,
7113,,RESTO,R0800CT,,,1,FUENCARRAL-EL PARDO,PEÑAGRANDE,,,,438895.17,4481658.46,-372095728,40.48337062,
7114,,RESTO,R0800CT,,,1,FUENCARRAL-EL PARDO,PEÑAGRANDE,,,,438326.76,4480730.54,-372757302,40.47496958,
7115,,RESTO,R0800CT,,,1,FUENCARRAL-EL PARDO,VALVERDE,,,,441623.51,4481782.15,-368878008,40.48468118,
7116,,RESTO,R0800CT,,,1,FUENCARRAL-EL PARDO,PEÑAGRANDE,,,,438547.86,4480806.49,-372497221,40.47567016,
7117,,RESTO,R0800CT,,,2,HORTALEZA,PINAR DEL REY,,,,444993.0,4480190.0,-364888809,40.47056841,
7118,,RESTO,R0800CT,,,1,FUENCARRAL-EL PARDO,EL GOLOSO,,,,440801.3079,4488810.545,-369913788,40.54793703,
7119,,RESTO,R0800CT,,,1,FUENCARRAL-EL PARDO,VALVERDE,,,,441293.09,4482459.78,-369274117,40.49076223,
7120,,RESTO,R0800CT,,,1,FUENCARRAL-EL PARDO,PEÑAGRANDE,,,,438434.48,4481385.15,-372636587,40.48087452,
7121,,RESTO,R0800CT,,,1,FUENCARRAL-EL PARDO,EL GOLOSO,,,,441500.79,4488194.36,-369082052,40.54243594,
7122,,RESTO,R0800CT,,,1,FUENCARRAL-EL PARDO,EL GOLOSO,,,,440801.505,4488810.898,-369913559,40.54794022,
7123,,RESTO,R0800CT,,,1,FUENCARRAL-EL PARDO,MIRASIERRA,,,,438381.3,4482223.61,-372707475,40.48842369,
7124,,RESTO,R0800CT,,,1,FUENCARRAL-EL PARDO,VALVERDE,,,,441905.93,4481765.29,-368544651,40.48454911,
7125,,RESTO,R0800CT,,,1,FUENCARRAL-EL PARDO,PEÑAGRANDE,,,,438895.17,4481658.46,-372095728,40.48337062,
7126,,RESTO,R0800CT,,,1,FUENCARRAL-EL PARDO,VALVERDE,,,,441561.13,4483125.01,-368963987,40.49677379,
7127,,RESTO,R0800CT,,,1,FUENCARRAL-EL PARDO,VALVERDE,,,,440952.43,4482753.41,-369678804,40.49338319,
7128,,RESTO,R0800CT,,,2,HORTALEZA,PINAR DEL REY,,,,445541.2625,4480560.089,-364245269,40.47393849,
7130,,RESTO,R0800CT,,,1,FUENCARRAL-EL PARDO,PEÑAGRANDE,,,,438711.49,4481326.52,-372309221,40.48036685,
7131,,RESTO,R0800CT,,,1,FUENCARRAL-EL PARDO,EL GOLOSO,,,,441500.79,4488194.36,-369082052,40.54243594,
7132,,RESTO,R0800CT,,,1,FUENCARRAL-EL PARDO,PEÑAGRANDE,,,,438326.76,4480730.54,-372757302,40.47496958,
7133,,RESTO,R0800CT,,,1,FUENCARRAL-EL PARDO,VALVERDE,,,,441729.62,4482747.8,-368761696,40.49338758,
7134,,RESTO,R0800CT,,,1,FUENCARRAL-EL PARDO,VALVERDE,,,,441152.46,4483020.84,-369445260,40.49580651,
7135,,RESTO,R0800CT,,,1,FUENCARRAL-EL PARDO,MIRASIERRA,,,,438575.33,4482344.98,-372479722,40.48953141,
7136,,RESTO,R0800CT,,,1,FUENCARRAL-EL PARDO,EL GOLOSO,,,,440650.3127,4488741.457,-370091453,40.54730386,
7137,,RESTO,R0800CT,,,1,FUENCARRAL-EL PARDO,PEÑAGRANDE,,,,438419.45,4481497.42,-372655409,40.48188477,
7138,,RESTO,R0800CT,,,1,FUENCARRAL-EL PARDO,PEÑAGRANDE,,,,438562.48,4481549.12,-372487170,40.4823611,
7139,,RESTO,R0800CT,,,2,HORTALEZA,PINAR DEL REY,,,,444993.0,4480190.0,-364888809,40.47056841,
7141,,RESTO,R0800CT,,,1,FUENCARRAL-EL PARDO,MIRASIERRA,,,,438575.33,4482344.98,-372479722,40.48953141,
7142,,RESTO,R0800CT,,,1,FUENCARRAL-EL PARDO,EL PARDO,,,,434140.12,4485880.05,-377749492,40.52103593,
7143,,RESTO,R0800CT,,,1,FUENCARRAL-EL PARDO,EL GOLOSO,,,,441500.79,4488194.36,-369082052,40.54243594,
7144,,RESTO,R0800CT,,,1,FUENCARRAL-EL PARDO,VALVERDE,,,,441946.83,4482500.45,-368503130,40.49117458,
7145,,RESTO,R0800CT,,,1,FUENCARRAL-EL PARDO,PEÑAGRANDE,,,,439118.45,4480529.92,-371821472,40.47322074,
7146,,RESTO,R0800CT,,,1,FUENCARRAL-EL PARDO,PEÑAGRANDE,,,,437567.57,4480833.09,-373653875,40.47583666,
7147,,RESTO,R0800CT,,,1,FUENCARRAL-EL PARDO,VALVERDE,,,,441466.02,4483160.64,-369076549,40.49708805,
7148,,RESTO,R0800CT,,,1,FUENCARRAL-EL PARDO,VALVERDE,,,,441367.0799,4483212.855,-369193784,40.49755144,
7149,,RESTO,R0800CT,,,1,FUENCARRAL-EL PARDO,PEÑAGRANDE,,,,439038.69,4480564.71,-371915891,40.47352829,
7150,,RESTO,R0800CT,,,1,FUENCARRAL-EL PARDO,EL GOLOSO,,,,440650.3127,4488741.457,-370091453,40.54730386,
7151,,RESTO,R0800CT,,,1,FUENCARRAL-EL PARDO,PEÑAGRANDE,,,,439118.45,4480529.92,-371821472,40.47322074,
7152,,RESTO,R0800CT,,,1,FUENCARRAL-EL PARDO,PEÑAGRANDE,,,,438562.48,4481549.12,-372487170,40.4823611,
7153,,RESTO,R0800CT,,,1,FUENCARRAL-EL PARDO,MIRASIERRA,,,,438575.33,4482344.98,-372479722,40.48953141,
7154,,RESTO,R0800CT,,,1,FUENCARRAL-EL PARDO,PEÑAGRANDE,,,,438974.56,4481633.45,-372001824,40.48315116,
7155,,RESTO,R0800CT,,,1,FUENCARRAL-EL PARDO,EL GOLOSO,,,,441500.79,4488194.36,-369082052,40.54243594,
7156,,RESTO,R0800CT,,,1,FUENCARRAL-EL PARDO,PEÑAGRANDE,,,,438562.48,4481549.12,-372487170,40.4823611,
7157,,RESTO,R0800CT,,,1,FUENCARRAL-EL PARDO,VALVERDE,,,,440952.43,4482753.41,-369678804,40.49338319,
7158,,RESTO,R0800CT,,,1,FUENCARRAL-EL PARDO,PEÑAGRANDE,,,,438132.14,4481173.91,-372991207,40.47894913,
7159,,RESTO,R0800CT,,,2,HORTALEZA,CANILLAS,,,,445158.3228,4479574.168,-364688475,40.46503163,
7160,,RESTO,R0800CT,,,1,FUENCARRAL-EL PARDO,PEÑAGRANDE,,,,438547.16,4481200.35,-372501863,40.47921813,
7161,,RESTO,R0800CT,,,1,FUENCARRAL-EL PARDO,PEÑAGRANDE,,,,438283.26,4480946.77,-372810720,40.47691422,
7162,,RESTO,R0800CT,,,1,FUENCARRAL-EL PARDO,PEÑAGRANDE,,,,438132.14,4481173.91,-372991207,40.47894913,
7163,,RESTO,R0800CT,,,1,FUENCARRAL-EL PARDO,PEÑAGRANDE,,,,439118.45,4480529.92,-371821472,40.47322074,
7164,,RESTO,R0800CT,,,1,FUENCARRAL-EL PARDO,PEÑAGRANDE,,,,438547.16,4481200.35,-372501863,40.47921813,
7165,,RESTO,R0800CT,,,1,FUENCARRAL-EL PARDO,MIRASIERRA,,,,438560.69,4482275.85,-372496325,40.48890758,
7166,,RESTO,R0800CT,,,1,FUENCARRAL-EL PARDO,PEÑAGRANDE,,,,438547.16,4481200.35,-372501863,40.47921813,
7167,,RESTO,R0800CT,,,1,FUENCARRAL-EL PARDO,EL GOLOSO,,,,441675.3288,4488267.235,-368876625,40.54310472,
7168,,RESTO,R0800CT,,,1,FUENCARRAL-EL PARDO,PEÑAGRANDE,,,,438547.16,4481200.35,-372501863,40.47921813,
7169,,RESTO,R0800CT,,,1,FUENCARRAL-EL PARDO,VALVERDE,,,,440905.26,4482605.01,-369733079,40.49204299,
7170,,RESTO,R0800CT,,,1,FUENCARRAL-EL PARDO,PEÑAGRANDE,,,,438438.45,4481271.6,-372630801,40.47985192,
7171,,RESTO,R0800CT,,,2,HORTALEZA,PINAR DEL REY,,,,445207.0,4481124.0,-364644449,40.47899648,
7172,,RESTO,R0800CT,,,1,FUENCARRAL-EL PARDO,PEÑAGRANDE,,,,438438.45,4481271.6,-372630801,40.47985192,
7173,,RESTO,R0800CT,,,1,FUENCARRAL-EL PARDO,VALVERDE,,,,441798.37,4482699.18,-368680127,40.49295442,
7174,,RESTO,R0800CT,,,1,FUENCARRAL-EL PARDO,PEÑAGRANDE,,,,438774.25,4481547.63,-372237317,40.48236332,
7175,,RESTO,R0800CT,,,1,FUENCARRAL-EL PARDO,PEÑAGRANDE,,,,439118.45,4480529.92,-371821472,40.47322074,
7176,,RESTO,R0800CT,,,1,FUENCARRAL-EL PARDO,PEÑAGRANDE,,,,438774.25,4481547.63,-372237317,40.48236332,
7177,,RESTO,R0800CT,,,1,FUENCARRAL-EL PARDO,MIRASIERRA,,,,438560.69,4482275.85,-372496325,40.48890758,
7178,,RESTO,R0800CT,,,1,FUENCARRAL-EL PARDO,PEÑAGRANDE,,,,438774.25,4481547.63,-372237317,40.48236332,
7179,,RESTO,R0800CT,,,1,FUENCARRAL-EL PARDO,EL GOLOSO,,,,441675.3288,4488267.235,-368876625,40.54310472,
7180,,RESTO,R0800CT,,,1,FUENCARRAL-EL PARDO,PEÑAGRANDE,,,,438630.24,4480607.91,-372398120,40.47388737,
7181,,RESTO,R0800CT,,,1,FUENCARRAL-EL PARDO,VALVERDE,,,,440905.26,4482605.01,-369733079,40.49204299,
7182,,RESTO,R0800CT,,,1,FUENCARRAL-EL PARDO,PEÑAGRANDE,,,,438630.24,4480607.91,-372398120,40.47388737,
7183,,RESTO,R0800CT,,,2,HORTALEZA,PINAR DEL REY,,,,444637.0,4480143.0,-365308327,40.47012136,
7184,,RESTO,R0800CT,,,1,FUENCARRAL-EL PARDO,PEÑAGRANDE,,,,438701.18,4481355.05,-372321660,40.4806231,
7185,,RESTO,R0800CT,,,1,FUENCARRAL-EL PARDO,VALVERDE,,,,441293.09,4482459.78,-369274117,40.49076223,
7186,,RESTO,R0800CT,,,1,FUENCARRAL-EL PARDO,PEÑAGRANDE,,,,438973.16,4481551.63,-372002689,40.48241399,
7187,,RESTO,R0800CT,,,1,FUENCARRAL-EL PARDO,PEÑAGRANDE,,,,438419.45,4481497.42,-372655409,40.48188477,
7188,,RESTO,R0800CT,,,1,FUENCARRAL-EL PARDO,PEÑAGRANDE,,,,438701.18,4481355.05,-372321660,40.4806231,
7189,,RESTO,R0800CT,,,1,FUENCARRAL-EL PARDO,MIRASIERRA,,,,438560.69,4482275.85,-372496325,40.48890758,
7190,,RESTO,R0800CT,,,1,FUENCARRAL-EL PARDO,PEÑAGRANDE,,,,438701.18,4481355.05,-372321660,40.4806231,
7191,,RESTO,R0800CT,,,1,FUENCARRAL-EL PARDO,EL GOLOSO,,,,441641.1899,4488283.222,-368917085,40.54324634,
7192,,RESTO,R0800CT,,,1,FUENCARRAL-EL PARDO,PEÑAGRANDE,,,,438973.16,4481551.63,-372002689,40.48241399,
7193,,RESTO,R0800CT,,,1,FUENCARRAL-EL PARDO,VALVERDE,,,,441970.83,4481739.83,-368467848,40.48432429,
7194,,RESTO,R0800CT,,,1,FUENCARRAL-EL PARDO,VALVERDE,,,,441620.13,4481732.76,-368881541,40.48423602,
7195,,RESTO,R0800CT,,,1,FUENCARRAL-EL PARDO,VALVERDE,,,,440905.26,4482605.01,-369733079,40.49204299,
7196,,RESTO,R0800CT,,,1,FUENCARRAL-EL PARDO,PEÑAGRANDE,,,,438701.18,4481355.05,-372321660,40.4806231,
7197,,RESTO,R0800CT,,,1,FUENCARRAL-EL PARDO,PEÑAGRANDE,,,,439038.69,4480564.71,-371915891,40.47352829,
7198,,RESTO,R0800CT,,,1,FUENCARRAL-EL PARDO,VALVERDE,,,,441729.62,4482747.8,-368761696,40.49338758,
7199,,RESTO,R0800CT,,,2,HORTALEZA,PINAR DEL REY,,,,445875.0,4480805.0,-363853671,40.47616658,
7200,,RESTO,R0800CT,,,1,FUENCARRAL-EL PARDO,VALVERDE,,,,441783.8309,4482844.255,-368698615,40.49426029,
7201,,RESTO,R0800CT,,,1,FUENCARRAL-EL PARDO,MIRASIERRA,,,,438418.43,4482160.52,-372663054,40.48785811,
7202,,RESTO,R0800CT,,,1,FUENCARRAL-EL PARDO,VALVERDE,,,,441783.7335,4482844.281,-368698730,40.49426052,
7203,,RESTO,R0800CT,,,1,FUENCARRAL-EL PARDO,EL GOLOSO,,,,441641.1899,4488283.222,-368917085,40.54324634,
7204,,RESTO,R0800CT,,,1,FUENCARRAL-EL PARDO,VALVERDE,,,,441729.62,4482747.8,-368761696,40.49338758,
7205,,RESTO,R0800CT,,,2,HORTALEZA,PINAR DEL REY,,,,445437.0,4480547.0,-364368148,40.47381373,
7206,,RESTO,R0800CT,,,1,FUENCARRAL-EL PARDO,VALVERDE,,,,441783.8941,4482844.458,-368698543,40.49426213,
7207,,RESTO,R0800CT,,,1,FUENCARRAL-EL PARDO,PEÑAGRANDE,,,,439038.69,4480564.71,-371915891,40.47352829,
7208,,RESTO,R0800CT,,,1,FUENCARRAL-EL PARDO,VALVERDE,,,,441210.6418,4482875.169,-369375253,40.49449838,
7209,,RESTO,R0800CT,,,1,FUENCARRAL-EL PARDO,VALVERDE,,,,441235.23,4483006.78,-369347460,40.49568571,
7210,,RESTO,R0800CT,,,1,FUENCARRAL-EL PARDO,VALVERDE,,,,441783.8965,4482844.321,-368698538,40.49426089,
7211,,RESTO,R0800CT,,,1,FUENCARRAL-EL PARDO,EL GOLOSO,,,,441641.1899,4488283.222,-368917085,40.54324634,
7212,,RESTO,R0800CT,,,1,FUENCARRAL-EL PARDO,PEÑAGRANDE,,,,438656.52,4481148.72,-372372351,40.47876111,
7213,,RESTO,R0800CT,,,1,FUENCARRAL-EL PARDO,PEÑAGRANDE,,,,438897.59,4481744.25,-372093700,40.48414362,
7214,,RESTO,R0800CT,,,1,FUENCARRAL-EL PARDO,VALVERDE,,,,441210.6418,4482875.169,-369375253,40.49449838,
7215,,RESTO,R0800CT,,,1,FUENCARRAL-EL PARDO,MIRASIERRA,,,,438418.43,4482160.52,-372663054,40.48785811,
7216,,RESTO,R0800CT,,,1,FUENCARRAL-EL PARDO,VALVERDE,,,,441527.5054,4481929.797,-368992637,40.48600448,
7217,,RESTO,R0800CT,,,2,HORTALEZA,PINAR DEL REY,,,,445437.0,4480547.0,-364368148,40.47381373,
7218,,RESTO,R0800CT,,,1,FUENCARRAL-EL PARDO,VALVERDE,,,,441210.6418,4482875.169,-369375253,40.49449838,
7219,,RESTO,R0800CT,,,1,FUENCARRAL-EL PARDO,PEÑAGRANDE,,,,438337.82,4480948.48,-372746374,40.47693368,
7220,,RESTO,R0800CT,,,1,FUENCARRAL-EL PARDO,VALVERDE,,,,441210.6418,4482875.169,-369375253,40.49449838,
7221,,RESTO,R0800CT,,,1,FUENCARRAL-EL PARDO,VALVERDE,,,,441680.83,4481932.96,-368811768,40.48604376,
7222,,RESTO,R0800CT,,,1,FUENCARRAL-EL PARDO,VALVERDE,,,,441527.5054,4481929.797,-368992637,40.48600448,
7223,,RESTO,R0800CT,,,1,FUENCARRAL-EL PARDO,EL GOLOSO,,,,441660.6,4488185.32,-368893261,40.54236577,
7224,,RESTO,R0800CT,,,1,FUENCARRAL-EL PARDO,VALVERDE,,,,441527.5054,4481929.797,-368992637,40.48600448,
7225,,RESTO,R0800CT,,,1,FUENCARRAL-EL PARDO,PEÑAGRANDE,,,,437556.5846,4480736.758,-373665885,40.47496805,
7226,,RESTO,R0800CT,,,1,FUENCARRAL-EL PARDO,VALVERDE,,,,442003.03,4481960.69,-368431879,40.48631614,
7227,,RESTO,R0800CT,,,1,FUENCARRAL-EL PARDO,MIRASIERRA,,,,438259.32,4482092.76,-372850121,40.48723589,
7228,,RESTO,R0800CT,,,1,FUENCARRAL-EL PARDO,VALVERDE,,,,442003.03,4481960.69,-368431879,40.48631614,
7229,,RESTO,R0800CT,,,2,HORTALEZA,PINAR DEL REY,,,,443814.0,4479668.0,-366274902,40.46578708,
7230,,RESTO,R0800CT,,,1,FUENCARRAL-EL PARDO,VALVERDE,,,,441720.28,4481651.44,-368762636,40.48351049,
7231,,RESTO,R0800CT,,,1,FUENCARRAL-EL PARDO,PEÑAGRANDE,,,,438834.1,4481460.48,-372165867,40.48158265,
7232,,RESTO,R0800CT,,,1,FUENCARRAL-EL PARDO,VALVERDE,,,,441195.4,4482974.45,-369394160,40.49539165,
7233,,RESTO,R0800CT,,,1,FUENCARRAL-EL PARDO,VALVERDE,,,,441235.23,4483006.78,-369347460,40.49568571,
7234,,RESTO,R0800CT,,,1,FUENCARRAL-EL PARDO,VALVERDE,,,,441720.28,4481651.44,-368762636,40.48351049,
7235,,RESTO,R0800CT,,,1,FUENCARRAL-EL PARDO,EL GOLOSO,,,,441660.6,4488185.32,-368893261,40.54236577,
7236,,RESTO,R0800CT,,,1,FUENCARRAL-EL PARDO,VALVERDE,,,,441837.42,4481702.1,-368624900,40.48397507,
7237,,RESTO,R0800CT,,,1,FUENCARRAL-EL PARDO,VALVERDE,,,,440917.46,4482688.06,-369719458,40.49279201,
7238,,RESTO,R0800CT,,,1,FUENCARRAL-EL PARDO,VALVERDE,,,,441195.4,4482974.45,-369394160,40.49539165,
7239,,RESTO,R0800CT,,,1,FUENCARRAL-EL PARDO,MIRASIERRA,,,,438259.32,4482092.76,-372850121,40.48723589,
7240,,RESTO,R0800CT,,,1,FUENCARRAL-EL PARDO,VALVERDE,,,,441195.4,4482974.45,-369394160,40.49539165,
7241,,RESTO,R0800CT,,,2,HORTALEZA,PINAR DEL REY,,,,444696.0,4480472.0,-365241601,40.47308908,
7242,,RESTO,R0800CT,,,1,FUENCARRAL-EL PARDO,VALVERDE,,,,441837.42,4481702.1,-368624900,40.48397507,
7243,,RESTO,R0800CT,,,1,FUENCARRAL-EL PARDO,PEÑAGRANDE,,,,437910.87,4481102.83,-373251543,40.47829231,
7244,,RESTO,R0800CT,,,1,FUENCARRAL-EL PARDO,VALVERDE,,,,441837.42,4481702.1,-368624900,40.48397507,
7245,,RESTO,R0800CT,,,1,FUENCARRAL-EL PARDO,VALVERDE,,,,441235.23,4483006.78,-369347460,40.49568571,
7246,,RESTO,R0800CT,,,1,FUENCARRAL-EL PARDO,VALVERDE,,,,441522.76,4483099.87,-369009033,40.49654461,
7247,,RESTO,R0800CT,,,1,FUENCARRAL-EL PARDO,EL PARDO,,,,433862.13,4487376.05,-378093279,40.53448998,
7248,,RESTO,R0800CT,,,1,FUENCARRAL-EL PARDO,VALVERDE,,,,441522.76,4483099.87,-369009033,40.49654461,
7249,,RESTO,R0800CT,,,1,FUENCARRAL-EL PARDO,EL PARDO,,,,434140.12,4485880.05,-377749492,40.52103593,
7250,,RESTO,R0800CT,,,1,FUENCARRAL-EL PARDO,VALVERDE,,,,441665.14,4481679.11,-368827944,40.48375588,
7251,,RESTO,R0800CT,,,1,FUENCARRAL-EL PARDO,EL GOLOSO,,,,439905.5,4489409.0,-370977355,40.55326356,
7252,,RESTO,R0800CT,,,1,FUENCARRAL-EL PARDO,VALVERDE,,,,441355.9214,4483120.361,-369206095,40.49671743,
7253,,RESTO,R0800CT,,,2,HORTALEZA,PINAR DEL REY,,,,445165.0,4480611.0,-364689562,40.47437236,
7254,,RESTO,R0800CT,,,1,FUENCARRAL-EL PARDO,VALVERDE,,,,441355.9214,4483120.361,-369206095,40.49671743,
7255,,RESTO,R0800CT,,,1,FUENCARRAL-EL PARDO,PEÑAGRANDE,,,,437910.87,4481102.83,-373251543,40.47829231,
7256,,RESTO,R0800CT,,,1,FUENCARRAL-EL PARDO,VALVERDE,,,,441665.14,4481679.11,-368827944,40.48375588,
7257,,RESTO,R0800CT,,,1,FUENCARRAL-EL PARDO,VALVERDE,,,,441680.83,4481932.96,-368811768,40.48604376,
7258,,RESTO,R0800CT,,,1,FUENCARRAL-EL PARDO,VALVERDE,,,,441522.76,4483099.87,-369009033,40.49654461,
7259,,RESTO,R0800CT,,,1,FUENCARRAL-EL PARDO,PEÑAGRANDE,,,,438098.53,4480776.18,-373026974,40.47536375,
7260,,RESTO,R0800CT,,,1,FUENCARRAL-EL PARDO,VALVERDE,,,,441375.2118,4482636.124,-369178852,40.49235661,
7261,,RESTO,R0800CT,,,1,FUENCARRAL-EL PARDO,PEÑAGRANDE,,,,438473.06,4481742.04,-372594536,40.48409236,
7262,,RESTO,R0800CT,,,1,FUENCARRAL-EL PARDO,VALVERDE,,,,441213.73,4482582.4,-369368893,40.49186122,
7263,,RESTO,R0800CT,,,1,FUENCARRAL-EL PARDO,VALVERDE,,,,441808.52,4481709.81,-368659067,40.4840425,
7264,,RESTO,R0800CT,,,1,FUENCARRAL-EL PARDO,VALVERDE,,,,441375.2118,4482636.124,-369178852,40.49235661,
7265,,RESTO,R0800CT,,,1,FUENCARRAL-EL PARDO,VALVERDE,,,,441680.83,4481932.96,-368811768,40.48604376,
7266,,RESTO,R0800CT,,,1,FUENCARRAL-EL PARDO,VALVERDE,,,,441375.2118,4482636.124,-369178852,40.49235661,
7267,,RESTO,R0800CT,,,1,FUENCARRAL-EL PARDO,PEÑAGRANDE,,,,438918.44,4481520.21,-372066943,40.48212693,
7268,,RESTO,R0800CT,,,1,FUENCARRAL-EL PARDO,VALVERDE,,,,441544.23,4482001.7,-368973568,40.48665339,
7269,,RESTO,R0800CT,,,1,FUENCARRAL-EL PARDO,MIRASIERRA,,,,438356.36,4482101.97,-372735718,40.48732607,
7270,,RESTO,R0800CT,,,1,FUENCARRAL-EL PARDO,VALVERDE,,,,441544.23,4482001.7,-368973568,40.48665339,
7271,,RESTO,R0800CT,,,2,HORTALEZA,CANILLAS,,,,444819.0,4479402.0,-365087202,40.46345818,
7272,,RESTO,R0800CT,,,1,FUENCARRAL-EL PARDO,VALVERDE,,,,441213.73,4482582.4,-369368893,40.49186122,
7273,,RESTO,R0800CT,,,1,FUENCARRAL-EL PARDO,VALVERDE,,,,441913.8843,4483152.087,-368547977,40.49704247,
7274,,RESTO,R0800CT,,,1,FUENCARRAL-EL PARDO,VALVERDE,,,,441544.23,4482001.7,-368973568,40.48665339,
7275,,RESTO,R0800CT,,,1,FUENCARRAL-EL PARDO,MIRASIERRA,,,,438356.36,4482101.97,-372735718,40.48732607,
7276,,RESTO,R0800CT,,,1,FUENCARRAL-EL PARDO,VALVERDE,,,,441791.76,4482446.53,-368685606,40.49067799,
7277,,RESTO,R0800CT,,,1,FUENCARRAL-EL PARDO,PEÑAGRANDE,,,,438141.3641,4481103.301,-372979636,40.47831375,
7278,,RESTO,R0800CT,,,1,FUENCARRAL-EL PARDO,VALVERDE,,,,441791.76,4482446.53,-368685606,40.49067799,
7279,,RESTO,R0800CT,,,1,FUENCARRAL-EL PARDO,PEÑAGRANDE,,,,438473.06,4481742.04,-372594536,40.48409236,
7280,,RESTO,R0800CT,,,1,FUENCARRAL-EL PARDO,VALVERDE,,,,441791.76,4482446.53,-368685606,40.49067799,
7281,,RESTO,R0800CT,,,2,HORTALEZA,PINAR DEL REY,,,,444637.0,4480143.0,-365308327,40.47012136,
7282,,RESTO,R0800CT,,,1,FUENCARRAL-EL PARDO,VALVERDE,,,,441791.76,4482446.53,-368685606,40.49067799,
7283,,RESTO,R0800CT,,,1,FUENCARRAL-EL PARDO,VALVERDE,,,,442008.19,4482240.5,-368428351,40.48883714,
7284,,RESTO,R0800CT,,,1,FUENCARRAL-EL PARDO,VALVERDE,,,,441970.83,4481739.83,-368467848,40.48432429,
7285,,RESTO,R0800CT,,,1,FUENCARRAL-EL PARDO,VALVERDE,,,,441913.8843,4483152.087,-368547977,40.49704247,
7286,,RESTO,R0800CT,,,1,FUENCARRAL-EL PARDO,VALVERDE,,,,441470.68,4482789.13,-369067618,40.49374168,
7287,,RESTO,R0800CT,,,1,FUENCARRAL-EL PARDO,EL GOLOSO,,,,439844.39,4489510.46,-371050493,40.5541731,
7288,,RESTO,R0800CT,,,1,FUENCARRAL-EL PARDO,VALVERDE,,,,441470.68,4482789.13,-369067618,40.49374168,
7289,,RESTO,R0800CT,,,1,FUENCARRAL-EL PARDO,PEÑAGRANDE,,,,438141.3641,4481103.301,-372979636,40.47831375,
7290,,RESTO,R0800CT,,,1,FUENCARRAL-EL PARDO,VALVERDE,,,,441650.25,4482939.29,-368857113,40.49510702,
7291,,RESTO,R0800CT,,,1,FUENCARRAL-EL PARDO,PEÑAGRANDE,,,,438473.06,4481742.04,-372594536,40.48409236,
7292,,RESTO,R0800CT,,,1,FUENCARRAL-EL PARDO,VALVERDE,,,,441650.25,4482939.29,-368857113,40.49510702,
7293,,RESTO,R0800CT,,,2,HORTALEZA,PINAR DEL REY,,,,443944.0,4479653.0,-366121436,40.46566074,
7294,,RESTO,R0800CT,,,1,FUENCARRAL-EL PARDO,VALVERDE,,,,440938.43,4482525.8,-369693202,40.4913318,
7295,,RESTO,R0800CT,,,1,FUENCARRAL-EL PARDO,VALVERDE,,,,441336.1674,4482437.921,-369223087,40.49056836,
7296,,RESTO,R0800CT,,,1,FUENCARRAL-EL PARDO,VALVERDE,,,,440938.43,4482525.8,-369693202,40.4913318,
7297,,RESTO,R0800CT,,,1,FUENCARRAL-EL PARDO,PEÑAGRANDE,,,,437908.4116,4480657.503,-373250083,40.47428047,
7298,,RESTO,R0800CT,,,1,FUENCARRAL-EL PARDO,VALVERDE,,,,441354.73,4482580.02,-369202500,40.49184975,
7299,,RESTO,R0800CT,,,1,FUENCARRAL-EL PARDO,MIRASIERRA,,,,438356.36,4482101.97,-372735718,40.48732607,
7300,,RESTO,R0800CT,,,1,FUENCARRAL-EL PARDO,VALVERDE,,,,441354.73,4482580.02,-369202500,40.49184975,
7301,,RESTO,R0800CT,,,1,FUENCARRAL-EL PARDO,PEÑAGRANDE,,,,438099.03,4481105.54,-373029599,40.47833076,
7302,,RESTO,R0800CT,,,1,FUENCARRAL-EL PARDO,VALVERDE,,,,440938.43,4482525.8,-369693202,40.4913318,
7303,,RESTO,R0800CT,,,1,FUENCARRAL-EL PARDO,PEÑAGRANDE,,,,437470.3809,4480847.886,-373768669,40.47596264,
7304,,RESTO,R0800CT,,,1,FUENCARRAL-EL PARDO,VALVERDE,,,,441267.64,4483178.13,-369310805,40.49723159,
7305,,RESTO,R0800CT,,,1,FUENCARRAL-EL PARDO,VALVERDE,,,,441336.1674,4482437.921,-369223087,40.49056836,
7306,,RESTO,R0800CT,,,1,FUENCARRAL-EL PARDO,VALVERDE,,,,441435.19,4482979.73,-369111257,40.49545617,
7307,,RESTO,R0800CT,,,1,FUENCARRAL-EL PARDO,VALVERDE,,,,441823.69,4482536.4,-368648756,40.49148981,
7308,,RESTO,R0800CT,,,1,FUENCARRAL-EL PARDO,VALVERDE,,,,441435.19,4482979.73,-369111257,40.49545617,
7309,,RESTO,R0800CT,,,1,FUENCARRAL-EL PARDO,EL GOLOSO,,,,439875.42,4489459.72,-371013363,40.55371827,
7310,,RESTO,R0800CT,,,1,FUENCARRAL-EL PARDO,VALVERDE,,,,441435.19,4482979.73,-369111257,40.49545617,
7311,,RESTO,R0800CT,,,1,FUENCARRAL-EL PARDO,VALVERDE,,,,442008.75,4482169.26,-368427038,40.48819542,
7312,,RESTO,R0800CT,,,1,FUENCARRAL-EL PARDO,VALVERDE,,,,441183.8154,4482741.52,-369405667,40.49329251,
7313,,RESTO,R0800CT,,,1,FUENCARRAL-EL PARDO,PEÑAGRANDE,,,,437470.3809,4480847.886,-373768669,40.47596264,
7314,,RESTO,R0800CT,,,2,HORTALEZA,PINAR DEL REY,,,,445238.0,4481131.0,-364607938,40.47906159,
7315,,RESTO,R0800CT,,,1,FUENCARRAL-EL PARDO,VALVERDE,,,,441336.1674,4482437.921,-369223087,40.49056836,
7316,,RESTO,R0800CT,,,1,FUENCARRAL-EL PARDO,PEÑAGRANDE,,,,439006.08,4481445.92,-371962834,40.48146414,
7317,,RESTO,R0800CT,,,1,FUENCARRAL-EL PARDO,VALVERDE,,,,441588.77,4482059.46,-368921550,40.48717685,
7318,,RESTO,R0800CT,,,1,FUENCARRAL-EL PARDO,VALVERDE,,,,441397.21,4482904.61,-369155378,40.49477678,
7319,,RESTO,R0800CT,,,1,FUENCARRAL-EL PARDO,EL GOLOSO,,,,439949.57,4489342.37,-370924675,40.55266654,
7320,,RESTO,R0800CT,,,2,HORTALEZA,PINAR DEL REY,,,,444913.3793,4481010.907,-364989857,40.47795826,
7321,,RESTO,R0800CT,,,1,FUENCARRAL-EL PARDO,VALVERDE,,,,441290.66,4482582.91,-369278125,40.49187126,
7322,,RESTO,R0800CT,,,1,FUENCARRAL-EL PARDO,PEÑAGRANDE,,,,438656.52,4481148.72,-372372351,40.47876111,
7323,,RESTO,R0800CT,,,1,FUENCARRAL-EL PARDO,PEÑAGRANDE,,,,438268.59,4480665.76,-372825290,40.4743817,
7324,,RESTO,R0800CT,,,1,FUENCARRAL-EL PARDO,EL GOLOSO,,,,440711.8629,4488579.66,-370017250,40.54585075,
7325,,RESTO,R0800CT,,,1,FUENCARRAL-EL PARDO,VALVERDE,,,,441648.75,4483251.06,-368861755,40.49791546,
7326,,RESTO,R0800CT,,,2,HORTALEZA,CANILLAS,,,,445158.3875,4479574.147,-364688399,40.46503144,
7327,,RESTO,R0800CT,,,1,FUENCARRAL-EL PARDO,PEÑAGRANDE,,,,437470.3809,4480847.886,-373768669,40.47596264,
7328,,RESTO,R0800CT,,,1,FUENCARRAL-EL PARDO,EL PARDO,,,,433993.28,4485849.48,-377922506,40.52074888,
7329,,RESTO,R0800CT,,,1,FUENCARRAL-EL PARDO,PEÑAGRANDE,,,,438414.7,4481120.7,-372657354,40.4784908,
7330,,RESTO,R0800CT,,,1,FUENCARRAL-EL PARDO,VALVERDE,,,,441397.21,4482904.61,-369155378,40.49477678,
7331,,RESTO,R0800CT,,,1,FUENCARRAL-EL PARDO,PEÑAGRANDE,,,,438091.05,4480862.26,-373036638,40.47613862,
7332,,RESTO,R0800CT,,,1,FUENCARRAL-EL PARDO,VALVERDE,,,,441099.24,4482998.81,-369507855,40.49560428,
7333,,RESTO,R0800CT,,,1,FUENCARRAL-EL PARDO,VALVERDE,,,,441290.66,4482582.91,-369278125,40.49187126,
7334,,RESTO,R0800CT,,,2,HORTALEZA,PINAR DEL REY,,,,444696.0,4480472.0,-365241601,40.47308908,
7335,,RESTO,R0800CT,,,1,FUENCARRAL-EL PARDO,VALVERDE,,,,441059.27,4482530.8,-369550666,40.49138543,
7336,,RESTO,R0800CT,,,1,FUENCARRAL-EL PARDO,PEÑAGRANDE,,,,438656.52,4481148.72,-372372351,40.47876111,
7337,,RESTO,R0800CT,,,1,FUENCARRAL-EL PARDO,VALVERDE,,,,441648.75,4483251.06,-368861755,40.49791546,
7338,,RESTO,R0800CT,,,1,FUENCARRAL-EL PARDO,EL GOLOSO,,,,440711.7391,4488579.659,-370017396,40.54585074,
7339,,RESTO,R0800CT,,,1,FUENCARRAL-EL PARDO,PEÑAGRANDE,,,,438515.6786,4480657.04,-372533735,40.47432148,
7340,,RESTO,R0800CT,,,1,FUENCARRAL-EL PARDO,PEÑAGRANDE,,,,438009.33,4480865.65,-373133073,40.47616307,
7341,,RESTO,R0800CT,,,1,FUENCARRAL-EL PARDO,PEÑAGRANDE,,,,437929.55,4480868.77,-373227216,40.47618521,
7342,,RESTO,R0800CT,,,1,FUENCARRAL-EL PARDO,PEÑAGRANDE,,,,437567.57,4480833.09,-373653875,40.47583666,
7343,,RESTO,R0800CT,,,1,FUENCARRAL-EL PARDO,VALVERDE,,,,441982.37,4481759.29,-368454411,40.4845004,
7345,,RESTO,R0800CT,,,1,FUENCARRAL-EL PARDO,PEÑAGRANDE,,,,438560.3314,4480737.537,-372481841,40.47504992,
7346,,RESTO,R0800CT,,,1,FUENCARRAL-EL PARDO,PEÑAGRANDE,,,,438562.25,4481037.93,-372482488,40.47775611,
7347,,RESTO,R0800CT,,,1,FUENCARRAL-EL PARDO,VALVERDE,,,,441696.06,4483280.69,-368806199,40.4981857,
7348,,RESTO,R0800CT,,,1,FUENCARRAL-EL PARDO,EL GOLOSO,,,,441149.2969,4488923.929,-369503897,40.54898321,
7349,,RESTO,R0800CT,,,1,FUENCARRAL-EL PARDO,VALVERDE,,,,441485.92,4482863.53,-369050322,40.49441298,
7350,,RESTO,R0800CT,,,1,FUENCARRAL-EL PARDO,PEÑAGRANDE,,,,438697.5064,4480941.53,-372321996,40.4768977,
7351,,RESTO,R0800CT,,,1,FUENCARRAL-EL PARDO,PEÑAGRANDE,,,,437686.5,4481104.42,-373516246,40.47828982,
7352,,RESTO,R0800CT,,,1,FUENCARRAL-EL PARDO,PEÑAGRANDE,,,,438340.1,4481808.17,-372752044,40.48467822,
7353,,RESTO,R0800CT,,,1,FUENCARRAL-EL PARDO,VALVERDE,,,,441266.74,4482796.61,-369308330,40.49379466,
7354,,RESTO,R0800CT,,,1,FUENCARRAL-EL PARDO,VALVERDE,,,,441099.24,4482998.81,-369507855,40.49560428,
7355,,RESTO,R0800CT,,,1,FUENCARRAL-EL PARDO,EL PARDO,,,,434255.95,4485430.39,-377608091,40.51699451,
7356,,RESTO,R0800CT,,,2,HORTALEZA,PINAR DEL REY,,,,444698.8647,4480417.016,-365237743,40.47259396,
7357,,RESTO,R0800CT,,,1,FUENCARRAL-EL PARDO,VALVERDE,,,,441648.75,4483251.06,-368861755,40.49791546,
7358,,RESTO,R0800CT,,,1,FUENCARRAL-EL PARDO,EL GOLOSO,,,,441550.4122,4489073.69,-369031590,40.5503607,
7359,,RESTO,R0800CT,,,1,FUENCARRAL-EL PARDO,VALVERDE,,,,441485.92,4482863.53,-369050322,40.49441298,
7360,,RESTO,R0800CT,,,1,FUENCARRAL-EL PARDO,PEÑAGRANDE,,,,438111.07,4480921.82,-373013603,40.47667665,
7361,,RESTO,R0800CT,,,1,FUENCARRAL-EL PARDO,PEÑAGRANDE,,,,438212.64,4480867.2,-372893253,40.47619218,
7362,,RESTO,R0800CT,,,1,FUENCARRAL-EL PARDO,PEÑAGRANDE,,,,438175.4,4481323.67,-372941633,40.48030144,
7363,,RESTO,R0800CT,,,1,FUENCARRAL-EL PARDO,VALVERDE,,,,441982.37,4481759.29,-368454411,40.4845004,
7364,,RESTO,R0800CT,,,1,FUENCARRAL-EL PARDO,PEÑAGRANDE,,,,438084.9346,4481186.772,-373047021,40.47906148,
7365,,RESTO,R0800CT,,,1,FUENCARRAL-EL PARDO,VALVERDE,,,,440893.85,4482954.65,-369749803,40.49519187,
7366,,RESTO,R0800CT,,,1,FUENCARRAL-EL PARDO,EL GOLOSO,,,,441149.2969,4488923.929,-369503897,40.54898321,
7367,,RESTO,R0800CT,,,1,FUENCARRAL-EL PARDO,PEÑAGRANDE,,,,438835.25,4481685.47,-372166681,40.48360952,
7368,,RESTO,R0800CT,,,1,FUENCARRAL-EL PARDO,PEÑAGRANDE,,,,438044.01,4481296.76,-373096374,40.48004923,
7369,,RESTO,R0800CT,,,1,FUENCARRAL-EL PARDO,PEÑAGRANDE,,,,438515.6786,4480657.04,-372533735,40.47432148,
7370,,RESTO,R0800CT,,,2,HORTALEZA,CANILLAS,,,,445214.0,4479510.0,-364622251,40.46445724,
7371,,RESTO,R0800CT,,,1,FUENCARRAL-EL PARDO,PEÑAGRANDE,,,,437577.9448,4481121.484,-373644475,40.47843539,
7372,,RESTO,R0800CT,,,1,FUENCARRAL-EL PARDO,PEÑAGRANDE,,,,438175.4,4481323.67,-372941633,40.48030144,
7373,,RESTO,R0800CT,,,1,FUENCARRAL-EL PARDO,VALVERDE,,,,441266.74,4482796.61,-369308330,40.49379466,
7374,,RESTO,R0800CT,,,1,FUENCARRAL-EL PARDO,VALVERDE,,,,441367.2651,4483213.034,-369193567,40.49755307,
7375,,RESTO,R0800CT,,,1,FUENCARRAL-EL PARDO,PEÑAGRANDE,,,,438974.56,4481633.45,-372001824,40.48315116,
7376,,RESTO,R0800CT,,,1,FUENCARRAL-EL PARDO,VALVERDE,,,,441946.83,4482500.45,-368503130,40.49117458,
7377,,RESTO,R0800CT,,,1,FUENCARRAL-EL PARDO,PEÑAGRANDE,,,,438835.25,4481685.47,-372166681,40.48360952,
7378,,RESTO,R0800CT,,,1,FUENCARRAL-EL PARDO,EL GOLOSO,,,,441550.2174,4489073.564,-369031819,40.55035955,
7379,,RESTO,R0800CT,,,1,FUENCARRAL-EL PARDO,VALVERDE,,,,441650.2509,4482939.29,-368857112,40.49510702,
7380,,RESTO,R0800CT,,,1,FUENCARRAL-EL PARDO,PEÑAGRANDE,,,,438111.07,4480921.82,-373013603,40.47667665,
7381,,RESTO,R0800CT,,,1,FUENCARRAL-EL PARDO,PEÑAGRANDE,,,,437975.58,4481102.86,-373175206,40.47829741,
7382,,RESTO,R0800CT,,,1,FUENCARRAL-EL PARDO,VALVERDE,,,,441946.83,4482500.45,-368503130,40.49117458,
7383,,RESTO,R0800CT,,,1,FUENCARRAL-EL PARDO,VALVERDE,,,,441982.37,4481759.29,-368454411,40.4845004,
7384,,RESTO,R0800CT,,,2,HORTALEZA,PINAR DEL REY,,,,445875.0,4480805.0,-363853671,40.47616658,
7385,,RESTO,R0800CT,,,1,FUENCARRAL-EL PARDO,PEÑAGRANDE,,,,438163.62,4481395.41,-372956230,40.48094682,
7386,,RESTO,R0800CT,,,1,FUENCARRAL-EL PARDO,PEÑAGRANDE,,,,438697.5064,4480941.53,-372321996,40.4768977,
7387,,RESTO,R0800CT,,,1,FUENCARRAL-EL PARDO,VALVERDE,,,,441650.2497,4482939.289,-368857114,40.49510702,
7388,,RESTO,R0800CT,,,2,HORTALEZA,PINAR DEL REY,,,,445165.0,4480611.0,-364689562,40.47437236,
7389,,RESTO,R0800CT,,,1,FUENCARRAL-EL PARDO,PEÑAGRANDE,,,,437975.58,4481102.86,-373175206,40.47829741,
7390,,RESTO,R0800CT,,,1,FUENCARRAL-EL PARDO,VALVERDE,,,,441152.46,4483020.84,-369445260,40.49580651,
7391,,RESTO,R0800CT,,,1,FUENCARRAL-EL PARDO,VALVERDE,,,,441696.06,4483280.69,-368806199,40.4981857,
7392,,RESTO,R0800CT,,,2,HORTALEZA,PINAR DEL REY,,,,444919.0,4480739.0,-364980865,40.47550917,
7393,,RESTO,R0800CT,,,1,FUENCARRAL-EL PARDO,PEÑAGRANDE,,,,438595.17,4481377.13,-372446937,40.48081417,
7394,,RESTO,R0800CT,,,1,FUENCARRAL-EL PARDO,EL GOLOSO,,,,441550.7356,4489073.537,-369031207,40.55035935,
7395,,RESTO,R0800CT,,,1,FUENCARRAL-EL PARDO,VALVERDE,,,,441650.2505,4482939.29,-368857113,40.49510702,
7396,,RESTO,R0800CT,,,1,FUENCARRAL-EL PARDO,PEÑAGRANDE,,,,439062.47,4480545.76,-371887658,40.47335933,
7397,,RESTO,R0800CT,,,1,FUENCARRAL-EL PARDO,VALVERDE,,,,441843.84,4481880.88,-368618965,40.48558604,
7398,,RESTO,R0800CT,,,1,FUENCARRAL-EL PARDO,VALVERDE,,,,441823.69,4482536.4,-368648756,40.49148981,
7399,,RESTO,R0800CT,,,1,FUENCARRAL-EL PARDO,VALVERDE,,,,441696.06,4483280.69,-368806199,40.4981857,
7400,,RESTO,R0800CT,,,1,FUENCARRAL-EL PARDO,PEÑAGRANDE,,,,437920.3133,4480739.651,-373236848,40.47502138,
7401,,RESTO,R0800CT,,,1,FUENCARRAL-EL PARDO,VALVERDE,,,,441303.28,4482740.0,-369264690,40.49328728,
7402,,RESTO,R0800CT,,,2,HORTALEZA,CANILLAS,,,,445214.0,4479510.0,-364622251,40.46445724,
7403,,RESTO,R0800CT,,,1,FUENCARRAL-EL PARDO,PEÑAGRANDE,,,,437577.9448,4481121.484,-373644475,40.47843539,
7404,,RESTO,R0800CT,,,1,FUENCARRAL-EL PARDO,PEÑAGRANDE,,,,438382.98,4481459.88,-372698069,40.48154389,
7405,,RESTO,R0800CT,,,1,FUENCARRAL-EL PARDO,VALVERDE,,,,441696.18,4482997.4,-368803451,40.49563373,
7406,,RESTO,R0800CT,,,1,FUENCARRAL-EL PARDO,VALVERDE,,,,441798.28,4481661.25,-368670702,40.48360433,
7407,,RESTO,R0800CT,,,1,FUENCARRAL-EL PARDO,VALVERDE,,,,441845.81,4481668.65,-368614694,40.48367433,
7408,,RESTO,R0800CT,,,1,FUENCARRAL-EL PARDO,EL GOLOSO,,,,441550.3357,4489073.785,-369031681,40.55036156,
7409,,RESTO,R0800CT,,,1,FUENCARRAL-EL PARDO,VALVERDE,,,,441476.51,4481885.72,-369052396,40.48560383,
7410,,RESTO,R0800CT,,,1,FUENCARRAL-EL PARDO,PEÑAGRANDE,,,,439062.47,4480545.76,-371887658,40.47335933,
7411,,RESTO,R0800CT,,,1,FUENCARRAL-EL PARDO,EL GOLOSO,,,,440918.238,4488862.572,-369776190,40.54841404,
7412,,RESTO,R0800CT,,,2,HORTALEZA,PINAR DEL REY,,,,444943.0452,4480053.417,-364946549,40.46933469,
7413,,RESTO,R0800CT,,,1,FUENCARRAL-EL PARDO,VALVERDE,,,,442008.19,4482240.5,-368428351,40.48883714,
7414,,RESTO,R0800CT,,,1,FUENCARRAL-EL PARDO,VALVERDE,,,,441798.28,4481661.25,-368670702,40.48360433,
7415,,RESTO,R0800CT,,,1,FUENCARRAL-EL PARDO,VALVERDE,,,,441479.39,4483092.21,-369060140,40.49647255,
7416,,RESTO,R0800CT,,,1,FUENCARRAL-EL PARDO,VALVERDE,,,,441823.69,4482536.4,-368648756,40.49148981,
7417,,RESTO,R0800CT,,,1,FUENCARRAL-EL PARDO,VALVERDE,,,,441476.51,4481885.72,-369052396,40.48560383,
7418,,RESTO,R0800CT,,,1,FUENCARRAL-EL PARDO,PEÑAGRANDE,,,,438382.98,4481459.88,-372698069,40.48154389,
7419,,RESTO,R0800CT,,,1,FUENCARRAL-EL PARDO,EL GOLOSO,,,,440918.4985,4488862.512,-369775882,40.54841352,
7420,,RESTO,R0800CT,,,1,FUENCARRAL-EL PARDO,PEÑAGRANDE,,,,438001.16,4480626.01,-373140368,40.4740037,
7421,,RESTO,R0800CT,,,1,FUENCARRAL-EL PARDO,VALVERDE,,,,441854.68,4482669.07,-368613407,40.49268712,
7422,,RESTO,R0800CT,,,1,FUENCARRAL-EL PARDO,EL GOLOSO,,,,441550.3235,4489073.296,-369031691,40.55035715,
7423,,RESTO,R0800CT,,,1,FUENCARRAL-EL PARDO,VALVERDE,,,,441843.84,4481880.88,-368618965,40.48558604,
7424,,RESTO,R0800CT,,,1,FUENCARRAL-EL PARDO,PEÑAGRANDE,,,,439062.47,4480545.76,-371887658,40.47335933,
7425,,RESTO,R0800CT,,,1,FUENCARRAL-EL PARDO,PEÑAGRANDE,,,,438835.25,4481685.47,-372166681,40.48360952,
7426,,RESTO,R0800CT,,,1,FUENCARRAL-EL PARDO,VALVERDE,,,,441823.69,4482536.4,-368648756,40.49148981,
7427,,RESTO,R0800CT,,,1,FUENCARRAL-EL PARDO,EL GOLOSO,,,,440918.3346,4488862.508,-369776075,40.54841348,
7428,,RESTO,R0800CT,,,1,FUENCARRAL-EL PARDO,VALVERDE,,,,441798.28,4481661.25,-368670702,40.48360433,
7429,,RESTO,R0800CT,,,1,FUENCARRAL-EL PARDO,PEÑAGRANDE,,,,438506.3799,4480956.602,-372547608,40.47701935,
7430,,RESTO,R0800CT,,,2,HORTALEZA,PINAR DEL REY,,,,444637.0,4480143.0,-365308327,40.47012136,
7431,,RESTO,R0800CT,,,1,FUENCARRAL-EL PARDO,VALVERDE,,,,441479.39,4483092.21,-369060140,40.49647255,
7432,,RESTO,R0800CT,,,1,FUENCARRAL-EL PARDO,PEÑAGRANDE,,,,437794.84,4481198.11,-373389357,40.47914193,
7433,,RESTO,R0800CT,,,1,FUENCARRAL-EL PARDO,VALVERDE,,,,441577.13,4483228.42,-368946061,40.49770647,
7434,,RESTO,R0800CT,,,1,FUENCARRAL-EL PARDO,MIRASIERRA,,,,440513.6108,4483693.812,-370205424,40.50182333,
7435,,RESTO,R0800CT,,,1,FUENCARRAL-EL PARDO,EL GOLOSO,,,,440918.3018,4488862.512,-369776114,40.54841351,
7436,,RESTO,R0800CT,,,1,FUENCARRAL-EL PARDO,PEÑAGRANDE,,,,439062.47,4480545.76,-371887658,40.47335933,
7437,,RESTO,R0800CT,,,1,FUENCARRAL-EL PARDO,PEÑAGRANDE,,,,438656.52,4481148.72,-372372351,40.47876111,
7438,,RESTO,R0800CT,,,1,FUENCARRAL-EL PARDO,EL GOLOSO,,,,441550.3235,4489073.296,-369031691,40.55035715,
7439,,RESTO,R0800CT,,,1,FUENCARRAL-EL PARDO,VALVERDE,,,,441194.24,4482422.19,-369390403,40.49041661,
7440,,RESTO,R0800CT,,,2,HORTALEZA,PINAR DEL REY,,,,445238.4775,4481131.244,-364607377,40.47906381,
7441,,RESTO,R0800CT,,,1,FUENCARRAL-EL PARDO,VALVERDE,,,,441577.13,4483228.42,-368946061,40.49770647,
7442,,RESTO,R0800CT,,,1,FUENCARRAL-EL PARDO,MIRASIERRA,,,,440513.6108,4483693.812,-370205424,40.50182333,
7443,,RESTO,R0800CT,,,1,FUENCARRAL-EL PARDO,EL GOLOSO,,,,440918.3424,4488862.409,-369776065,40.54841258,
7444,,RESTO,R0800CT,,,1,FUENCARRAL-EL PARDO,VALVERDE,,,,441823.69,4482536.4,-368648756,40.49148981,
7445,,RESTO,R0800CT,,,1,FUENCARRAL-EL PARDO,PEÑAGRANDE,,,,438656.32,4481106.68,-372372180,40.47838239,
7446,,RESTO,R0800CT,,,1,FUENCARRAL-EL PARDO,PEÑAGRANDE,,,,437794.84,4481198.11,-373389357,40.47914193,
7447,,RESTO,R0800CT,,,1,FUENCARRAL-EL PARDO,VALVERDE,,,,440950.72,4483019.89,-369683305,40.49578362,
7448,,RESTO,R0800CT,,,1,FUENCARRAL-EL PARDO,VALVERDE,,,,441707.52,4482451.39,-368785047,40.49071586,
7449,,RESTO,R0800CT,,,1,FUENCARRAL-EL PARDO,PEÑAGRANDE,,,,438610.2,4481111.0,-372426629,40.4784179,
7450,,RESTO,R0800CT,,,1,FUENCARRAL-EL PARDO,PEÑAGRANDE,,,,438842.9,4481430.56,-372155197,40.48131377,
7451,,RESTO,R0800CT,,,1,FUENCARRAL-EL PARDO,PEÑAGRANDE,,,,439016.59,4480445.3,-371940812,40.47245098,
7452,,RESTO,R0800CT,,,1,FUENCARRAL-EL PARDO,EL GOLOSO,,,,441686.9486,4489072.113,-368870331,40.55035613,
7453,,RESTO,R0800CT,,,1,FUENCARRAL-EL PARDO,VALVERDE,,,,440893.85,4482954.65,-369749803,40.49519187,
7454,,RESTO,R0800CT,,,2,HORTALEZA,PINAR DEL REY,,,,444773.0,4479872.0,-365145547,40.46768912,
7455,,RESTO,R0800CT,,,1,FUENCARRAL-EL PARDO,VALVERDE,,,,441318.3514,4483040.919,-369249693,40.49599913,
7456,,RESTO,R0800CT,,,1,FUENCARRAL-EL PARDO,PEÑAGRANDE,,,,438842.9,4481430.56,-372155197,40.48131377,
7457,,RESTO,R0800CT,,,1,FUENCARRAL-EL PARDO,VALVERDE,,,,440902.27,4482568.15,-369736263,40.49171073,
7458,,RESTO,R0800CT,,,1,FUENCARRAL-EL PARDO,VALVERDE,,,,441274.69,4481910.72,-369290741,40.48581479,
7459,,RESTO,R0800CT,,,1,FUENCARRAL-EL PARDO,PEÑAGRANDE,,,,438411.85,4481551.01,-372664895,40.48236696,
7460,,RESTO,R0800CT,,,1,FUENCARRAL-EL PARDO,PEÑAGRANDE,,,,438758.95,4481654.09,-372256396,40.48332122,
7461,,RESTO,R0800CT,,,1,FUENCARRAL-EL PARDO,VALVERDE,,,,441485.92,4482863.53,-369050322,40.49441298,
7462,,RESTO,R0800CT,,,1,FUENCARRAL-EL PARDO,EL GOLOSO,,,,441686.8759,4489072.564,-368870421,40.55036018,
7463,,RESTO,R0800CT,,,1,FUENCARRAL-EL PARDO,EL GOLOSO,,,,440801.1914,4488810.599,-369913927,40.54793751,
7464,,RESTO,R0800CT,,,1,FUENCARRAL-EL PARDO,VALVERDE,,,,441899.12,4482814.82,-368562306,40.49400321,
7465,,RESTO,R0800CT,,,1,FUENCARRAL-EL PARDO,PEÑAGRANDE,,,,438237.14,4481520.95,-372870719,40.4820832,
7466,,RESTO,R0800CT,,,2,HORTALEZA,CANILLAS,,,,445060.0,4479479.0,-364803621,40.46416781,
7467,,RESTO,R0800CT,,,1,FUENCARRAL-EL PARDO,VALVERDE,,,,441485.92,4482863.53,-369050322,40.49441298,
7468,,RESTO,R0800CT,,,1,FUENCARRAL-EL PARDO,PEÑAGRANDE,,,,438048.99,4481102.43,-373088601,40.47829902,
7469,,RESTO,R0800CT,,,1,FUENCARRAL-EL PARDO,PEÑAGRANDE,,,,438032.03,4481367.14,-373111195,40.48068234,
7470,,RESTO,R0800CT,,,1,FUENCARRAL-EL PARDO,PEÑAGRANDE,,,,438758.95,4481654.09,-372256396,40.48332122,
7471,,RESTO,R0800CT,,,1,FUENCARRAL-EL PARDO,EL GOLOSO,,,,440801.35,4488810.53,-369913739,40.54793689,
7472,,RESTO,R0800CT,,,1,FUENCARRAL-EL PARDO,PEÑAGRANDE,,,,437920.3133,4480739.651,-373236848,40.47502138,
7473,,RESTO,R0800CT,,,1,FUENCARRAL-EL PARDO,VALVERDE,,,,441485.92,4482863.53,-369050322,40.49441298,
7474,,RESTO,R0800CT,,,1,FUENCARRAL-EL PARDO,VALVERDE,,,,441823.69,4482536.4,-368648756,40.49148981,
7475,,RESTO,R0800CT,,,1,FUENCARRAL-EL PARDO,VALVERDE,,,,441577.13,4483228.42,-368946061,40.49770647,
7476,,RESTO,R0800CT,,,1,FUENCARRAL-EL PARDO,VALVERDE,,,,441274.69,4481910.72,-369290741,40.48581479,
7477,,RESTO,R0800CT,,,1,FUENCARRAL-EL PARDO,VALVERDE,,,,441059.27,4482530.8,-369550666,40.49138543,
7478,,RESTO,R0800CT,,,1,FUENCARRAL-EL PARDO,EL GOLOSO,,,,441786.279,4488932.213,-368751736,40.54910285,
7479,,RESTO,R0800CT,,,1,FUENCARRAL-EL PARDO,PEÑAGRANDE,,,,438237.14,4481520.95,-372870719,40.4820832,
7480,,RESTO,R0800CT,,,1,FUENCARRAL-EL PARDO,VALVERDE,,,,440950.72,4483019.89,-369683305,40.49578362,
7481,,RESTO,R0800CT,,,1,FUENCARRAL-EL PARDO,PEÑAGRANDE,,,,438237.14,4481520.95,-372870719,40.4820832,
7482,,RESTO,R0800CT,,,1,FUENCARRAL-EL PARDO,PEÑAGRANDE,,,,438506.3799,4480956.602,-372547608,40.47701935,
7483,,RESTO,R0800CT,,,2,HORTALEZA,PINAR DEL REY,,,,444842.0,4479915.0,-365064534,40.46808107,
7484,,RESTO,R0800CT,,,1,FUENCARRAL-EL PARDO,VALVERDE,,,,441274.69,4481910.72,-369290741,40.48581479,
7485,,RESTO,R0800CT,,,1,FUENCARRAL-EL PARDO,PEÑAGRANDE,,,,438758.95,4481654.09,-372256396,40.48332122,
7486,,RESTO,R0800CT,,,1,FUENCARRAL-EL PARDO,VALVERDE,,,,441707.52,4482451.39,-368785047,40.49071586,
7487,,RESTO,R0800CT,,,1,FUENCARRAL-EL PARDO,EL GOLOSO,,,,441786.578,4488932.28,-368751384,40.54910348,
7488,,RESTO,R0800CT,,,1,FUENCARRAL-EL PARDO,VALVERDE,,,,441823.69,4482536.4,-368648756,40.49148981,
7489,,RESTO,R0800CT,,,1,FUENCARRAL-EL PARDO,PEÑAGRANDE,,,,438511.07,4481456.83,-372546926,40.48152591,
7490,,RESTO,R0800CT,,,2,HORTALEZA,PINAR DEL REY,,,,445078.0,4480764.0,-364793515,40.47574491,
7491,,RESTO,R0800CT,,,1,FUENCARRAL-EL PARDO,VALVERDE,,,,441282.78,4481982.83,-369281864,40.48646495,
7492,,RESTO,R0800CT,,,1,FUENCARRAL-EL PARDO,PEÑAGRANDE,,,,438758.95,4481654.09,-372256396,40.48332122,
7493,,RESTO,R0800CT,,,1,FUENCARRAL-EL PARDO,VALVERDE,,,,441610.46,4482853.06,-368903271,40.49432743,
7494,,RESTO,R0800CT,,,1,FUENCARRAL-EL PARDO,EL GOLOSO,,,,441687.8438,4489072.305,-368869276,40.55035792,
7495,,RESTO,R0800CT,,,1,FUENCARRAL-EL PARDO,VALVERDE,,,,441823.69,4482536.4,-368648756,40.49148981,
7496,,RESTO,R0800CT,,,1,FUENCARRAL-EL PARDO,PEÑAGRANDE,,,,438511.07,4481456.83,-372546926,40.48152591,
7497,,RESTO,R0800CT,,,2,HORTALEZA,PINAR DEL REY,,,,444667.0,4480225.0,-365273656,40.47086206,
7498,,RESTO,R0800CT,,,1,FUENCARRAL-EL PARDO,VALVERDE,,,,441282.78,4481982.83,-369281864,40.48646495,
7499,,RESTO,R0800CT,,,1,FUENCARRAL-EL PARDO,PEÑAGRANDE,,,,438758.95,4481654.09,-372256396,40.48332122,
7500,,RESTO,R0800CT,,,1,FUENCARRAL-EL PARDO,VALVERDE,,,,441610.46,4482853.06,-368903271,40.49432743,
7501,,RESTO,R0800CT,,,1,LATINA,AGUILAS,,,,435139.29,4469525.33,-376403021,40.37378647,
7502,,RESTO,R0800CT,,,1,LATINA,AGUILAS,,,,434670.19,4470116.02,-376961607,40.37907101,
7503,,RESTO,R0800CT,,,1,LATINA,AGUILAS,,,,434200.95,4470136.85,-377514561,40.37922173,
7504,,RESTO,R0800CT,,,1,LATINA,AGUILAS,,,,434451.97,4471024.61,-377228005,40.3872388,
7505,,RESTO,R0800CT,,,1,LATINA,AGUILAS,,,,434200.95,4470136.85,-377514561,40.37922173,
7506,,RESTO,R0800CT,,,1,LATINA,AGUILAS,,,,435072.86,4469540.98,-376481425,40.37392228,
7507,,RESTO,R0800CT,,,1,LATINA,AGUILAS,,,,435072.86,4469540.98,-376481425,40.37392228,
7508,,RESTO,R0800CT,,,1,LATINA,AGUILAS,,,,433745.96,4470379.63,-378053039,40.38137274,
7509,,RESTO,R0800CT,,,1,LATINA,AGUILAS,,,,433745.96,4470379.63,-378053039,40.38137274,
7510,,RESTO,R0800CT,,,1,LATINA,AGUILAS,,,,433745.96,4470379.63,-378053039,40.38137274,
7511,,RESTO,R0800CT,,,1,LATINA,AGUILAS,,,,434397.88,4470109.37,-377282305,40.37898971,
7512,,RESTO,R0800CT,,,1,LATINA,AGUILAS,,,,434397.88,4470109.37,-377282305,40.37898971,
7513,,RESTO,R0800CT,,,1,LATINA,AGUILAS,,,,435093.07,4469800.87,-376460267,40.37626505,
7514,,RESTO,R0800CT,,,1,LATINA,AGUILAS,,,,435093.07,4469800.87,-376460267,40.37626505,
7515,,RESTO,R0800CT,,,1,LATINA,AGUILAS,,,,435093.07,4469800.87,-376460267,40.37626505,
7516,,RESTO,R0800CT,,,1,LATINA,AGUILAS,,,,435093.07,4469800.87,-376460267,40.37626505,
7517,,RESTO,R0800CT,,,1,LATINA,AGUILAS,,,,434597.47,4469830.83,-377044341,40.3764962,
7518,,RESTO,R0800CT,,,1,LATINA,AGUILAS,,,,435237.92,4470150.34,-376293199,40.37942449,
7519,,RESTO,R0800CT,,,1,LATINA,AGUILAS,,,,434597.47,4469830.83,-377044341,40.3764962,
7520,,RESTO,R0800CT,,,1,LATINA,AGUILAS,,,,435304.93,4469658.46,-376209272,40.37499864,
7521,,RESTO,R0800CT,,,1,LATINA,AGUILAS,,,,434955.2231,4469872.128,-376623364,40.37689622,
7522,,RESTO,R0800CT,,,1,LATINA,AGUILAS,,,,434242.6,4470177.55,-377465920,40.37959166,
7523,,RESTO,R0800CT,,,1,LATINA,AGUILAS,,,,434955.2231,4469872.128,-376623364,40.37689622,
7524,,RESTO,R0800CT,,,1,LATINA,AGUILAS,,,,433835.8882,4470401.306,-377947330,40.38157515,
7525,,RESTO,R0800CT,,,1,LATINA,AGUILAS,,,,434955.2231,4469872.128,-376623364,40.37689622,
7526,,RESTO,R0800CT,,,1,LATINA,AGUILAS,,,,433835.8882,4470401.306,-377947330,40.38157515,
7527,,RESTO,R0800CT,,,1,LATINA,AGUILAS,,,,433835.8882,4470401.306,-377947330,40.38157515,
7528,,RESTO,R0800CT,,,1,LATINA,AGUILAS,,,,433766.14,4469989.48,-378025213,40.37785972,
7529,,RESTO,R0800CT,,,1,LATINA,AGUILAS,,,,433766.14,4469989.48,-378025213,40.37785972,
7530,,RESTO,R0800CT,,,1,LATINA,AGUILAS,,,,433766.14,4469989.48,-378025213,40.37785972,
7531,,RESTO,R0800CT,,,1,LATINA,AGUILAS,,,,435165.07,4470390.88,-376381461,40.38158571,
7532,,RESTO,R0800CT,,,1,LATINA,AGUILAS,,,,434044.64,4470094.27,-377698245,40.3788258,
7533,,RESTO,R0800CT,,,1,LATINA,AGUILAS,,,,434044.64,4470094.27,-377698245,40.3788258,
7534,,RESTO,R0800CT,,,1,LATINA,AGUILAS,,,,435256.99,4469804.72,-376267225,40.37631248,
7535,,RESTO,R0800CT,,,1,LATINA,AGUILAS,,,,435256.99,4469804.72,-376267225,40.37631248,
7536,,RESTO,R0800CT,,,1,LATINA,AGUILAS,,,,433611.38,4470334.64,-378211104,40.38095674,
7537,,RESTO,R0800CT,,,1,LATINA,AGUILAS,,,,433611.38,4470334.64,-378211104,40.38095674,
7538,,RESTO,R0800CT,,,1,LATINA,AGUILAS,,,,433611.38,4470334.64,-378211104,40.38095674,
7539,,RESTO,R0800CT,,,1,LATINA,AGUILAS,,,,435191.38,4470775.11,-376354376,40.38504905,
7540,,RESTO,R0800CT,,,1,LATINA,AGUILAS,,,,435058.18,4469790.15,-376501255,40.37616576,
7541,,RESTO,R0800CT,,,1,LATINA,AGUILAS,,,,435058.18,4469790.15,-376501255,40.37616576,
7542,,RESTO,R0800CT,,,1,LATINA,AGUILAS,,,,434106.32,4470059.98,-377625236,40.37852178,
7543,,RESTO,R0800CT,,,1,LATINA,AGUILAS,,,,433928.22,4470417.02,-377838728,40.38172403,
7544,,RESTO,R0800CT,,,1,LATINA,AGUILAS,,,,433928.22,4470417.02,-377838728,40.38172403,
7545,,RESTO,R0800CT,,,1,LATINA,AGUILAS,,,,435211.6,4470214.8,-376324859,40.38000313,
7546,,RESTO,R0800CT,,,1,LATINA,AGUILAS,,,,434106.32,4470059.98,-377625236,40.37852178,
7547,,RESTO,R0800CT,,,1,LATINA,ALUCHE,,,,436210.06,4471626.21,-375162839,40.39279474,
7548,,RESTO,R0800CT,,,1,LATINA,CAMPAMENTO,,,,434034.4,4471961.3,-377729641,40.39564388,
7549,,RESTO,R0800CT,,,1,LATINA,ALUCHE,,,,436210.06,4471626.21,-375162839,40.39279474,
7550,,RESTO,R0800CT,,,1,LATINA,CAMPAMENTO,,,,433947.24,4472059.02,-377833349,40.39651727,
7551,,RESTO,R0800CT,,,1,LATINA,CAMPAMENTO,,,,433947.24,4472059.02,-377833349,40.39651727,
7552,,RESTO,R0800CT,,,1,LATINA,CAMPAMENTO,,,,433738.33,4471806.39,-378076868,40.3942249,
7553,,RESTO,R0800CT,,,1,LATINA,CAMPAMENTO,,,,433738.33,4471806.39,-378076868,40.3942249,
7554,,RESTO,R0800CT,,,1,LATINA,CAMPAMENTO,,,,433738.33,4471806.39,-378076868,40.3942249,
7555,,RESTO,R0800CT,,,1,LATINA,CAMPAMENTO,,,,434127.04,4471906.46,-377619922,40.3951572,
7556,,RESTO,R0800CT,,,1,LATINA,PUERTA DEL ANGEL,,,,437455.05,4473552.53,-373714926,40.41024227,
7557,,RESTO,R0800CT,,,1,LATINA,PUERTA DEL ANGEL,,,,437455.05,4473552.53,-373714926,40.41024227,
7558,,RESTO,R0800CT,,,1,LATINA,PUERTA DEL ANGEL,,,,437455.05,4473552.53,-373714926,40.41024227,
7559,,RESTO,R0800CT,,,1,LATINA,CAMPAMENTO,,,,434127.04,4471906.46,-377619922,40.3951572,
7560,,RESTO,R0800CT,,,1,LATINA,CAMPAMENTO,,,,434127.04,4471906.46,-377619922,40.3951572,
7561,,RESTO,R0800CT,,,1,LATINA,LUCERO,,,,435940.06,4473023.2,-375495006,40.40535865,
7562,,RESTO,R0800CT,,,1,LATINA,PUERTA DEL ANGEL,,,,437942.64,4473269.36,-373137540,40.40772785,
7563,,RESTO,R0800CT,,,1,LATINA,PUERTA DEL ANGEL,,,,437942.64,4473269.36,-373137540,40.40772785,
7564,,RESTO,R0800CT,,,1,LATINA,LUCERO,,,,435940.06,4473023.2,-375495006,40.40535865,
7565,,RESTO,R0800CT,,,1,LATINA,LUCERO,,,,435749.88,4472949.26,-375718370,40.40467792,
7566,,RESTO,R0800CT,,,1,LATINA,LUCERO,,,,435749.88,4472949.26,-375718370,40.40467792,
7567,,RESTO,R0800CT,,,1,LATINA,LUCERO,,,,435749.88,4472949.26,-375718370,40.40467792,
7568,,RESTO,R0800CT,,,1,LATINA,PUERTA DEL ANGEL,,,,437832.59,4473288.88,-373267420,40.40789548,
7569,,RESTO,R0800CT,,,1,LATINA,LUCERO,,,,435927.48,4473039.71,-375509997,40.40550641,
7570,,RESTO,R0800CT,,,1,LATINA,LUCERO,,,,435927.48,4473039.71,-375509997,40.40550641,
7571,,RESTO,R0800CT,,,1,LATINA,CAMPAMENTO,,,,433901.22,4471885.29,-377885769,40.3949486,
