OBJECTID,Codigo_Interno_del_Situad,Tipo_Contenedor,Modelo,Descripcion_Modelo,Cantidad,Lote,Distrito,Barrio,Tipo_Via,Nombre,Numero,Coordenada_X,Coordenada_Y,Longitud,Latitud,Direccion
6,,ENVASES,E0800CT,,,2,HORTALEZA,PINAR DEL REY,,,,444913.3554,4481010.887,-364989885,40.47795808,
9,,ENVASES,E0800CT,,,2,HORTALEZA,PINAR DEL REY,,,,444698.9997,4480417.077,-365237584,40.47259451,
12,,ENVASES,E0800CT,,,2,HORTALEZA,PINAR DEL REY,,,,444706.8168,4480331.545,-365227617,40.47182452,
19,,ENVASES,E0800CT,,,2,HORTALEZA,PINAR DEL REY,,,,445437.0476,4480546.963,-364368092,40.4738134,
20,,ENVASES,E0800CT,,,2,HORTALEZA,PINAR DEL REY,,,,445436.9891,4480546.945,-364368161,40.47381324,
21,,ENVASES,E0800CT,,,2,HORTALEZA,PINAR DEL REY,,,,445437.0684,4480546.956,-364368067,40.47381334,
25,,ENVASES,E0800CT,,,2,HORTALEZA,PINAR DEL REY,,,,445541.1041,4480560.087,-364245456,40.47393845,
30,,ENVASES,E0800CT,,,2,CHAMARTIN,HISPANOAMERICA,,,,443546.0,4478701.0,-366582403,40.45705772,
31,,ENVASES,E0800CT,,,2,CHAMARTIN,HISPANOAMERICA,,,,443536.0,4478843.0,-366595459,40.45833624,
32,,ENVASES,E0800CT,,,2,CHAMARTIN,CASTILLA,,,,441968.0,4480959.0,-368464040,40.47729006,
33,,ENVASES,E0800CT,,,2,CHAMARTIN,PROSPERIDAD,,,,442733.0,4476801.0,-367524068,40.43988599,
34,,ENVASES,E0800CT,,,2,CHAMARTIN,CASTILLA,,,,441740.0,4480126.0,-368725356,40.46977009,
35,,ENVASES,E0800CT,,,2,CHAMARTIN,CASTILLA,,,,441805.0,4480433.0,-368651502,40.47254023,
36,,ENVASES,E0800CT,,,2,CHAMARTIN,CASTILLA,,,,441870.0,4480932.0,-368579401,40.47703998,
37,,ENVASES,E0800CT,,,2,CHAMARTIN,CASTILLA,,,,441982.0,4481022.0,-368448101,40.47785857,
38,,ENVASES,E0800CT,,,2,CHAMARTIN,CASTILLA,,,,441821.0,4480171.0,-368630225,40.47018114,
39,,ENVASES,E0800CT,,,2,CHAMARTIN,CASTILLA,,,,441891.0,4480611.0,-368551687,40.47414975,
40,,ENVASES,E0800CT,,,2,CHAMARTIN,CASTILLA,,,,441870.0,4480932.0,-368579401,40.47703998,
41,,ENVASES,E0800CT,,,2,CHAMARTIN,HISPANOAMERICA,,,,443558.0,4478438.0,-366565913,40.4546893,
42,,ENVASES,E0800CT,,,2,CHAMARTIN,HISPANOAMERICA,,,,443546.0,4478701.0,-366582403,40.45705772,
43,,ENVASES,E0800CT,,,2,CHAMARTIN,CASTILLA,,,,441808.0,4480111.0,-368645009,40.46963973,
44,,ENVASES,E0800CT,,,2,CHAMARTIN,CASTILLA,,,,441767.0,4480061.0,-368692912,40.46918643,
45,,ENVASES,E0800CT,,,2,CHAMARTIN,PROSPERIDAD,,,,442606.0,4476855.0,-367674292,40.44036369,
46,,ENVASES,E0800CT,,,2,CHAMARTIN,PROSPERIDAD,,,,443775.0,4477627.0,-366302825,40.44739812,
47,,ENVASES,E0800CT,,,2,CHAMARTIN,HISPANOAMERICA,,,,443619.0,4478461.0,-366494180,40.45490064,
48,,ENVASES,E0800CT,,,2,CHAMARTIN,CASTILLA,,,,441795.0,4480273.0,-368661830,40.47109818,
49,,ENVASES,E0800CT,,,2,CHAMARTIN,HISPANOAMERICA,,,,443582.0,4478312.0,-366536490,40.45355586,
50,,ENVASES,E0800CT,,,2,CHAMARTIN,CIUDAD JARDIN,,,,443028.0,4477899.0,-367186101,40.44979757,
51,,ENVASES,E0800CT,,,2,CHAMARTIN,CASTILLA,,,,441968.0,4480960.0,-368464049,40.47729907,
52,,ENVASES,E0800CT,,,2,CHAMARTIN,CASTILLA,,,,441786.0,4480143.0,-368671253,40.46992645,
53,,ENVASES,E0800CT,,,2,CHAMARTIN,PROSPERIDAD,,,,442618.0,4476857.0,-367660162,40.44038254,
54,,ENVASES,E0800CT,,,2,CHAMARTIN,HISPANOAMERICA,,,,443607.0,4478614.0,-366509691,40.45627812,
55,,ENVASES,E0800CT,,,2,CHAMARTIN,CASTILLA,,,,441928.0,4481204.0,-368513471,40.47949432,
56,,ENVASES,E0800CT,,,2,CHAMARTIN,CASTILLA,,,,441838.0,4480381.0,-368612098,40.4720741,
57,,ENVASES,E0800CT,,,2,CHAMARTIN,CASTILLA,,,,441901.0,4481077.0,-368544160,40.47834837,
58,,ENVASES,E0800CT,,,2,CHAMARTIN,CASTILLA,,,,441838.0,4480381.0,-368612098,40.4720741,
59,,ENVASES,E0800CT,,,2,CHAMARTIN,CASTILLA,,,,441928.0,4481204.0,-368513471,40.47949432,
60,,ENVASES,E0800CT,,,2,CHAMARTIN,CASTILLA,,,,441808.0,4480111.0,-368645009,40.46963973,
61,,ENVASES,E0800CT,,,2,CHAMARTIN,PROSPERIDAD,,,,442687.0,4476765.0,-367577978,40.43955852,
62,,ENVASES,E0800CT,,,2,CHAMARTIN,HISPANOAMERICA,,,,443494.0,4478744.0,-366644111,40.45744155,
63,,ENVASES,E0800CT,,,2,CHAMARTIN,CIUDAD JARDIN,,,,443134.0,4477892.0,-367061043,40.44974177,
64,,ENVASES,E0800CT,,,2,CHAMARTIN,HISPANOAMERICA,,,,443508.0,4478408.0,-366624610,40.45441565,
65,,ENVASES,E0800CT,,,2,CHAMARTIN,CASTILLA,,,,441891.0,4480611.0,-368551687,40.47414975,
66,,ENVASES,E0800CT,,,2,CHAMARTIN,PROSPERIDAD,,,,443791.0,4477581.0,-366283551,40.44698481,
67,,ENVASES,E0800CT,,,2,CHAMARTIN,CASTILLA,,,,441973.0,4481201.0,-368460356,40.47947044,
68,,ENVASES,E0800CT,,,2,CHAMARTIN,CASTILLA,,,,441803.0,4480669.0,-368656027,40.47466607,
69,,ENVASES,E0800CT,,,2,CHAMARTIN,CASTILLA,,,,442012.0,4481196.0,-368414301,40.47942813,
70,,ENVASES,E0800CT,,,2,CHAMARTIN,CASTILLA,,,,441877.0,4480485.0,-368567047,40.47301371,
71,,ENVASES,E0800CT,,,2,CHAMARTIN,CASTILLA,,,,442024.0,4481254.0,-368400675,40.47995145,
72,,ENVASES,E0800CT,,,2,CHAMARTIN,CIUDAD JARDIN,,,,443206.0,4477899.0,-366976203,40.44980975,
73,,ENVASES,E0800CT,,,2,CHAMARTIN,HISPANOAMERICA,,,,443505.0,4478624.0,-366630070,40.45636128,
74,,ENVASES,E0800CT,,,2,CHAMARTIN,CASTILLA,,,,441870.0,4480932.0,-368579401,40.47703998,
75,,ENVASES,E0800CT,,,2,CHAMARTIN,CASTILLA,,,,441961.0,4481152.0,-368474064,40.47902819,
76,,ENVASES,E0800CT,,,2,CHAMARTIN,CASTILLA,,,,441877.0,4480485.0,-368567047,40.47301371,
77,,ENVASES,E0800CT,,,2,CHAMARTIN,CASTILLA,,,,441895.0,4481052.0,-368551009,40.47812274,
78,,ENVASES,E0800CT,,,2,CHAMARTIN,CASTILLA,,,,441738.0,4480020.0,-368726742,40.46881505,
79,,ENVASES,E0800CT,,,2,CHAMARTIN,CASTILLA,,,,441909.0,4480910.0,-368533192,40.47684452,
80,,ENVASES,E0800CT,,,2,CHAMARTIN,CASTILLA,,,,441953.0,4480897.0,-368481168,40.47673049,
81,,ENVASES,E0800CT,,,2,CHAMARTIN,CASTILLA,,,,441812.0,4480629.0,-368645043,40.47430637,
82,,ENVASES,E0800CT,,,2,CHAMARTIN,CASTILLA,,,,441885.0,4480998.0,-368562311,40.47763558,
83,,ENVASES,E0800CT,,,2,CHAMARTIN,CASTILLA,,,,441884.0,4480886.0,-368562464,40.47662657,
84,,ENVASES,E0800CT,,,2,CHAMARTIN,CASTILLA,,,,441999.0,4481146.0,-368429180,40.4789768,
85,,ENVASES,E0800CT,,,2,CHAMARTIN,CASTILLA,,,,441858.0,4480449.0,-368589130,40.47268807,
86,,ENVASES,E0800CT,,,2,CHAMARTIN,CIUDAD JARDIN,,,,443028.0,4477899.0,-367186101,40.44979757,
87,,ENVASES,E0800CT,,,2,CHAMARTIN,CASTILLA,,,,441838.0,4480623.0,-368614317,40.47425414,
88,,ENVASES,E0800CT,,,2,CHAMARTIN,PROSPERIDAD,,,,442687.0,4476765.0,-367577978,40.43955852,
89,,ENVASES,E0800CT,,,2,CHAMARTIN,PROSPERIDAD,,,,442552.0,4476805.0,-367737508,40.43990954,
90,,ENVASES,E0800CT,,,2,CHAMARTIN,PROSPERIDAD,,,,442733.0,4476801.0,-367524068,40.43988599,
91,,ENVASES,E0800CT,,,2,CHAMARTIN,CASTILLA,,,,441790.0,4480165.0,-368666737,40.47012492,
92,,ENVASES,E0800CT,,,2,CHAMARTIN,PROSPERIDAD,,,,443775.0,4477627.0,-366302825,40.44739812,
93,,ENVASES,E0800CT,,,2,CHAMARTIN,HISPANOAMERICA,,,,443618.0,4478619.0,-366496763,40.45632391,
94,,ENVASES,E0800CT,,,2,CHAMARTIN,PROSPERIDAD,,,,442557.0,4476666.0,-367730357,40.4386577,
95,,ENVASES,E0800CT,,,2,CHAMARTIN,PROSPERIDAD,,,,442557.0,4476666.0,-367730357,40.4386577,
96,,ENVASES,E0800CT,,,2,CHAMARTIN,HISPANOAMERICA,,,,443546.0266,4478700.924,-366582371,40.45705704,
97,,ENVASES,E0800CT,,,2,CHAMARTIN,CASTILLA,,,,441838.0,4480382.0,-368612108,40.47208311,
98,,ENVASES,E0800CT,,,2,CHAMARTIN,CASTILLA,,,,441768.0,4480062.0,-368691742,40.46919551,
99,,ENVASES,E0800CT,,,2,CHAMARTIN,CASTILLA,,,,441704.0,4480034.0,-368766975,40.46893879,
100,,ENVASES,E0800CT,,,2,CHAMARTIN,CASTILLA,,,,441774.5,4480001.0,-368683515,40.46864645,
101,,ENVASES,E0800CT,,,1,FUENCARRAL-EL PARDO,VALVERDE,,,,441470.68,4482789.13,-369067618,40.49374168,
102,,ENVASES,E0800CT,,,1,FUENCARRAL-EL PARDO,VALVERDE,,,,441970.83,4481739.83,-368467848,40.48432429,
103,,ENVASES,E0800CT,,,1,FUENCARRAL-EL PARDO,VALVERDE,,,,441650.25,4482939.29,-368857113,40.49510702,
104,,ENVASES,E0800CT,,,1,FUENCARRAL-EL PARDO,VALVERDE,,,,441650.25,4482939.29,-368857113,40.49510702,
105,,ENVASES,E0800CT,,,1,FUENCARRAL-EL PARDO,VALVERDE,,,,441354.73,4482580.02,-369202500,40.49184975,
106,,ENVASES,E0800CT,,,1,FUENCARRAL-EL PARDO,VALVERDE,,,,441354.73,4482580.02,-369202500,40.49184975,
107,,ENVASES,E0800CT,,,1,FUENCARRAL-EL PARDO,VALVERDE,,,,440938.43,4482525.8,-369693202,40.4913318,
108,,ENVASES,E0800CT,,,1,FUENCARRAL-EL PARDO,VALVERDE,,,,441435.19,4482979.73,-369111257,40.49545617,
109,,ENVASES,E0800CT,,,1,FUENCARRAL-EL PARDO,VALVERDE,,,,441435.19,4482979.73,-369111257,40.49545617,
110,,ENVASES,E0800CT,,,1,FUENCARRAL-EL PARDO,VALVERDE,,,,441435.19,4482979.73,-369111257,40.49545617,
111,,ENVASES,E0800CT,,,1,FUENCARRAL-EL PARDO,VALVERDE,,,,441267.64,4483178.13,-369310805,40.49723159,
112,,ENVASES,E0800CT,,,1,FUENCARRAL-EL PARDO,VALVERDE,,,,441267.64,4483178.13,-369310805,40.49723159,
113,,ENVASES,E0800CT,,,1,FUENCARRAL-EL PARDO,VALVERDE,,,,441184.0766,4482741.61,-369405360,40.49329334,
114,,ENVASES,E0800CT,,,1,FUENCARRAL-EL PARDO,VALVERDE,,,,441840.08,4483127.92,-368634846,40.4968196,
115,,ENVASES,E0800CT,,,1,FUENCARRAL-EL PARDO,VALVERDE,,,,441854.68,4482669.07,-368613407,40.49268712,
116,,ENVASES,E0800CT,,,1,FUENCARRAL-EL PARDO,VALVERDE,,,,441854.68,4482669.07,-368613407,40.49268712,
117,,ENVASES,E0800CT,,,1,FUENCARRAL-EL PARDO,VALVERDE,,,,441920.3,4482914.75,-368538231,40.4949049,
118,,ENVASES,E0800CT,,,1,FUENCARRAL-EL PARDO,VALVERDE,,,,441509.01,4483223.33,-369026398,40.49765582,
119,,ENVASES,E0800CT,,,1,FUENCARRAL-EL PARDO,VALVERDE,,,,441509.01,4483223.33,-369026398,40.49765582,
120,,ENVASES,E0800CT,,,1,FUENCARRAL-EL PARDO,VALVERDE,,,,441905.93,4481765.29,-368544651,40.48454911,
121,,ENVASES,E0800CT,,,1,FUENCARRAL-EL PARDO,VALVERDE,,,,441397.21,4482904.61,-369155378,40.49477678,
122,,ENVASES,E0800CT,,,1,FUENCARRAL-EL PARDO,VALVERDE,,,,441946.83,4482500.45,-368503130,40.49117458,
123,,ENVASES,E0800CT,,,1,FUENCARRAL-EL PARDO,VALVERDE,,,,441946.83,4482500.45,-368503130,40.49117458,
124,,ENVASES,E0800CT,,,1,FUENCARRAL-EL PARDO,VALVERDE,,,,441946.83,4482500.45,-368503130,40.49117458,
125,,ENVASES,E0800CT,,,1,FUENCARRAL-EL PARDO,VALVERDE,,,,441823.69,4482536.4,-368648756,40.49148981,
126,,ENVASES,E0800CT,,,1,FUENCARRAL-EL PARDO,VALVERDE,,,,441823.69,4482536.4,-368648756,40.49148981,
127,,ENVASES,E0800CT,,,1,FUENCARRAL-EL PARDO,VALVERDE,,,,441823.69,4482536.4,-368648756,40.49148981,
128,,ENVASES,E0800CT,,,1,FUENCARRAL-EL PARDO,VALVERDE,,,,441823.69,4482536.4,-368648756,40.49148981,
129,,ENVASES,E0800CT,,,1,FUENCARRAL-EL PARDO,VALVERDE,,,,441823.69,4482536.4,-368648756,40.49148981,
130,,ENVASES,E0800CT,,,1,FUENCARRAL-EL PARDO,VALVERDE,,,,441823.69,4482536.4,-368648756,40.49148981,
131,,ENVASES,E0800CT,,,1,FUENCARRAL-EL PARDO,VALVERDE,,,,440950.72,4483019.89,-369683305,40.49578362,
132,,ENVASES,E0800CT,,,1,FUENCARRAL-EL PARDO,VALVERDE,,,,440950.72,4483019.89,-369683305,40.49578362,
133,,ENVASES,E0800CT,,,1,FUENCARRAL-EL PARDO,VALVERDE,,,,441834.67,4483186.36,-368641767,40.49734567,
134,,ENVASES,E0800CT,,,1,FUENCARRAL-EL PARDO,VALVERDE,,,,441642.83,4481875.6,-368856074,40.48552437,
135,,ENVASES,E0800CT,,,1,FUENCARRAL-EL PARDO,VALVERDE,,,,441642.83,4481875.6,-368856074,40.48552437,
136,,ENVASES,E0800CT,,,1,FUENCARRAL-EL PARDO,VALVERDE,,,,441642.83,4481875.6,-368856074,40.48552437,
137,,ENVASES,E0800CT,,,1,FUENCARRAL-EL PARDO,VALVERDE,,,,441891.2,4482722.53,-368570806,40.49317127,
138,,ENVASES,E0800CT,,,1,FUENCARRAL-EL PARDO,VALVERDE,,,,441891.2,4482722.53,-368570806,40.49317127,
139,,ENVASES,E0800CT,,,1,FUENCARRAL-EL PARDO,VALVERDE,,,,441599.28,4482650.35,-368914594,40.49250056,
140,,ENVASES,E0800CT,,,1,FUENCARRAL-EL PARDO,VALVERDE,,,,441599.28,4482650.35,-368914594,40.49250056,
141,,ENVASES,E0800CT,,,1,FUENCARRAL-EL PARDO,VALVERDE,,,,441599.28,4482650.35,-368914594,40.49250056,
142,,ENVASES,E0800CT,,,1,FUENCARRAL-EL PARDO,VALVERDE,,,,441293.09,4482459.78,-369274117,40.49076223,
143,,ENVASES,E0800CT,,,1,FUENCARRAL-EL PARDO,VALVERDE,,,,441293.09,4482459.78,-369274117,40.49076223,
144,,ENVASES,E0800CT,,,1,FUENCARRAL-EL PARDO,VALVERDE,,,,441524.8985,4483377.726,-369009074,40.4990478,
145,,ENVASES,E0800CT,,,1,FUENCARRAL-EL PARDO,VALVERDE,,,,441524.8723,4483378.01,-369009108,40.49905035,
146,,ENVASES,E0800CT,,,1,FUENCARRAL-EL PARDO,VALVERDE,,,,441696.18,4482997.4,-368803451,40.49563373,
147,,ENVASES,E0800CT,,,1,FUENCARRAL-EL PARDO,VALVERDE,,,,441746.04,4482648.27,-368741406,40.49249213,
148,,ENVASES,E0800CT,,,1,FUENCARRAL-EL PARDO,VALVERDE,,,,442008.75,4482169.26,-368427038,40.48819542,
149,,ENVASES,E0800CT,,,1,FUENCARRAL-EL PARDO,VALVERDE,,,,441905.51,4482540.61,-368552252,40.49153347,
150,,ENVASES,E0800CT,,,1,FUENCARRAL-EL PARDO,VALVERDE,,,,441905.51,4482540.61,-368552252,40.49153347,
151,,ENVASES,E0800CT,,,1,FUENCARRAL-EL PARDO,VALVERDE,,,,441390.3,4483057.6,-369164947,40.49615449,
152,,ENVASES,E0800CT,,,1,FUENCARRAL-EL PARDO,VALVERDE,,,,441905.51,4482540.61,-368552252,40.49153347,
153,,ENVASES,E0800CT,,,1,FUENCARRAL-EL PARDO,VALVERDE,,,,441852.02,4482612.15,-368616024,40.49217418,
154,,ENVASES,E0800CT,,,1,FUENCARRAL-EL PARDO,VALVERDE,,,,441852.02,4482612.15,-368616024,40.49217418,
155,,ENVASES,E0800CT,,,1,FUENCARRAL-EL PARDO,VALVERDE,,,,441852.02,4482612.15,-368616024,40.49217418,
156,,ENVASES,E0800CT,,,1,FUENCARRAL-EL PARDO,VALVERDE,,,,441466.02,4483160.64,-369076549,40.49708805,
157,,ENVASES,E0800CT,,,1,FUENCARRAL-EL PARDO,VALVERDE,,,,441466.02,4483160.64,-369076549,40.49708805,
158,,ENVASES,E0800CT,,,1,FUENCARRAL-EL PARDO,VALVERDE,,,,441623.51,4481782.15,-368878008,40.48468118,
159,,ENVASES,E0800CT,,,1,FUENCARRAL-EL PARDO,VALVERDE,,,,441623.51,4481782.15,-368878008,40.48468118,
160,,ENVASES,E0800CT,,,1,FUENCARRAL-EL PARDO,VALVERDE,,,,440952.43,4482753.41,-369678804,40.49338319,
161,,ENVASES,E0800CT,,,1,FUENCARRAL-EL PARDO,VALVERDE,,,,440952.43,4482753.41,-369678804,40.49338319,
162,,ENVASES,E0800CT,,,1,FUENCARRAL-EL PARDO,VALVERDE,,,,440905.26,4482605.01,-369733079,40.49204299,
163,,ENVASES,E0800CT,,,1,FUENCARRAL-EL PARDO,VALVERDE,,,,440905.26,4482605.01,-369733079,40.49204299,
164,,ENVASES,E0800CT,,,1,FUENCARRAL-EL PARDO,VALVERDE,,,,441235.23,4483006.78,-369347460,40.49568571,
165,,ENVASES,E0800CT,,,1,FUENCARRAL-EL PARDO,VALVERDE,,,,441235.23,4483006.78,-369347460,40.49568571,
166,,ENVASES,E0800CT,,,1,FUENCARRAL-EL PARDO,VALVERDE,,,,441680.83,4481932.96,-368811768,40.48604376,
167,,ENVASES,E0800CT,,,1,FUENCARRAL-EL PARDO,VALVERDE,,,,441680.83,4481932.96,-368811768,40.48604376,
168,,ENVASES,E0800CT,,,1,FUENCARRAL-EL PARDO,VALVERDE,,,,441336.1674,4482437.921,-369223087,40.49056836,
169,,ENVASES,E0800CT,,,1,FUENCARRAL-EL PARDO,VALVERDE,,,,442008.19,4482240.5,-368428351,40.48883714,
170,,ENVASES,E0800CT,,,1,FUENCARRAL-EL PARDO,VALVERDE,,,,441290.66,4482582.91,-369278125,40.49187126,
171,,ENVASES,E0800CT,,,1,FUENCARRAL-EL PARDO,VALVERDE,,,,441290.66,4482582.91,-369278125,40.49187126,
172,,ENVASES,E0800CT,,,1,FUENCARRAL-EL PARDO,VALVERDE,,,,441266.74,4482796.61,-369308330,40.49379466,
173,,ENVASES,E0800CT,,,1,FUENCARRAL-EL PARDO,VALVERDE,,,,441266.74,4482796.61,-369308330,40.49379466,
174,,ENVASES,E0800CT,,,1,FUENCARRAL-EL PARDO,VALVERDE,,,,441982.37,4481759.29,-368454411,40.4845004,
175,,ENVASES,E0800CT,,,1,FUENCARRAL-EL PARDO,VALVERDE,,,,441982.37,4481759.29,-368454411,40.4845004,
176,,ENVASES,E0800CT,,,1,FUENCARRAL-EL PARDO,VALVERDE,,,,441843.84,4481880.88,-368618965,40.48558604,
177,,ENVASES,E0800CT,,,1,FUENCARRAL-EL PARDO,VALVERDE,,,,441843.84,4481880.88,-368618965,40.48558604,
178,,ENVASES,E0800CT,,,1,FUENCARRAL-EL PARDO,VALVERDE,,,,441479.39,4483092.21,-369060140,40.49647255,
179,,ENVASES,E0800CT,,,1,FUENCARRAL-EL PARDO,VALVERDE,,,,441845.81,4481668.65,-368614694,40.48367433,
180,,ENVASES,E0800CT,,,1,FUENCARRAL-EL PARDO,VALVERDE,,,,441803.47,4481829.54,-368666124,40.48512072,
181,,ENVASES,E0800CT,,,1,FUENCARRAL-EL PARDO,VALVERDE,,,,441803.47,4481829.54,-368666124,40.48512072,
182,,ENVASES,E0800CT,,,1,FUENCARRAL-EL PARDO,VALVERDE,,,,441803.47,4481829.54,-368666124,40.48512072,
183,,ENVASES,E0800CT,,,1,FUENCARRAL-EL PARDO,VALVERDE,,,,441803.47,4481829.54,-368666124,40.48512072,
184,,ENVASES,E0800CT,,,1,FUENCARRAL-EL PARDO,VALVERDE,,,,441194.24,4482422.19,-369390403,40.49041661,
185,,ENVASES,E0800CT,,,1,FUENCARRAL-EL PARDO,VALVERDE,,,,441485.92,4482863.53,-369050322,40.49441298,
186,,ENVASES,E0800CT,,,1,FUENCARRAL-EL PARDO,VALVERDE,,,,441793.6931,4481930.014,-368678581,40.48602515,
187,,ENVASES,E0800CT,,,1,FUENCARRAL-EL PARDO,VALVERDE,,,,441793.6931,4481930.014,-368678581,40.48602515,
188,,ENVASES,E0800CT,,,1,FUENCARRAL-EL PARDO,VALVERDE,,,,441711.57,4483171.43,-368786892,40.49720254,
189,,ENVASES,E0800CT,,,1,FUENCARRAL-EL PARDO,VALVERDE,,,,441711.57,4483171.43,-368786892,40.49720254,
190,,ENVASES,E0800CT,,,1,FUENCARRAL-EL PARDO,VALVERDE,,,,441711.57,4483171.43,-368786892,40.49720254,
191,,ENVASES,E0800CT,,,1,FUENCARRAL-EL PARDO,VALVERDE,,,,441655.35,4481830.27,-368840885,40.4851169,
192,,ENVASES,E0800CT,,,1,FUENCARRAL-EL PARDO,VALVERDE,,,,441173.01,4482819.06,-369419137,40.49399026,
193,,ENVASES,E0800CT,,,1,FUENCARRAL-EL PARDO,VALVERDE,,,,441386.53,4482588.95,-369165061,40.49193244,
194,,ENVASES,E0800CT,,,1,FUENCARRAL-EL PARDO,VALVERDE,,,,441994.2,4482435.25,-368446640,40.49059054,
195,,ENVASES,E0800CT,,,1,FUENCARRAL-EL PARDO,VALVERDE,,,,441550.38,4482713.96,-368972881,40.49307014,
196,,ENVASES,E0800CT,,,1,FUENCARRAL-EL PARDO,VALVERDE,,,,441550.38,4482713.96,-368972881,40.49307014,
197,,ENVASES,E0800CT,,,1,FUENCARRAL-EL PARDO,VALVERDE,,,,441550.38,4482713.96,-368972881,40.49307014,
198,,ENVASES,E0800CT,,,1,FUENCARRAL-EL PARDO,VALVERDE,,,,441988.65,4482014.22,-368449335,40.48679735,
199,,ENVASES,E0800CT,,,1,FUENCARRAL-EL PARDO,VALVERDE,,,,441830.62,4483215.03,-368646809,40.49760365,
200,,ENVASES,E0800CT,,,1,FUENCARRAL-EL PARDO,VALVERDE,,,,440992.75,4482444.05,-369628347,40.49059923,
201,,ENVASES,E0800CT,,,1,FUENCARRAL-EL PARDO,EL GOLOSO,,,,439949.57,4489342.37,-370924675,40.55266654,
202,,ENVASES,E0800CT,,,1,FUENCARRAL-EL PARDO,VALVERDE,,,,441648.75,4483251.06,-368861755,40.49791546,
203,,ENVASES,E0800CT,,,1,FUENCARRAL-EL PARDO,VALVERDE,,,,441648.75,4483251.06,-368861755,40.49791546,
204,,ENVASES,E0800CT,,,1,FUENCARRAL-EL PARDO,VALVERDE,,,,441696.06,4483280.69,-368806199,40.4981857,
205,,ENVASES,E0800CT,,,1,FUENCARRAL-EL PARDO,VALVERDE,,,,441696.06,4483280.69,-368806199,40.4981857,
206,,ENVASES,E0800CT,,,1,FUENCARRAL-EL PARDO,PEÑAGRANDE,,,,438835.25,4481685.47,-372166681,40.48360952,
207,,ENVASES,E0800CT,,,1,FUENCARRAL-EL PARDO,PEÑAGRANDE,,,,438835.25,4481685.47,-372166681,40.48360952,
208,,ENVASES,E0800CT,,,1,FUENCARRAL-EL PARDO,VALVERDE,,,,441476.51,4481885.72,-369052396,40.48560383,
209,,ENVASES,E0800CT,,,1,FUENCARRAL-EL PARDO,VALVERDE,,,,441577.13,4483228.42,-368946061,40.49770647,
210,,ENVASES,E0800CT,,,1,FUENCARRAL-EL PARDO,VALVERDE,,,,441577.13,4483228.42,-368946061,40.49770647,
211,,ENVASES,E0800CT,,,1,FUENCARRAL-EL PARDO,PEÑAGRANDE,,,,438237.14,4481520.95,-372870719,40.4820832,
212,,ENVASES,E0800CT,,,1,FUENCARRAL-EL PARDO,PEÑAGRANDE,,,,438237.14,4481520.95,-372870719,40.4820832,
213,,ENVASES,E0800CT,,,1,FUENCARRAL-EL PARDO,VALVERDE,,,,441831.5783,4483040.302,-368644074,40.49602971,
214,,ENVASES,E0800CT,,,1,FUENCARRAL-EL PARDO,VALVERDE,,,,441831.9571,4483040.05,-368643625,40.49602746,
215,,ENVASES,E0800CT,,,1,FUENCARRAL-EL PARDO,PEÑAGRANDE,,,,437504.24,4481034.44,-373730566,40.47764572,
216,,ENVASES,E0800CT,,,1,FUENCARRAL-EL PARDO,PEÑAGRANDE,,,,438915.04,4481451.93,-372070296,40.48151159,
217,,ENVASES,E0800CT,,,1,FUENCARRAL-EL PARDO,PEÑAGRANDE,,,,438915.04,4481451.93,-372070296,40.48151159,
218,,ENVASES,E0800CT,,,1,FUENCARRAL-EL PARDO,MIRASIERRA,,,,440459.49,4483625.05,-370268646,40.50120001,
219,,ENVASES,E0800CT,,,1,FUENCARRAL-EL PARDO,VALVERDE,,,,441152.46,4483020.84,-369445260,40.49580651,
220,,ENVASES,E0800CT,,,1,FUENCARRAL-EL PARDO,VALVERDE,,,,441152.46,4483020.84,-369445260,40.49580651,
221,,ENVASES,E0800CT,,,1,FUENCARRAL-EL PARDO,PEÑAGRANDE,,,,438547.86,4480806.49,-372497221,40.47567016,
222,,ENVASES,E0800CT,,,1,FUENCARRAL-EL PARDO,PEÑAGRANDE,,,,439006.08,4481445.92,-371962834,40.48146414,
223,,ENVASES,E0800CT,,,1,FUENCARRAL-EL PARDO,PEÑAGRANDE,,,,439006.08,4481445.92,-371962834,40.48146414,
224,,ENVASES,E0800CT,,,1,FUENCARRAL-EL PARDO,PEÑAGRANDE,,,,439006.08,4481445.92,-371962834,40.48146414,
225,,ENVASES,E0800CT,,,1,FUENCARRAL-EL PARDO,EL PARDO,,,,434140.12,4485880.05,-377749492,40.52103593,
226,,ENVASES,E0800CT,,,1,FUENCARRAL-EL PARDO,PEÑAGRANDE,,,,438009.33,4480865.65,-373133073,40.47616307,
227,,ENVASES,E0800CT,,,1,FUENCARRAL-EL PARDO,EL PARDO,,,,433993.28,4485849.48,-377922506,40.52074888,
228,,ENVASES,E0800CT,,,1,FUENCARRAL-EL PARDO,PEÑAGRANDE,,,,438084.9346,4481186.772,-373047021,40.47906148,
229,,ENVASES,E0800CT,,,1,FUENCARRAL-EL PARDO,PEÑAGRANDE,,,,438340.1,4481808.17,-372752044,40.48467822,
230,,ENVASES,E0800CT,,,1,FUENCARRAL-EL PARDO,PEÑAGRANDE,,,,437920.3133,4480739.651,-373236848,40.47502138,
231,,ENVASES,E0800CT,,,1,FUENCARRAL-EL PARDO,PEÑAGRANDE,,,,438001.16,4480626.01,-373140368,40.4740037,
232,,ENVASES,E0800CT,,,1,FUENCARRAL-EL PARDO,MIRASIERRA,,,,440513.6108,4483693.812,-370205424,40.50182333,
233,,ENVASES,E0800CT,,,1,FUENCARRAL-EL PARDO,VALVERDE,,,,441274.69,4481910.72,-369290741,40.48581479,
234,,ENVASES,E0800CT,,,1,FUENCARRAL-EL PARDO,VALVERDE,,,,441274.69,4481910.72,-369290741,40.48581479,
235,,ENVASES,E0800CT,,,1,FUENCARRAL-EL PARDO,VALVERDE,,,,441282.78,4481982.83,-369281864,40.48646495,
236,,ENVASES,E0800CT,,,1,FUENCARRAL-EL PARDO,VALVERDE,,,,441282.78,4481982.83,-369281864,40.48646495,
237,,ENVASES,E0800CT,,,1,FUENCARRAL-EL PARDO,PEÑAGRANDE,,,,438778.54,4481459.38,-372231403,40.48156865,
238,,ENVASES,E0800CT,,,1,FUENCARRAL-EL PARDO,PEÑAGRANDE,,,,437649.08,4480804.2,-373557438,40.47558254,
239,,ENVASES,E0800CT,,,1,FUENCARRAL-EL PARDO,EL PARDO,,,,434204.81,4485797.77,-377672274,40.52029988,
240,,ENVASES,E0800CT,,,1,FUENCARRAL-EL PARDO,VALVERDE,,,,441620.13,4481732.76,-368881541,40.48423602,
241,,ENVASES,E0800CT,,,1,FUENCARRAL-EL PARDO,VALVERDE,,,,441561.53,4482576.46,-368958456,40.49183227,
242,,ENVASES,E0800CT,,,1,FUENCARRAL-EL PARDO,VALVERDE,,,,441863.95,4483233.99,-368607652,40.49777679,
243,,ENVASES,E0800CT,,,1,FUENCARRAL-EL PARDO,VALVERDE,,,,441303.28,4482740.0,-369264690,40.49328728,
244,,ENVASES,E0800CT,,,1,FUENCARRAL-EL PARDO,MIRASIERRA,,,,440459.49,4483625.05,-370268646,40.50120001,
245,,ENVASES,E0800CT,,,1,FUENCARRAL-EL PARDO,PEÑAGRANDE,,,,438657.27,4481401.54,-372373912,40.48103866,
246,,ENVASES,E0800CT,,,1,FUENCARRAL-EL PARDO,PEÑAGRANDE,,,,438657.27,4481401.54,-372373912,40.48103866,
247,,ENVASES,E0800CT,,,1,FUENCARRAL-EL PARDO,EL PARDO,,,,433720.42,4487244.94,-378259217,40.53329761,
248,,ENVASES,E0800CT,,,1,FUENCARRAL-EL PARDO,VALVERDE,,,,441508.5,4483275.72,-369027483,40.49812773,
249,,ENVASES,E0800CT,,,1,FUENCARRAL-EL PARDO,PEÑAGRANDE,,,,438192.08,4480803.91,-372916889,40.47562051,
250,,ENVASES,E0800CT,,,1,FUENCARRAL-EL PARDO,VALVERDE,,,,441390.3,4483057.6,-369164947,40.49615449,
251,,ENVASES,E0800CT,,,1,FUENCARRAL-EL PARDO,VALVERDE,,,,441390.3,4483057.6,-369164947,40.49615449,
252,,ENVASES,E0800CT,,,1,FUENCARRAL-EL PARDO,VALVERDE,,,,441697.58,4482663.85,-368798730,40.49262908,
253,,ENVASES,E0800CT,,,1,FUENCARRAL-EL PARDO,PEÑAGRANDE,,,,438548.87,4481405.3,-372501832,40.48106451,
254,,ENVASES,E0800CT,,,1,FUENCARRAL-EL PARDO,PEÑAGRANDE,,,,438032.03,4481367.14,-373111195,40.48068234,
255,,ENVASES,E0800CT,,,1,FUENCARRAL-EL PARDO,PEÑAGRANDE,,,,438334.62,4481479.78,-372755316,40.48171957,
256,,ENVASES,E0800CT,,,1,FUENCARRAL-EL PARDO,PEÑAGRANDE,,,,438702.28,4481783.61,-372324506,40.48448379,
257,,ENVASES,E0800CT,,,1,FUENCARRAL-EL PARDO,PEÑAGRANDE,,,,438702.28,4481783.61,-372324506,40.48448379,
258,,ENVASES,E0800CT,,,1,FUENCARRAL-EL PARDO,PEÑAGRANDE,,,,438048.99,4481102.43,-373088601,40.47829902,
259,,ENVASES,E0800CT,,,1,FUENCARRAL-EL PARDO,PEÑAGRANDE,,,,437504.24,4481034.44,-373730566,40.47764572,
260,,ENVASES,E0800CT,,,1,FUENCARRAL-EL PARDO,MIRASIERRA,,,,438259.32,4482092.76,-372850121,40.48723589,
261,,ENVASES,E0800CT,,,1,FUENCARRAL-EL PARDO,VALVERDE,,,,441159.26,4482550.69,-369432870,40.4915717,
262,,ENVASES,E0800CT,,,1,FUENCARRAL-EL PARDO,VALVERDE,,,,441775.63,4482499.32,-368705123,40.49115241,
263,,ENVASES,E0800CT,,,1,FUENCARRAL-EL PARDO,PEÑAGRANDE,,,,437920.3133,4480739.651,-373236848,40.47502138,
264,,ENVASES,E0800CT,,,1,FUENCARRAL-EL PARDO,VALVERDE,,,,441994.2,4482435.25,-368446640,40.49059054,
265,,ENVASES,E0800CT,,,1,FUENCARRAL-EL PARDO,VALVERDE,,,,441982.37,4481759.29,-368454411,40.4845004,
266,,ENVASES,E0800CT,,,1,FUENCARRAL-EL PARDO,VALVERDE,,,,441397.21,4482904.61,-369155378,40.49477678,
267,,ENVASES,E0800CT,,,1,FUENCARRAL-EL PARDO,PEÑAGRANDE,,,,438799.92,4480569.42,-372197592,40.47355316,
268,,ENVASES,E0800CT,,,2,HORTALEZA,PINAR DEL REY,,,,443944.0,4479653.0,-366121436,40.46566074,
269,,ENVASES,E0800CT,,,1,FUENCARRAL-EL PARDO,PEÑAGRANDE,,,,437602.82,4481016.03,-373614092,40.47748729,
270,,ENVASES,E0800CT,,,1,FUENCARRAL-EL PARDO,PEÑAGRANDE,,,,437556.5846,4480736.758,-373665885,40.47496805,
271,,ENVASES,E0800CT,,,1,FUENCARRAL-EL PARDO,EL PARDO,,,,434428.79,4485246.81,-377402177,40.51535448,
272,,ENVASES,E0800CT,,,1,FUENCARRAL-EL PARDO,PEÑAGRANDE,,,,438141.3641,4481103.301,-372979636,40.47831375,
273,,ENVASES,E0800CT,,,1,FUENCARRAL-EL PARDO,PEÑAGRANDE,,,,438099.03,4481105.54,-373029599,40.47833076,
274,,ENVASES,E0800CT,,,1,FUENCARRAL-EL PARDO,VALVERDE,,,,442003.03,4481960.69,-368431879,40.48631614,
275,,ENVASES,E0800CT,,,1,FUENCARRAL-EL PARDO,EL PARDO,,,,434095.07,4485746.17,-377801275,40.51982634,
276,,ENVASES,E0800CT,,,1,FUENCARRAL-EL PARDO,PEÑAGRANDE,,,,438560.3314,4480737.537,-372481841,40.47504992,
277,,ENVASES,E0800CT,,,1,FUENCARRAL-EL PARDO,EL GOLOSO,,,,440918.4048,4488862.494,-369775992,40.54841336,
278,,ENVASES,E0800CT,,,1,FUENCARRAL-EL PARDO,EL GOLOSO,,,,440918.3433,4488862.632,-369776066,40.5484146,
279,,ENVASES,E0800CT,,,1,FUENCARRAL-EL PARDO,EL GOLOSO,,,,440801.4549,4488810.772,-369913617,40.54793908,
280,,ENVASES,E0800CT,,,1,FUENCARRAL-EL PARDO,EL GOLOSO,,,,440801.3367,4488810.473,-369913754,40.54793638,
281,,ENVASES,E0800CT,,,1,FUENCARRAL-EL PARDO,VALVERDE,,,,441567.42,4482772.07,-368953310,40.49359481,
282,,ENVASES,E0800CT,,,1,FUENCARRAL-EL PARDO,EL GOLOSO,,,,440801.1914,4488810.599,-369913927,40.54793751,
283,,ENVASES,E0800CT,,,1,FUENCARRAL-EL PARDO,EL GOLOSO,,,,440650.3127,4488741.457,-370091453,40.54730386,
284,,ENVASES,E0800CT,,,1,FUENCARRAL-EL PARDO,EL GOLOSO,,,,440801.2217,4488810.708,-369913892,40.54793849,
285,,ENVASES,E0800CT,,,1,FUENCARRAL-EL PARDO,EL GOLOSO,,,,440650.3127,4488741.457,-370091453,40.54730386,
286,,ENVASES,E0800CT,,,1,FUENCARRAL-EL PARDO,EL GOLOSO,,,,440650.3127,4488741.457,-370091453,40.54730386,
287,,ENVASES,E0800CT,,,1,FUENCARRAL-EL PARDO,EL GOLOSO,,,,440711.6596,4488579.654,-370017490,40.54585068,
288,,ENVASES,E0800CT,,,1,FUENCARRAL-EL PARDO,EL GOLOSO,,,,440711.8154,4488579.691,-370017306,40.54585103,
289,,ENVASES,E0800CT,,,1,FUENCARRAL-EL PARDO,EL GOLOSO,,,,441148.9824,4488924.111,-369504271,40.54898484,
290,,ENVASES,E0800CT,,,1,FUENCARRAL-EL PARDO,EL GOLOSO,,,,441149.2969,4488923.929,-369503897,40.54898321,
291,,ENVASES,E0800CT,,,1,FUENCARRAL-EL PARDO,EL GOLOSO,,,,441550.5131,4489073.418,-369031468,40.55035826,
292,,ENVASES,E0800CT,,,1,FUENCARRAL-EL PARDO,EL GOLOSO,,,,441550.1408,4489073.534,-369031909,40.55035928,
293,,ENVASES,E0800CT,,,1,FUENCARRAL-EL PARDO,EL GOLOSO,,,,441550.9173,4489073.358,-369030991,40.55035775,
294,,ENVASES,E0800CT,,,1,FUENCARRAL-EL PARDO,EL GOLOSO,,,,441550.1149,4489073.549,-369031940,40.55035941,
295,,ENVASES,E0800CT,,,2,HORTALEZA,VALDEFUENTES,,,,443225.8166,4482452.026,-366993582,40.49082682,
296,,ENVASES,E0800CT,,,1,FUENCARRAL-EL PARDO,EL GOLOSO,,,,441688.3317,4489072.299,-368868699,40.55035789,
297,,ENVASES,E0800CT,,,1,FUENCARRAL-EL PARDO,EL GOLOSO,,,,441687.4449,4489072.243,-368869746,40.55035733,
298,,ENVASES,E0800CT,,,1,FUENCARRAL-EL PARDO,EL GOLOSO,,,,441688.3177,4489072.317,-368868716,40.55035806,
299,,ENVASES,E0800CT,,,1,FUENCARRAL-EL PARDO,EL GOLOSO,,,,441786.9599,4488931.796,-368750929,40.54909914,
300,,ENVASES,E0800CT,,,1,FUENCARRAL-EL PARDO,EL GOLOSO,,,,441720.3165,4488936.084,-368829670,40.54913308,
301,,ENVASES,E0800CT,,,2,CIUDAD LINEAL,VENTAS,,,,444330.0,4475075.0,-365626031,40.42444571,
302,,ENVASES,E0800CT,,,2,CIUDAD LINEAL,VENTAS,,,,444188.572,4475094.745,-365792915,40.4246141,
303,,ENVASES,E0800CT,,,2,CIUDAD LINEAL,VENTAS,,,,444719.3572,4474974.198,-365166193,40.42356359,
304,,ENVASES,E0800CT,,,2,CIUDAD LINEAL,SAN JUAN BAUTISTA,,,,444105.0,4477891.0,-365916024,40.44979862,
305,,ENVASES,E0800CT,,,2,CIUDAD LINEAL,VENTAS,,,,444374.0,4475058.0,-365574016,40.4242955,
306,,ENVASES,E0800CT,,,2,CIUDAD LINEAL,VENTAS,,,,444341.0,4475027.0,-365612644,40.42401403,
307,,ENVASES,E0800CT,,,2,CIUDAD LINEAL,VENTAS,,,,444330.0,4475017.0,-365625523,40.42392321,
308,,ENVASES,E0800CT,,,2,CIUDAD LINEAL,VENTAS,,,,444332.0,4475127.0,-365624129,40.42491428,
309,,ENVASES,E0800CT,,,2,CIUDAD LINEAL,VENTAS,,,,444758.388,4475009.707,-365120494,40.42388607,
310,,ENVASES,E0800CT,,,2,CIUDAD LINEAL,VENTAS,,,,444758.388,4475009.707,-365120494,40.42388607,
311,,ENVASES,E0800CT,,,2,CIUDAD LINEAL,CONCEPCION,,,,445237.0,4476896.0,-364572578,40.44091048,
312,,ENVASES,E0800CT,,,2,CIUDAD LINEAL,SAN JUAN BAUTISTA,,,,444178.0,4477729.0,-365828517,40.44834415,
313,,ENVASES,E0800CT,,,2,CIUDAD LINEAL,SAN JUAN BAUTISTA,,,,444086.0,4478255.0,-365941634,40.45307644,
314,,ENVASES,E0800CT,,,2,CIUDAD LINEAL,VENTAS,,,,444183.0,4475142.0,-365799898,40.42503943,
315,,ENVASES,E0800CT,,,2,CIUDAD LINEAL,VENTAS,,,,444609.0,4475322.0,-365299307,40.42668944,
316,,ENVASES,E0800CT,,,2,CIUDAD LINEAL,CONCEPCION,,,,445200.0,4476752.0,-364614961,40.43961081,
317,,ENVASES,E0800CT,,,2,CIUDAD LINEAL,CONCEPCION,,,,445200.0,4476752.0,-364614961,40.43961081,
318,,ENVASES,E0800CT,,,2,CIUDAD LINEAL,SAN JUAN BAUTISTA,,,,444128.0497,4477950.941,-365889371,40.45034015,
319,,ENVASES,E0800CT,,,2,CIUDAD LINEAL,SAN JUAN BAUTISTA,,,,444128.0,4477951.0,-365889430,40.45034068,
320,,ENVASES,E0800CT,,,2,CIUDAD LINEAL,VENTAS,,,,444480.0,4475648.0,-365454220,40.42961763,
321,,ENVASES,E0800CT,,,2,CIUDAD LINEAL,VENTAS,,,,444553.0,4475635.0,-365368050,40.42950539,
322,,ENVASES,E0800CT,,,2,CIUDAD LINEAL,VENTAS,,,,444553.0,4475635.0,-365368050,40.42950539,
323,,ENVASES,E0800CT,,,2,CIUDAD LINEAL,SAN JUAN BAUTISTA,,,,444086.0,4478255.0,-365941634,40.45307644,
324,,ENVASES,E0800CT,,,2,CIUDAD LINEAL,VENTAS,,,,444656.0,4475518.0,-365245609,40.42845824,
325,,ENVASES,E0800CT,,,2,CIUDAD LINEAL,CONCEPCION,,,,445260.0,4476842.0,-364544994,40.44042553,
326,,ENVASES,E0800CT,,,2,CIUDAD LINEAL,VENTAS,,,,444257.0,4475045.0,-365711818,40.42417056,
327,,ENVASES,E0800CT,,,2,CIUDAD LINEAL,VENTAS,,,,444413.0,4475044.0,-365527922,40.42417199,
328,,ENVASES,E0800CT,,,2,CIUDAD LINEAL,VENTAS,,,,444369.0,4475686.0,-365585405,40.42995254,
329,,ENVASES,E0800CT,,,2,CIUDAD LINEAL,VENTAS,,,,444686.4131,4475435.262,-365209037,40.42771491,
330,,ENVASES,E0800CT,,,2,CIUDAD LINEAL,VENTAS,,,,444510.0,4475138.0,-365414403,40.42502527,
331,,ENVASES,E0800CT,,,2,CIUDAD LINEAL,VENTAS,,,,444473.0,4475172.0,-365458314,40.42532909,
332,,ENVASES,E0800CT,,,2,CIUDAD LINEAL,SAN JUAN BAUTISTA,,,,444086.0,4478255.0,-365941634,40.45307644,
333,,ENVASES,E0800CT,,,2,CIUDAD LINEAL,VENTAS,,,,444369.0,4475686.0,-365585405,40.42995254,
334,,ENVASES,E0800CT,,,2,CIUDAD LINEAL,VENTAS,,,,444207.0,4474934.0,-365769782,40.42316726,
335,,ENVASES,E0800CT,,,2,CIUDAD LINEAL,VENTAS,,,,444207.0,4474934.0,-365769782,40.42316726,
336,,ENVASES,E0800CT,,,2,CIUDAD LINEAL,VENTAS,,,,444207.0,4474934.0,-365769782,40.42316726,
337,,ENVASES,E0800CT,,,2,CIUDAD LINEAL,VENTAS,,,,444480.0,4475648.0,-365454220,40.42961763,
338,,ENVASES,E0800CT,,,2,CIUDAD LINEAL,VENTAS,,,,444305.0,4475063.0,-365655395,40.42433593,
339,,ENVASES,E0800CT,,,2,CIUDAD LINEAL,VENTAS,,,,444305.0,4475063.0,-365655395,40.42433593,
340,,ENVASES,E0800CT,,,2,CIUDAD LINEAL,VENTAS,,,,444257.0,4475045.0,-365711818,40.42417056,
341,,ENVASES,E0800CT,,,2,CIUDAD LINEAL,VENTAS,,,,444130.0,4475150.0,-365862443,40.42510794,
342,,ENVASES,E0800CT,,,2,CIUDAD LINEAL,VENTAS,,,,444130.0,4475150.0,-365862443,40.42510794,
343,,ENVASES,E0800CT,,,2,CIUDAD LINEAL,VENTAS,,,,444130.0,4475150.0,-365862443,40.42510794,
344,,ENVASES,E0800CT,,,2,CIUDAD LINEAL,VENTAS,,,,444423.0,4475094.0,-365516572,40.42462309,
345,,ENVASES,E0800CT,,,2,CIUDAD LINEAL,VENTAS,,,,444445.0,4475069.0,-365490420,40.42439934,
346,,ENVASES,E0800CT,,,2,CIUDAD LINEAL,VENTAS,,,,444322.1173,4474960.795,-365634323,40.42341636,
347,,ENVASES,E0800CT,,,2,CIUDAD LINEAL,CONCEPCION,,,,445237.0,4476896.0,-364572578,40.44091048,
348,,ENVASES,E0800CT,,,2,CIUDAD LINEAL,CONCEPCION,,,,445141.0,4476845.0,-364685327,40.44044471,
349,,ENVASES,E0800CT,,,2,CIUDAD LINEAL,CONCEPCION,,,,445170.0,4476795.0,-364650703,40.4399962,
350,,ENVASES,E0800CT,,,2,CIUDAD LINEAL,SAN JUAN BAUTISTA,,,,444178.0,4477729.0,-365828517,40.44834415,
351,,ENVASES,E0800CT,,,2,CIUDAD LINEAL,SAN JUAN BAUTISTA,,,,444056.5607,4478281.327,-365976583,40.45331162,
352,,ENVASES,E0800CT,,,1,FUENCARRAL-EL PARDO,VALVERDE,,,,441696.18,4482997.4,-368803451,40.49563373,
353,,ENVASES,E0800CT,,,1,FUENCARRAL-EL PARDO,VALVERDE,,,,441525.3,4482986.21,-369004987,40.4955209,
354,,ENVASES,E0800CT,,,1,FUENCARRAL-EL PARDO,VALVERDE,,,,441303.28,4482740.0,-369264690,40.49328728,
355,,ENVASES,E0800CT,,,1,FUENCARRAL-EL PARDO,VALVERDE,,,,441303.28,4482740.0,-369264690,40.49328728,
356,,ENVASES,E0800CT,,,1,FUENCARRAL-EL PARDO,VALVERDE,,,,441588.77,4482059.46,-368921550,40.48717685,
357,,ENVASES,E0800CT,,,1,FUENCARRAL-EL PARDO,EL PARDO,,,,434269.32,4485571.52,-377593776,40.5182669,
358,,ENVASES,E0800CT,,,1,FUENCARRAL-EL PARDO,EL PARDO,,,,434197.37,4485458.02,-377677524,40.51723876,
359,,ENVASES,E0800CT,,,1,FUENCARRAL-EL PARDO,EL PARDO,,,,434299.26,4485316.16,-377555784,40.51596894,
360,,ENVASES,E0800CT,,,1,FUENCARRAL-EL PARDO,EL PARDO,,,,434376.25,4485364.64,-377465413,40.51641175,
361,,ENVASES,E0800CT,,,1,FUENCARRAL-EL PARDO,EL PARDO,,,,434376.25,4485364.64,-377465413,40.51641175,
362,,ENVASES,E0800CT,,,1,FUENCARRAL-EL PARDO,EL PARDO,,,,434087.21,4485599.38,-377809024,40.51850341,
363,,ENVASES,E0800CT,,,1,FUENCARRAL-EL PARDO,EL PARDO,,,,434121.35,4485478.11,-377767464,40.5174137,
364,,ENVASES,E0800CT,,,1,FUENCARRAL-EL PARDO,EL PARDO,,,,433892.66,4487038.29,-378053703,40.53144983,
365,,ENVASES,E0800CT,,,1,FUENCARRAL-EL PARDO,EL PARDO,,,,434250.35,4485637.77,-377616856,40.51886218,
366,,ENVASES,E0800CT,,,1,FUENCARRAL-EL PARDO,EL PARDO,,,,433981.75,4486958.91,-377947694,40.53074187,
367,,ENVASES,E0800CT,,,1,FUENCARRAL-EL PARDO,EL PARDO,,,,434428.79,4485246.81,-377402177,40.51535448,
368,,ENVASES,E0800CT,,,1,FUENCARRAL-EL PARDO,EL PARDO,,,,433862.13,4487376.05,-378093279,40.53448998,
369,,ENVASES,E0800CT,,,1,FUENCARRAL-EL PARDO,EL PARDO,,,,434219.97,4485548.74,-377651791,40.51805778,
370,,ENVASES,E0800CT,,,1,FUENCARRAL-EL PARDO,EL PARDO,,,,434087.94,4485905.45,-377811351,40.52126059,
371,,ENVASES,E0800CT,,,1,FUENCARRAL-EL PARDO,EL PARDO,,,,434106.27,4485537.42,-377785881,40.51794678,
372,,ENVASES,E0800CT,,,1,FUENCARRAL-EL PARDO,EL PARDO,,,,433830.45,4487012.76,-378126882,40.53121489,
373,,ENVASES,E0800CT,,,1,FUENCARRAL-EL PARDO,EL PARDO,,,,433915.51,4486895.61,-378025235,40.53016637,
374,,ENVASES,E0800CT,,,1,FUENCARRAL-EL PARDO,EL PARDO,,,,434238.67,4485497.09,-377629181,40.51759399,
375,,ENVASES,E0800CT,,,1,FUENCARRAL-EL PARDO,EL PARDO,,,,434065.76,4485973.17,-377838238,40.52186886,
376,,ENVASES,E0800CT,,,1,FUENCARRAL-EL PARDO,EL PARDO,,,,434457.13,4485273.36,-377369001,40.51559588,
377,,ENVASES,E0800CT,,,1,FUENCARRAL-EL PARDO,EL PARDO,,,,434031.66,4485743.48,-377876097,40.51979707,
378,,ENVASES,E0800CT,,,1,FUENCARRAL-EL PARDO,EL PARDO,,,,434069.02,4485643.99,-377830960,40.51890382,
379,,ENVASES,E0800CT,,,1,FUENCARRAL-EL PARDO,EL PARDO,,,,434175.37,4485630.53,-377705286,40.51879101,
380,,ENVASES,E0800CT,,,1,FUENCARRAL-EL PARDO,EL PARDO,,,,434175.37,4485630.53,-377705286,40.51879101,
381,,ENVASES,E0800CT,,,1,FUENCARRAL-EL PARDO,EL PARDO,,,,434204.81,4485797.77,-377672274,40.52029988,
382,,ENVASES,E0800CT,,,1,FUENCARRAL-EL PARDO,EL PARDO,,,,433815.33,4487002.95,-378144630,40.53112531,
383,,ENVASES,E0800CT,,,1,FUENCARRAL-EL PARDO,EL PARDO,,,,433817.18,4487141.04,-378143891,40.53236939,
384,,ENVASES,E0800CT,,,1,FUENCARRAL-EL PARDO,EL PARDO,,,,433689.77,4487377.75,-378296796,40.53449152,
385,,ENVASES,E0800CT,,,1,FUENCARRAL-EL PARDO,EL PARDO,,,,434179.08,4485510.34,-377699657,40.51770862,
386,,ENVASES,E0800CT,,,1,FUENCARRAL-EL PARDO,EL PARDO,,,,434095.07,4485746.17,-377801275,40.51982634,
387,,ENVASES,E0800CT,,,1,FUENCARRAL-EL PARDO,EL PARDO,,,,434095.07,4485746.17,-377801275,40.51982634,
388,,ENVASES,E0800CT,,,1,FUENCARRAL-EL PARDO,EL PARDO,,,,433778.52,4487305.42,-378191255,40.53384706,
389,,ENVASES,E0800CT,,,1,FUENCARRAL-EL PARDO,EL PARDO,,,,433918.79,4487262.32,-378025195,40.53347001,
390,,ENVASES,E0800CT,,,1,FUENCARRAL-EL PARDO,EL PARDO,,,,433918.79,4487262.32,-378025195,40.53347001,
391,,ENVASES,E0800CT,,,1,FUENCARRAL-EL PARDO,EL PARDO,,,,434133.93,4485424.37,-377752056,40.5169306,
392,,ENVASES,E0800CT,,,1,FUENCARRAL-EL PARDO,EL PARDO,,,,433814.8,4487343.97,-378148824,40.53419722,
393,,ENVASES,E0800CT,,,1,FUENCARRAL-EL PARDO,EL PARDO,,,,434272.12,4485387.88,-377588564,40.51661286,
394,,ENVASES,E0800CT,,,1,FUENCARRAL-EL PARDO,EL PARDO,,,,433939.03,4487057.57,-377999160,40.53162721,
395,,ENVASES,E0800CT,,,1,FUENCARRAL-EL PARDO,EL PARDO,,,,433945.47,4486924.52,-377990167,40.53042919,
396,,ENVASES,E0800CT,,,1,FUENCARRAL-EL PARDO,EL PARDO,,,,433947.38,4487160.44,-377990376,40.53255454,
397,,ENVASES,E0800CT,,,1,FUENCARRAL-EL PARDO,EL PARDO,,,,434445.57,4485419.82,-377384163,40.51691431,
398,,ENVASES,E0800CT,,,1,FUENCARRAL-EL PARDO,EL PARDO,,,,434135.39,4485799.88,-377754240,40.52031337,
399,,ENVASES,E0800CT,,,1,FUENCARRAL-EL PARDO,EL PARDO,,,,434135.39,4485799.88,-377754240,40.52031337,
400,,ENVASES,E0800CT,,,1,FUENCARRAL-EL PARDO,EL PARDO,,,,433941.78,4487184.65,-377997240,40.53277218,
401,,ENVASES,E0800CT,,,1,FUENCARRAL-EL PARDO,EL PARDO,,,,433967.11,4487082.12,-377966264,40.53185059,
402,,ENVASES,E0800CT,,,1,FUENCARRAL-EL PARDO,EL PARDO,,,,434205.93,4485585.02,-377668740,40.51838348,
403,,ENVASES,E0800CT,,,1,FUENCARRAL-EL PARDO,EL PARDO,,,,433720.42,4487244.94,-378259217,40.53329761,
404,,ENVASES,E0800CT,,,1,FUENCARRAL-EL PARDO,EL PARDO,,,,433720.42,4487244.94,-378259217,40.53329761,
405,,ENVASES,E0800CT,,,1,FUENCARRAL-EL PARDO,EL PARDO,,,,434255.95,4485430.39,-377608091,40.51699451,
406,,ENVASES,E0800CT,,,1,FUENCARRAL-EL PARDO,EL PARDO,,,,434255.95,4485430.39,-377608091,40.51699451,
407,,ENVASES,E0800CT,,,1,FUENCARRAL-EL PARDO,EL PARDO,,,,433773.09,4487143.98,-378195975,40.53239236,
408,,ENVASES,E0800CT,,,1,FUENCARRAL-EL PARDO,EL PARDO,,,,434014.2,4485784.74,-377897137,40.52016735,
409,,ENVASES,E0800CT,,,1,FUENCARRAL-EL PARDO,EL PARDO,,,,434306.05,4485445.93,-377549117,40.51713847,
410,,ENVASES,E0800CT,,,1,FUENCARRAL-EL PARDO,EL PARDO,,,,434005.92,4485810.22,-377907176,40.52039622,
411,,ENVASES,E0800CT,,,1,FUENCARRAL-EL PARDO,EL PARDO,,,,433995.08,4486196.83,-377924005,40.523878,
412,,ENVASES,E0800CT,,,1,FUENCARRAL-EL PARDO,EL PARDO,,,,433860.71,4487160.39,-378092700,40.53254718,
413,,ENVASES,E0800CT,,,1,FUENCARRAL-EL PARDO,EL PARDO,,,,433734.62,4487394.75,-378244021,40.53464825,
414,,ENVASES,E0800CT,,,1,FUENCARRAL-EL PARDO,EL PARDO,,,,434042.98,4486042.66,-377865853,40.52249303,
415,,ENVASES,E0800CT,,,1,FUENCARRAL-EL PARDO,EL PARDO,,,,434345.36,4485340.11,-377501619,40.51618834,
416,,ENVASES,E0800CT,,,1,FUENCARRAL-EL PARDO,EL PARDO,,,,434345.36,4485340.11,-377501619,40.51618834,
417,,ENVASES,E0800CT,,,1,FUENCARRAL-EL PARDO,FUENTELAREINA,,,,437337.8651,4481365.478,-373930106,40.48061528,
418,,ENVASES,E0800CT,,,1,FUENCARRAL-EL PARDO,FUENTELAREINA,,,,437416.67,4481318.41,-373836673,40.48019722,
419,,ENVASES,E0800CT,,,1,FUENCARRAL-EL PARDO,FUENTELAREINA,,,,437392.24,4480919.22,-373861552,40.47659935,
420,,ENVASES,E0800CT,,,1,FUENCARRAL-EL PARDO,FUENTELAREINA,,,,437451.99,4481368.19,-373795496,40.48064831,
421,,ENVASES,E0800CT,,,1,FUENCARRAL-EL PARDO,PEÑAGRANDE,,,,438523.57,4481727.76,-372534806,40.48396746,
422,,ENVASES,E0800CT,,,1,FUENCARRAL-EL PARDO,PEÑAGRANDE,,,,438523.57,4481727.76,-372534806,40.48396746,
423,,ENVASES,E0800CT,,,1,FUENCARRAL-EL PARDO,PEÑAGRANDE,,,,438729.03,4481042.74,-372285787,40.47781176,
424,,ENVASES,E0800CT,,,1,FUENCARRAL-EL PARDO,PEÑAGRANDE,,,,439158.88,4481522.79,-371783306,40.48216782,
425,,ENVASES,E0800CT,,,1,FUENCARRAL-EL PARDO,PEÑAGRANDE,,,,438195.75,4481733.39,-372921620,40.48399384,
426,,ENVASES,E0800CT,,,1,FUENCARRAL-EL PARDO,PEÑAGRANDE,,,,438195.75,4481733.39,-372921620,40.48399384,
427,,ENVASES,E0800CT,,,1,FUENCARRAL-EL PARDO,PEÑAGRANDE,,,,438195.75,4481733.39,-372921620,40.48399384,
428,,ENVASES,E0800CT,,,1,FUENCARRAL-EL PARDO,VALVERDE,,,,440902.27,4482568.15,-369736263,40.49171073,
429,,ENVASES,E0800CT,,,1,FUENCARRAL-EL PARDO,PEÑAGRANDE,,,,438918.44,4481520.21,-372066943,40.48212693,
430,,ENVASES,E0800CT,,,1,FUENCARRAL-EL PARDO,PEÑAGRANDE,,,,438656.32,4481106.68,-372372180,40.47838239,
431,,ENVASES,E0800CT,,,1,FUENCARRAL-EL PARDO,PEÑAGRANDE,,,,438533.46,4481311.81,-372519106,40.48022118,
432,,ENVASES,E0800CT,,,1,FUENCARRAL-EL PARDO,PEÑAGRANDE,,,,438897.59,4481744.25,-372093700,40.48414362,
433,,ENVASES,E0800CT,,,1,FUENCARRAL-EL PARDO,PEÑAGRANDE,,,,438897.59,4481744.25,-372093700,40.48414362,
434,,ENVASES,E0800CT,,,1,FUENCARRAL-EL PARDO,PEÑAGRANDE,,,,438897.59,4481744.25,-372093700,40.48414362,
435,,ENVASES,E0800CT,,,1,FUENCARRAL-EL PARDO,PEÑAGRANDE,,,,438323.64,4481725.71,-372770662,40.48393417,
436,,ENVASES,E0800CT,,,1,FUENCARRAL-EL PARDO,PEÑAGRANDE,,,,438323.64,4481725.71,-372770662,40.48393417,
437,,ENVASES,E0800CT,,,1,FUENCARRAL-EL PARDO,PEÑAGRANDE,,,,438323.64,4481725.71,-372770662,40.48393417,
438,,ENVASES,E0800CT,,,1,FUENCARRAL-EL PARDO,PEÑAGRANDE,,,,438452.27,4481325.99,-372615025,40.48034291,
439,,ENVASES,E0800CT,,,1,FUENCARRAL-EL PARDO,PEÑAGRANDE,,,,438890.53,4481407.35,-372098782,40.48110819,
440,,ENVASES,E0800CT,,,1,FUENCARRAL-EL PARDO,PEÑAGRANDE,,,,438890.53,4481407.35,-372098782,40.48110819,
441,,ENVASES,E0800CT,,,1,FUENCARRAL-EL PARDO,PEÑAGRANDE,,,,438158.56,4481457.04,-372962801,40.48150163,
442,,ENVASES,E0800CT,,,1,FUENCARRAL-EL PARDO,PEÑAGRANDE,,,,438268.59,4480665.76,-372825290,40.4743817,
443,,ENVASES,E0800CT,,,1,FUENCARRAL-EL PARDO,PEÑAGRANDE,,,,438268.59,4480665.76,-372825290,40.4743817,
444,,ENVASES,E0800CT,,,1,FUENCARRAL-EL PARDO,PEÑAGRANDE,,,,438268.59,4480665.76,-372825290,40.4743817,
445,,ENVASES,E0800CT,,,1,FUENCARRAL-EL PARDO,PEÑAGRANDE,,,,438627.23,4481474.32,-372410056,40.48169206,
446,,ENVASES,E0800CT,,,1,FUENCARRAL-EL PARDO,PEÑAGRANDE,,,,438627.23,4481474.32,-372410056,40.48169206,
447,,ENVASES,E0800CT,,,1,FUENCARRAL-EL PARDO,PEÑAGRANDE,,,,437776.38,4481133.13,-373410497,40.47855519,
448,,ENVASES,E0800CT,,,1,FUENCARRAL-EL PARDO,PEÑAGRANDE,,,,437776.38,4481133.13,-373410497,40.47855519,
449,,ENVASES,E0800CT,,,1,FUENCARRAL-EL PARDO,PEÑAGRANDE,,,,438387.98,4481720.15,-372694700,40.48388886,
450,,ENVASES,E0800CT,,,1,FUENCARRAL-EL PARDO,PEÑAGRANDE,,,,438387.98,4481720.15,-372694700,40.48388886,
451,,ENVASES,E0800CT,,,1,FUENCARRAL-EL PARDO,PEÑAGRANDE,,,,438200.69,4481061.23,-372909240,40.47793918,
452,,ENVASES,E0800CT,,,1,FUENCARRAL-EL PARDO,PEÑAGRANDE,,,,438250.23,4481298.21,-372853106,40.48007766,
453,,ENVASES,E0800CT,,,1,FUENCARRAL-EL PARDO,PEÑAGRANDE,,,,438440.01,4480771.89,-372624110,40.47535048,
454,,ENVASES,E0800CT,,,1,FUENCARRAL-EL PARDO,PEÑAGRANDE,,,,438696.82,4480650.9,-372319997,40.47427956,
455,,ENVASES,E0800CT,,,1,FUENCARRAL-EL PARDO,PEÑAGRANDE,,,,438696.82,4480650.9,-372319997,40.47427956,
456,,ENVASES,E0800CT,,,1,FUENCARRAL-EL PARDO,PEÑAGRANDE,,,,438456.0,4481181.7,-372609224,40.47904337,
457,,ENVASES,E0800CT,,,1,FUENCARRAL-EL PARDO,PEÑAGRANDE,,,,437784.4132,4480842.473,-373398169,40.47593746,
458,,ENVASES,E0800CT,,,1,FUENCARRAL-EL PARDO,PEÑAGRANDE,,,,437743.08,4480855.76,-373447058,40.47605406,
459,,ENVASES,E0800CT,,,1,FUENCARRAL-EL PARDO,PEÑAGRANDE,,,,438702.28,4481783.61,-372324506,40.48448379,
460,,ENVASES,E0800CT,,,1,FUENCARRAL-EL PARDO,PEÑAGRANDE,,,,438702.28,4481783.61,-372324506,40.48448379,
461,,ENVASES,E0800CT,,,1,FUENCARRAL-EL PARDO,PEÑAGRANDE,,,,438702.28,4481783.61,-372324506,40.48448379,
462,,ENVASES,E0800CT,,,1,FUENCARRAL-EL PARDO,PEÑAGRANDE,,,,438702.28,4481783.61,-372324506,40.48448379,
463,,ENVASES,E0800CT,,,1,FUENCARRAL-EL PARDO,PEÑAGRANDE,,,,439007.91,4481491.85,-371961117,40.48187803,
464,,ENVASES,E0800CT,,,1,FUENCARRAL-EL PARDO,PEÑAGRANDE,,,,438187.04,4481441.3,-372929048,40.48136195,
465,,ENVASES,E0800CT,,,1,FUENCARRAL-EL PARDO,PEÑAGRANDE,,,,438894.34,4481591.71,-372096064,40.48276925,
466,,ENVASES,E0800CT,,,1,FUENCARRAL-EL PARDO,PEÑAGRANDE,,,,438894.34,4481591.71,-372096064,40.48276925,
467,,ENVASES,E0800CT,,,1,FUENCARRAL-EL PARDO,PEÑAGRANDE,,,,438894.34,4481591.71,-372096064,40.48276925,
468,,ENVASES,E0800CT,,,1,FUENCARRAL-EL PARDO,PEÑAGRANDE,,,,438192.08,4480803.91,-372916889,40.47562051,
469,,ENVASES,E0800CT,,,1,FUENCARRAL-EL PARDO,PEÑAGRANDE,,,,438098.53,4480776.18,-373026974,40.47536375,
470,,ENVASES,E0800CT,,,1,FUENCARRAL-EL PARDO,PEÑAGRANDE,,,,439021.25,4480497.96,-371935822,40.4729257,
471,,ENVASES,E0800CT,,,1,FUENCARRAL-EL PARDO,PEÑAGRANDE,,,,439021.25,4480497.96,-371935822,40.4729257,
472,,ENVASES,E0800CT,,,1,FUENCARRAL-EL PARDO,PEÑAGRANDE,,,,438509.12,4481037.1,-372545156,40.4777447,
473,,ENVASES,E0800CT,,,1,FUENCARRAL-EL PARDO,PEÑAGRANDE,,,,438283.26,4480946.77,-372810720,40.47691422,
474,,ENVASES,E0800CT,,,1,FUENCARRAL-EL PARDO,PEÑAGRANDE,,,,437915.59,4480815.06,-373243158,40.47570033,
475,,ENVASES,E0800CT,,,1,FUENCARRAL-EL PARDO,PEÑAGRANDE,,,,438233.84,4481403.92,-372873472,40.48102871,
476,,ENVASES,E0800CT,,,1,FUENCARRAL-EL PARDO,PEÑAGRANDE,,,,438338.6734,4480795.071,-372743876,40.47555179,
477,,ENVASES,E0800CT,,,1,FUENCARRAL-EL PARDO,PEÑAGRANDE,,,,438346.29,4481244.43,-372739259,40.47960033,
478,,ENVASES,E0800CT,,,1,FUENCARRAL-EL PARDO,PEÑAGRANDE,,,,438415.92,4480946.31,-372654221,40.47691993,
479,,ENVASES,E0800CT,,,1,FUENCARRAL-EL PARDO,PEÑAGRANDE,,,,438265.915,4480719.521,-372828969,40.4748658,
480,,ENVASES,E0800CT,,,1,FUENCARRAL-EL PARDO,PEÑAGRANDE,,,,438005.8,4480730.74,-373135918,40.47494749,
481,,ENVASES,E0800CT,,,1,FUENCARRAL-EL PARDO,PEÑAGRANDE,,,,438005.8,4480730.74,-373135918,40.47494749,
482,,ENVASES,E0800CT,,,1,FUENCARRAL-EL PARDO,PEÑAGRANDE,,,,438399.33,4481390.49,-372678106,40.48092002,
483,,ENVASES,E0800CT,,,1,FUENCARRAL-EL PARDO,PEÑAGRANDE,,,,438643.32,4481240.57,-372388812,40.47958755,
484,,ENVASES,E0800CT,,,1,FUENCARRAL-EL PARDO,PEÑAGRANDE,,,,437796.97,4481102.8,-373385910,40.47828351,
485,,ENVASES,E0800CT,,,1,FUENCARRAL-EL PARDO,PEÑAGRANDE,,,,438540.17,4481501.35,-372513027,40.48192912,
486,,ENVASES,E0800CT,,,1,FUENCARRAL-EL PARDO,PEÑAGRANDE,,,,438540.17,4481501.35,-372513027,40.48192912,
487,,ENVASES,E0800CT,,,1,FUENCARRAL-EL PARDO,PEÑAGRANDE,,,,438657.27,4481401.54,-372373912,40.48103866,
488,,ENVASES,E0800CT,,,1,FUENCARRAL-EL PARDO,PEÑAGRANDE,,,,438974.68,4481598.54,-372001347,40.48283669,
489,,ENVASES,E0800CT,,,1,FUENCARRAL-EL PARDO,PEÑAGRANDE,,,,438974.68,4481598.54,-372001347,40.48283669,
490,,ENVASES,E0800CT,,,1,FUENCARRAL-EL PARDO,PEÑAGRANDE,,,,437755.15,4480786.573,-373432140,40.4754317,
491,,ENVASES,E0800CT,,,1,FUENCARRAL-EL PARDO,PEÑAGRANDE,,,,437893.72,4480964.52,-373270420,40.47704508,
492,,ENVASES,E0800CT,,,1,FUENCARRAL-EL PARDO,PEÑAGRANDE,,,,438340.59,4480658.3,-372740285,40.47431985,
493,,ENVASES,E0800CT,,,1,FUENCARRAL-EL PARDO,PEÑAGRANDE,,,,439016.59,4480445.3,-371940812,40.47245098,
494,,ENVASES,E0800CT,,,1,FUENCARRAL-EL PARDO,PEÑAGRANDE,,,,439016.59,4480445.3,-371940812,40.47245098,
495,,ENVASES,E0800CT,,,1,FUENCARRAL-EL PARDO,PEÑAGRANDE,,,,439016.59,4480445.3,-371940812,40.47245098,
496,,ENVASES,E0800CT,,,1,FUENCARRAL-EL PARDO,PEÑAGRANDE,,,,437796.8508,4480777.319,-373382858,40.47535147,
497,,ENVASES,E0800CT,,,1,FUENCARRAL-EL PARDO,PEÑAGRANDE,,,,437877.68,4480748.28,-373287224,40.47509592,
498,,ENVASES,E0800CT,,,1,FUENCARRAL-EL PARDO,PEÑAGRANDE,,,,437964.53,4481033.03,-373187558,40.47766753,
499,,ENVASES,E0800CT,,,1,FUENCARRAL-EL PARDO,PEÑAGRANDE,,,,439158.88,4481522.79,-371783306,40.48216782,
500,,ENVASES,E0800CT,,,1,FUENCARRAL-EL PARDO,PEÑAGRANDE,,,,439158.88,4481522.79,-371783306,40.48216782,
501,,ENVASES,E0800CT,,,1,LATINA,CARMENES,,,,437336.83,4471884.17,-373837824,40.39520408,
502,,ENVASES,E0800CT,,,1,LATINA,CARMENES,,,,438622.72,4472995.15,-372333450,40.40530806,
503,,ENVASES,E0800CT,,,1,LATINA,CARMENES,,,,438624.86,4473064.87,-372331600,40.40593628,
504,,ENVASES,E0800CT,,,1,LATINA,CARMENES,,,,437401.27,4472223.74,-373765237,40.39826792,
505,,ENVASES,E0800CT,,,1,LATINA,CARMENES,,,,437401.27,4472223.74,-373765237,40.39826792,
506,,ENVASES,E0800CT,,,1,LATINA,CARMENES,,,,438624.86,4473064.87,-372331600,40.40593628,
507,,ENVASES,E0800CT,,,1,LATINA,CARMENES,,,,437238.1,4472898.85,-373964155,40.40433732,
508,,ENVASES,E0800CT,,,1,LATINA,CARMENES,,,,437213.33,4472008.55,-373984563,40.39631525,
509,,ENVASES,E0800CT,,,1,LATINA,CARMENES,,,,437213.33,4472008.55,-373984563,40.39631525,
510,,ENVASES,E0800CT,,,1,LATINA,CARMENES,,,,436916.47,4472714.98,-374341339,40.40265664,
511,,ENVASES,E0800CT,,,1,LATINA,CARMENES,,,,436916.47,4472714.98,-374341339,40.40265664,
512,,ENVASES,E0800CT,,,1,LATINA,CARMENES,,,,437361.31,4471938.48,-373809515,40.39569517,
513,,ENVASES,E0800CT,,,1,LATINA,PUERTA DEL ANGEL,,,,437752.9,4473675.83,-373365116,40.41137533,
514,,ENVASES,E0800CT,,,1,LATINA,CARMENES,,,,437289.29,4471808.91,-373893096,40.39452253,
515,,ENVASES,E0800CT,,,1,LATINA,CARMENES,,,,437361.31,4471938.48,-373809515,40.39569517,
516,,ENVASES,E0800CT,,,1,LATINA,CARMENES,,,,436924.93,4471863.65,-374322936,40.39498814,
517,,ENVASES,E0800CT,,,1,LATINA,CARMENES,,,,436924.93,4471863.65,-374322936,40.39498814,
518,,ENVASES,E0800CT,,,1,LATINA,CARMENES,,,,437581.18,4472193.58,-373552955,40.39800973,
519,,ENVASES,E0800CT,,,1,LATINA,PUERTA DEL ANGEL,,,,437470.11,4473167.34,-373693393,40.40677345,
520,,ENVASES,E0800CT,,,1,LATINA,CARMENES,,,,437210.34,4471732.41,-373985363,40.39382744,
521,,ENVASES,E0800CT,,,1,LATINA,PUERTA DEL ANGEL,,,,438383.59,4473894.69,-372623955,40.41339385,
522,,ENVASES,E0800CT,,,1,LATINA,CARMENES,,,,438030.13,4472792.9,-373029797,40.4034422,
523,,ENVASES,E0800CT,,,1,LATINA,PUERTA DEL ANGEL,,,,437470.11,4473167.34,-373693393,40.40677345,
524,,ENVASES,E0800CT,,,1,LATINA,CARMENES,,,,438030.13,4472792.9,-373029797,40.4034422,
525,,ENVASES,E0800CT,,,1,LATINA,PUERTA DEL ANGEL,,,,437465.98,4473270.16,-373699270,40.40769938,
526,,ENVASES,E0800CT,,,1,LATINA,CARMENES,,,,436948.29,4472726.66,-374303959,40.40276426,
527,,ENVASES,E0800CT,,,1,LATINA,PUERTA DEL ANGEL,,,,437510.27,4473349.03,-373647851,40.4084132,
528,,ENVASES,E0800CT,,,1,LATINA,CARMENES,,,,437093.87,4472867.99,-374133809,40.40404844,
529,,ENVASES,E0800CT,,,1,LATINA,PUERTA DEL ANGEL,,,,438618.18,4473482.07,-372343496,40.40969412,
530,,ENVASES,E0800CT,,,1,LATINA,CARMENES,,,,436948.29,4472726.66,-374303959,40.40276426,
531,,ENVASES,E0800CT,,,1,LATINA,PUERTA DEL ANGEL,,,,438618.18,4473482.07,-372343496,40.40969412,
532,,ENVASES,E0800CT,,,1,LATINA,PUERTA DEL ANGEL,,,,437857.11,4473633.72,-373241892,40.41100378,
533,,ENVASES,E0800CT,,,1,LATINA,PUERTA DEL ANGEL,,,,437857.11,4473633.72,-373241892,40.41100378,
534,,ENVASES,E0800CT,,,1,LATINA,PUERTA DEL ANGEL,,,,437975.57,4473281.87,-373098855,40.407843,
535,,ENVASES,E0800CT,,,1,LATINA,PUERTA DEL ANGEL,,,,437992.09,4473948.58,-373085884,40.41385023,
536,,ENVASES,E0800CT,,,1,LATINA,PUERTA DEL ANGEL,,,,437975.57,4473281.87,-373098855,40.407843,
537,,ENVASES,E0800CT,,,1,LATINA,PUERTA DEL ANGEL,,,,437127.64,4472982.87,-374095150,40.40508587,
538,,ENVASES,E0800CT,,,1,LATINA,PUERTA DEL ANGEL,,,,438615.5,4473463.12,-372346472,40.40952321,
539,,ENVASES,E0800CT,,,1,LATINA,PUERTA DEL ANGEL,,,,438068.42,4473606.62,-372992596,40.4107754,
540,,ENVASES,E0800CT,,,1,LATINA,PUERTA DEL ANGEL,,,,438068.42,4473606.62,-372992596,40.4107754,
541,,ENVASES,E0800CT,,,1,LATINA,PUERTA DEL ANGEL,,,,438068.42,4473606.62,-372992596,40.4107754,
542,,ENVASES,E0800CT,,,1,LATINA,PUERTA DEL ANGEL,,,,438615.5,4473463.12,-372346472,40.40952321,
543,,ENVASES,E0800CT,,,1,LATINA,PUERTA DEL ANGEL,,,,438388.3,4473932.17,-372618767,40.41373183,
544,,ENVASES,E0800CT,,,1,LATINA,PUERTA DEL ANGEL,,,,438388.3,4473932.17,-372618767,40.41373183,
545,,ENVASES,E0800CT,,,1,LATINA,PUERTA DEL ANGEL,,,,437555.09,4473157.55,-373593153,40.40669163,
546,,ENVASES,E0800CT,,,1,LATINA,PUERTA DEL ANGEL,,,,437555.09,4473157.55,-373593153,40.40669163,
547,,ENVASES,E0800CT,,,1,LATINA,PUERTA DEL ANGEL,,,,438584.88,4473530.85,-372383211,40.41013109,
548,,ENVASES,E0800CT,,,1,LATINA,PUERTA DEL ANGEL,,,,437777.2405,4473115.033,-373330947,40.40632525,
549,,ENVASES,E0800CT,,,1,LATINA,PUERTA DEL ANGEL,,,,438584.88,4473530.85,-372383211,40.41013109,
550,,ENVASES,E0800CT,,,1,LATINA,PUERTA DEL ANGEL,,,,438584.88,4473530.85,-372383211,40.41013109,
551,,ENVASES,E0800CT,,,1,LATINA,PUERTA DEL ANGEL,,,,437068.76,4473101.5,-374165708,40.40615009,
552,,ENVASES,E0800CT,,,1,LATINA,PUERTA DEL ANGEL,,,,437068.76,4473101.5,-374165708,40.40615009,
553,,ENVASES,E0800CT,,,1,LATINA,PUERTA DEL ANGEL,,,,437068.76,4473101.5,-374165708,40.40615009,
554,,ENVASES,E0800CT,,,1,LATINA,PUERTA DEL ANGEL,,,,438022.0,4473698.3,-373048196,40.41159783,
555,,ENVASES,E0800CT,,,1,LATINA,PUERTA DEL ANGEL,,,,438365.85,4473844.56,-372644377,40.41294094,
556,,ENVASES,E0800CT,,,1,LATINA,PUERTA DEL ANGEL,,,,438365.85,4473844.56,-372644377,40.41294094,
557,,ENVASES,E0800CT,,,1,LATINA,PUERTA DEL ANGEL,,,,437263.97,4472975.07,-373934421,40.40502589,
558,,ENVASES,E0800CT,,,1,LATINA,PUERTA DEL ANGEL,,,,438365.85,4473844.56,-372644377,40.41294094,
559,,ENVASES,E0800CT,,,1,LATINA,PUERTA DEL ANGEL,,,,438306.97,4473795.96,-372713298,40.41249877,
560,,ENVASES,E0800CT,,,1,LATINA,PUERTA DEL ANGEL,,,,437379.81,4473451.97,-373802607,40.40933073,
561,,ENVASES,E0800CT,,,1,LATINA,PUERTA DEL ANGEL,,,,437452.94,4473482.29,-373716722,40.40960936,
562,,ENVASES,E0800CT,,,1,LATINA,PUERTA DEL ANGEL,,,,437901.06,4473546.65,-373189246,40.41022269,
563,,ENVASES,E0800CT,,,1,LATINA,PUERTA DEL ANGEL,,,,437311.06,4472915.49,-373878343,40.40449272,
564,,ENVASES,E0800CT,,,1,LATINA,PUERTA DEL ANGEL,,,,437169.47,4473267.03,-374048663,40.40764886,
565,,ENVASES,E0800CT,,,1,LATINA,PUERTA DEL ANGEL,,,,437327.92,4473306.29,-373862323,40.40801448,
566,,ENVASES,E0800CT,,,1,LATINA,PUERTA DEL ANGEL,,,,437327.92,4473306.29,-373862323,40.40801448,
567,,ENVASES,E0800CT,,,1,LATINA,PUERTA DEL ANGEL,,,,437925.61,4473483.82,-373159701,40.40965852,
568,,ENVASES,E0800CT,,,1,LATINA,PUERTA DEL ANGEL,,,,437689.67,4473024.28,-373433254,40.40550117,
569,,ENVASES,E0800CT,,,1,LATINA,PUERTA DEL ANGEL,,,,437689.67,4473024.28,-373433254,40.40550117,
570,,ENVASES,E0800CT,,,1,LATINA,PUERTA DEL ANGEL,,,,438338.73,4473494.52,-372672947,40.40978562,
571,,ENVASES,E0800CT,,,1,LATINA,PUERTA DEL ANGEL,,,,438338.73,4473494.52,-372672947,40.40978562,
572,,ENVASES,E0800CT,,,1,LATINA,PUERTA DEL ANGEL,,,,437050.39,4472988.1,-374186234,40.40512715,
573,,ENVASES,E0800CT,,,1,LATINA,PUERTA DEL ANGEL,,,,437050.39,4472988.1,-374186234,40.40512715,
574,,ENVASES,E0800CT,,,1,LATINA,PUERTA DEL ANGEL,,,,437642.23,4473210.95,-373490987,40.40717922,
575,,ENVASES,E0800CT,,,1,LATINA,PUERTA DEL ANGEL,,,,437824.25,4473365.13,-373277993,40.40858175,
576,,ENVASES,E0800CT,,,1,LATINA,PUERTA DEL ANGEL,,,,437627.69,4473518.7,-373511138,40.40995047,
577,,ENVASES,E0800CT,,,1,LATINA,PUERTA DEL ANGEL,,,,438315.11,4473828.57,-372704021,40.41279314,
578,,ENVASES,E0800CT,,,1,LATINA,PUERTA DEL ANGEL,,,,438315.11,4473828.57,-372704021,40.41279314,
579,,ENVASES,E0800CT,,,1,LATINA,PUERTA DEL ANGEL,,,,437627.69,4473518.7,-373511138,40.40995047,
580,,ENVASES,E0800CT,,,1,LATINA,PUERTA DEL ANGEL,,,,437817.89,4473127.19,-373283163,40.40643781,
581,,ENVASES,E0800CT,,,1,LATINA,PUERTA DEL ANGEL,,,,437233.48,4473382.06,-373974364,40.40868993,
582,,ENVASES,E0800CT,,,1,LATINA,PUERTA DEL ANGEL,,,,437817.89,4473127.19,-373283163,40.40643781,
583,,ENVASES,E0800CT,,,1,LATINA,PUERTA DEL ANGEL,,,,438466.29,4473723.95,-372524837,40.41186186,
584,,ENVASES,E0800CT,,,1,LATINA,PUERTA DEL ANGEL,,,,437404.95,4473395.88,-373772428,40.40882734,
585,,ENVASES,E0800CT,,,1,LATINA,PUERTA DEL ANGEL,,,,438169.82,4473767.24,-372874656,40.41222987,
586,,ENVASES,E0800CT,,,1,LATINA,PUERTA DEL ANGEL,,,,437412.41,4473467.99,-373764346,40.40947749,
587,,ENVASES,E0800CT,,,1,LATINA,PUERTA DEL ANGEL,,,,437900.05,4473538.61,-373190358,40.41015019,
588,,ENVASES,E0800CT,,,1,LATINA,PUERTA DEL ANGEL,,,,437551.06,4473568.94,-373601940,40.41039731,
589,,ENVASES,E0800CT,,,1,LATINA,PUERTA DEL ANGEL,,,,437412.41,4473467.99,-373764346,40.40947749,
590,,ENVASES,E0800CT,,,1,LATINA,PUERTA DEL ANGEL,,,,437733.69,4472950.95,-373380663,40.40484387,
591,,ENVASES,E0800CT,,,1,LATINA,PUERTA DEL ANGEL,,,,437535.3641,4472943.031,-373614293,40.40475767,
592,,ENVASES,E0800CT,,,1,LATINA,PUERTA DEL ANGEL,,,,437244.8656,4473099.355,-373958159,40.40614407,
593,,ENVASES,E0800CT,,,1,LATINA,PUERTA DEL ANGEL,,,,437244.8656,4473099.355,-373958159,40.40614407,
594,,ENVASES,E0800CT,,,1,LATINA,PUERTA DEL ANGEL,,,,437196.42,4473512.7,-374019328,40.40986399,
595,,ENVASES,E0800CT,,,1,LATINA,PUERTA DEL ANGEL,,,,438132.68,4473716.33,-372917932,40.41176849,
596,,ENVASES,E0800CT,,,1,LATINA,PUERTA DEL ANGEL,,,,438165.43,4473685.2,-372879032,40.41149049,
597,,ENVASES,E0800CT,,,1,LATINA,PUERTA DEL ANGEL,,,,438132.68,4473716.33,-372917932,40.41176849,
598,,ENVASES,E0800CT,,,1,LATINA,PUERTA DEL ANGEL,,,,438165.43,4473685.2,-372879032,40.41149049,
599,,ENVASES,E0800CT,,,1,LATINA,PUERTA DEL ANGEL,,,,437978.09,4473648.78,-373099462,40.41114847,
600,,ENVASES,E0800CT,,,1,LATINA,PUERTA DEL ANGEL,,,,437559.59,4473517.01,-373591377,40.40993014,
601,,ENVASES,E0800CT,,,1,LATINA,PUERTA DEL ANGEL,,,,437600.73,4473174.47,-373539535,40.40684748,
602,,ENVASES,E0800CT,,,1,LATINA,PUERTA DEL ANGEL,,,,437606.65,4473579.23,-373536527,40.41049417,
603,,ENVASES,E0800CT,,,1,LATINA,PUERTA DEL ANGEL,,,,437606.65,4473579.23,-373536527,40.41049417,
604,,ENVASES,E0800CT,,,1,LATINA,PUERTA DEL ANGEL,,,,438243.72,4473490.16,-372784873,40.4097393,
605,,ENVASES,E0800CT,,,1,LATINA,PUERTA DEL ANGEL,,,,438061.11,4473491.8,-373000093,40.4097405,
606,,ENVASES,E0800CT,,,1,LATINA,PUERTA DEL ANGEL,,,,438061.11,4473491.8,-373000093,40.4097405,
607,,ENVASES,E0800CT,,,1,LATINA,PUERTA DEL ANGEL,,,,437210.52,4472978.37,-373997439,40.40505159,
608,,ENVASES,E0800CT,,,1,LATINA,PUERTA DEL ANGEL,,,,438173.73,4473726.49,-372869652,40.41186307,
609,,ENVASES,E0800CT,,,1,LATINA,PUERTA DEL ANGEL,,,,437121.44,4472937.58,-374102009,40.40467741,
610,,ENVASES,E0800CT,,,1,LATINA,PUERTA DEL ANGEL,,,,438706.99,4473376.53,-372237818,40.40874991,
611,,ENVASES,E0800CT,,,1,LATINA,PUERTA DEL ANGEL,,,,438056.78,4473421.85,-373004515,40.40911004,
612,,ENVASES,E0800CT,,,1,LATINA,PUERTA DEL ANGEL,,,,437683.1,4473588.29,-373446520,40.41058151,
613,,ENVASES,E0800CT,,,1,LATINA,PUERTA DEL ANGEL,,,,438056.78,4473421.85,-373004515,40.40911004,
614,,ENVASES,E0800CT,,,1,LATINA,PUERTA DEL ANGEL,,,,438104.79,4473525.07,-372948940,40.41004346,
615,,ENVASES,E0800CT,,,1,LATINA,PUERTA DEL ANGEL,,,,437869.49,4473469.62,-373225699,40.40952642,
616,,ENVASES,E0800CT,,,1,LATINA,PUERTA DEL ANGEL,,,,438104.79,4473525.07,-372948940,40.41004346,
617,,ENVASES,E0800CT,,,1,LATINA,PUERTA DEL ANGEL,,,,437532.49,4473129.72,-373619513,40.40643923,
618,,ENVASES,E0800CT,,,1,LATINA,PUERTA DEL ANGEL,,,,437878.11,4473115.01,-373212079,40.40633258,
619,,ENVASES,E0800CT,,,1,LATINA,PUERTA DEL ANGEL,,,,437701.05,4473314.66,-373422686,40.40811788,
620,,ENVASES,E0800CT,,,1,LATINA,PUERTA DEL ANGEL,,,,437878.11,4473115.01,-373212079,40.40633258,
621,,ENVASES,E0800CT,,,1,LATINA,PUERTA DEL ANGEL,,,,437082.45,4473273.99,-374151280,40.40770499,
622,,ENVASES,E0800CT,,,1,LATINA,PUERTA DEL ANGEL,,,,437082.45,4473273.99,-374151280,40.40770499,
623,,ENVASES,E0800CT,,,1,LATINA,PUERTA DEL ANGEL,,,,437392.3,4473506.05,-373788420,40.40981884,
624,,ENVASES,E0800CT,,,1,LATINA,PUERTA DEL ANGEL,,,,438635.81,4473679.23,-372324621,40.41147152,
625,,ENVASES,E0800CT,,,1,LATINA,CARMENES,,,,437211.38,4472833.65,-373994998,40.40374796,
626,,ENVASES,E0800CT,,,1,LATINA,CARMENES,,,,437211.38,4472833.65,-373994998,40.40374796,
627,,ENVASES,E0800CT,,,1,LATINA,CARMENES,,,,436986.98,4471793.09,-374249129,40.3943572,
628,,ENVASES,E0800CT,,,1,LATINA,CARMENES,,,,437853.36,4472722.14,-373237409,40.40279159,
629,,ENVASES,E0800CT,,,1,LATINA,CARMENES,,,,437414.04,4472018.23,-373748170,40.39641756,
630,,ENVASES,E0800CT,,,1,LATINA,CARMENES,,,,437853.36,4472722.14,-373237409,40.40279159,
631,,ENVASES,E0800CT,,,1,LATINA,PUERTA DEL ANGEL,,,,437178.48,4472908.71,-374034508,40.40442165,
632,,ENVASES,E0800CT,,,1,LATINA,CARMENES,,,,437973.27,4472767.38,-373096552,40.40320807,
633,,ENVASES,E0800CT,,,1,LATINA,CARMENES,,,,437414.04,4472018.23,-373748170,40.39641756,
634,,ENVASES,E0800CT,,,1,LATINA,PUERTA DEL ANGEL,,,,438001.8,4473741.75,-373072425,40.41198775,
635,,ENVASES,E0800CT,,,1,LATINA,PUERTA DEL ANGEL,,,,437093.03,4473052.03,-374136618,40.40570628,
636,,ENVASES,E0800CT,,,1,LATINA,PUERTA DEL ANGEL,,,,438389.56,4473527.93,-372613367,40.41009035,
637,,ENVASES,E0800CT,,,1,LATINA,PUERTA DEL ANGEL,,,,437991.57,4473350.35,-373080667,40.40846109,
638,,ENVASES,E0800CT,,,1,LATINA,PUERTA DEL ANGEL,,,,438389.56,4473527.93,-372613367,40.41009035,
639,,ENVASES,E0800CT,,,1,LATINA,PUERTA DEL ANGEL,,,,437661.02,4473282.51,-373469545,40.40782527,
640,,ENVASES,E0800CT,,,1,LATINA,PUERTA DEL ANGEL,,,,437630.98,4472966.33,-373501848,40.40497473,
641,,ENVASES,E0800CT,,,1,LATINA,CARMENES,,,,436953.71,4471828.49,-374288678,40.39467358,
642,,ENVASES,E0800CT,,,1,LATINA,PUERTA DEL ANGEL,,,,438238.66,4473687.4,-372792751,40.41151575,
643,,ENVASES,E0800CT,,,1,LATINA,PUERTA DEL ANGEL,,,,438238.66,4473687.4,-372792751,40.41151575,
644,,ENVASES,E0800CT,,,1,LATINA,PUERTA DEL ANGEL,,,,437279.26,4473170.15,-373918325,40.40678441,
645,,ENVASES,E0800CT,,,1,LATINA,PUERTA DEL ANGEL,,,,437272.08,4473216.51,-373927244,40.40720149,
646,,ENVASES,E0800CT,,,1,LATINA,PUERTA DEL ANGEL,,,,438220.73,4473463.59,-372811708,40.40949824,
647,,ENVASES,E0800CT,,,1,LATINA,PUERTA DEL ANGEL,,,,437793.04,4473691.56,-373317964,40.41152004,
648,,ENVASES,E0800CT,,,1,LATINA,PUERTA DEL ANGEL,,,,438209.41,4473452.39,-372824940,40.4093965,
649,,ENVASES,E0800CT,,,1,LATINA,PUERTA DEL ANGEL,,,,437705.45,4473152.37,-373415913,40.40665624,
650,,ENVASES,E0800CT,,,1,LATINA,PUERTA DEL ANGEL,,,,438202.65,4474050.75,-372838719,40.41478629,
651,,ENVASES,E0800CT,,,1,LATINA,PUERTA DEL ANGEL,,,,438354.3,4473707.64,-372656662,40.41170665,
652,,ENVASES,E0800CT,,,1,LATINA,PUERTA DEL ANGEL,,,,437705.45,4473152.37,-373415913,40.40665624,
653,,ENVASES,E0800CT,,,1,LATINA,PUERTA DEL ANGEL,,,,438354.3,4473707.64,-372656662,40.41170665,
654,,ENVASES,E0800CT,,,1,LATINA,PUERTA DEL ANGEL,,,,437025.77,4472989.28,-374215258,40.40513592,
655,,ENVASES,E0800CT,,,1,LATINA,PUERTA DEL ANGEL,,,,437386.4,4473040.27,-373790790,40.40562246,
656,,ENVASES,E0800CT,,,1,LATINA,PUERTA DEL ANGEL,,,,437386.4,4473040.27,-373790790,40.40562246,
657,,ENVASES,E0800CT,,,1,LATINA,PUERTA DEL ANGEL,,,,438604.92,4473472.4,-372359030,40.40960603,
658,,ENVASES,E0800CT,,,1,LATINA,PUERTA DEL ANGEL,,,,438629.37,4473609.19,-372331535,40.41084009,
659,,ENVASES,E0800CT,,,1,LATINA,PUERTA DEL ANGEL,,,,437803.36,4473219.96,-373301192,40.40727244,
660,,ENVASES,E0800CT,,,1,LATINA,PUERTA DEL ANGEL,,,,437492.64,4473209.01,-373667252,40.40715052,
661,,ENVASES,E0800CT,,,1,LATINA,PUERTA DEL ANGEL,,,,438604.92,4473472.4,-372359030,40.40960603,
662,,ENVASES,E0800CT,,,1,LATINA,PUERTA DEL ANGEL,,,,438363.86,4473804.86,-372646337,40.41258316,
663,,ENVASES,E0800CT,,,1,LATINA,PUERTA DEL ANGEL,,,,437165.27,4473404.6,-374054971,40.40888783,
664,,ENVASES,E0800CT,,,1,LATINA,PUERTA DEL ANGEL,,,,437353.5232,4473419.931,-373833270,40.40904013,
665,,ENVASES,E0800CT,,,1,LATINA,PUERTA DEL ANGEL,,,,437806.83,4473608.19,-373300898,40.41077004,
666,,ENVASES,E0800CT,,,1,LATINA,PUERTA DEL ANGEL,,,,437353.5232,4473419.931,-373833270,40.40904013,
667,,ENVASES,E0800CT,,,1,LATINA,PUERTA DEL ANGEL,,,,437369.44,4473197.74,-373812325,40.40703974,
668,,ENVASES,E0800CT,,,1,LATINA,PUERTA DEL ANGEL,,,,437401.06,4472962.05,-373772745,40.40491892,
669,,ENVASES,E0800CT,,,1,LATINA,PUERTA DEL ANGEL,,,,437219.13,4472927.82,-373986795,40.40459686,
670,,ENVASES,E0800CT,,,1,LATINA,PUERTA DEL ANGEL,,,,437401.06,4472962.05,-373772745,40.40491892,
671,,ENVASES,E0800CT,,,1,LATINA,PUERTA DEL ANGEL,,,,437900.3959,4473429.456,-373188885,40.40916691,
672,,ENVASES,E0800CT,,,1,LATINA,PUERTA DEL ANGEL,,,,438100.86,4473653.45,-372954821,40.41119967,
673,,ENVASES,E0800CT,,,1,LATINA,PUERTA DEL ANGEL,,,,438100.86,4473653.45,-372954821,40.41119967,
674,,ENVASES,E0800CT,,,1,LATINA,PUERTA DEL ANGEL,,,,438200.51,4473859.95,-372839387,40.41306732,
675,,ENVASES,E0800CT,,,1,LATINA,PUERTA DEL ANGEL,,,,437900.3959,4473429.456,-373188885,40.40916691,
676,,ENVASES,E0800CT,,,1,LATINA,PUERTA DEL ANGEL,,,,438421.37,4473770.33,-372578225,40.41227635,
677,,ENVASES,E0800CT,,,1,LATINA,PUERTA DEL ANGEL,,,,438200.51,4473859.95,-372839387,40.41306732,
678,,ENVASES,E0800CT,,,1,LATINA,PUERTA DEL ANGEL,,,,438421.37,4473770.33,-372578225,40.41227635,
679,,ENVASES,E0800CT,,,1,LATINA,PUERTA DEL ANGEL,,,,438421.37,4473770.33,-372578225,40.41227635,
680,,ENVASES,E0800CT,,,1,LATINA,PUERTA DEL ANGEL,,,,438288.75,4474000.81,-372736758,40.41434279,
681,,ENVASES,E0800CT,,,1,LATINA,PUERTA DEL ANGEL,,,,438288.75,4474000.81,-372736758,40.41434279,
682,,ENVASES,E0800CT,,,1,LATINA,PUERTA DEL ANGEL,,,,437824.85,4473074.06,-373274442,40.40595971,
683,,ENVASES,E0800CT,,,1,LATINA,PUERTA DEL ANGEL,,,,438288.75,4474000.81,-372736758,40.41434279,
684,,ENVASES,E0800CT,,,1,LATINA,PUERTA DEL ANGEL,,,,438288.75,4474000.81,-372736758,40.41434279,
685,,ENVASES,E0800CT,,,1,LATINA,PUERTA DEL ANGEL,,,,438506.36,4473891.84,-372479236,40.41337725,
686,,ENVASES,E0800CT,,,1,LATINA,PUERTA DEL ANGEL,,,,438506.36,4473891.84,-372479236,40.41337725,
687,,ENVASES,E0800CT,,,1,LATINA,PUERTA DEL ANGEL,,,,438506.36,4473891.84,-372479236,40.41337725,
688,,ENVASES,E0800CT,,,1,LATINA,PUERTA DEL ANGEL,,,,437534.42,4473463.42,-373620514,40.40944549,
689,,ENVASES,E0800CT,,,1,LATINA,PUERTA DEL ANGEL,,,,437447.57,4473304.81,-373721306,40.40801014,
690,,ENVASES,E0800CT,,,1,LATINA,PUERTA DEL ANGEL,,,,437535.05,4473035.28,-373615569,40.40558867,
691,,ENVASES,E0800CT,,,1,LATINA,PUERTA DEL ANGEL,,,,437534.42,4473463.42,-373620514,40.40944549,
692,,ENVASES,E0800CT,,,1,LATINA,PUERTA DEL ANGEL,,,,438084.03,4473783.39,-372975920,40.41236898,
693,,ENVASES,E0800CT,,,1,LATINA,PUERTA DEL ANGEL,,,,437535.05,4473035.28,-373615569,40.40558867,
694,,ENVASES,E0800CT,,,1,LATINA,PUERTA DEL ANGEL,,,,437348.45,4473143.97,-373836532,40.40655378,
695,,ENVASES,E0800CT,,,1,LATINA,PUERTA DEL ANGEL,,,,437348.45,4473143.97,-373836532,40.40655378,
696,,ENVASES,E0800CT,,,1,LATINA,PUERTA DEL ANGEL,,,,438224.746,4473742.113,-372809680,40.41200759,
697,,ENVASES,E0800CT,,,1,LATINA,PUERTA DEL ANGEL,,,,437348.45,4473143.97,-373836532,40.40655378,
698,,ENVASES,E0800CT,,,1,LATINA,PUERTA DEL ANGEL,,,,437880.86,4473361.04,-373211240,40.40854913,
699,,ENVASES,E0800CT,,,1,LATINA,PUERTA DEL ANGEL,,,,437880.86,4473361.04,-373211240,40.40854913,
700,,ENVASES,E0800CT,,,1,LATINA,PUERTA DEL ANGEL,,,,437247.65,4473175.57,-373955629,40.40683085,
701,,ENVASES,E0800CT,,,1,LATINA,PUERTA DEL ANGEL,,,,438169.85,4473819.76,-372875131,40.41270299,
702,,ENVASES,E0800CT,,,1,LATINA,PUERTA DEL ANGEL,,,,437488.17,4473307.85,-373673491,40.40804058,
703,,ENVASES,E0800CT,,,1,LATINA,PUERTA DEL ANGEL,,,,437419.95,4473677.04,-373757516,40.41136127,
704,,ENVASES,E0800CT,,,1,LATINA,PUERTA DEL ANGEL,,,,437773.95,4473845.44,-373341967,40.41290483,
705,,ENVASES,E0800CT,,,1,LATINA,PUERTA DEL ANGEL,,,,437782.98,4473370.82,-373326684,40.40862992,
706,,ENVASES,E0800CT,,,1,LATINA,PUERTA DEL ANGEL,,,,437534.52,4473630.73,-373622039,40.4109527,
707,,ENVASES,E0800CT,,,1,LATINA,PUERTA DEL ANGEL,,,,437534.52,4473630.73,-373622039,40.4109527,
708,,ENVASES,E0800CT,,,1,LATINA,PUERTA DEL ANGEL,,,,437277.7,4473162.24,-373920086,40.40671303,
709,,ENVASES,E0800CT,,,1,LATINA,LUCERO,,,,436630.49,4473058.11,-374681744,40.40572597,
710,,ENVASES,E0800CT,,,1,LATINA,LUCERO,,,,436630.49,4473058.11,-374681744,40.40572597,
711,,ENVASES,E0800CT,,,1,LATINA,LUCERO,,,,436630.49,4473058.11,-374681744,40.40572597,
712,,ENVASES,E0800CT,,,1,LATINA,LUCERO,,,,436770.06,4473112.39,-374517812,40.40622556,
713,,ENVASES,E0800CT,,,1,LATINA,LUCERO,,,,436832.89,4472847.19,-374441139,40.4038413,
714,,ENVASES,E0800CT,,,1,LATINA,LUCERO,,,,436425.18,4473150.87,-374924611,40.40654594,
715,,ENVASES,E0800CT,,,1,LATINA,LUCERO,,,,436425.18,4473150.87,-374924611,40.40654594,
716,,ENVASES,E0800CT,,,1,LATINA,LUCERO,,,,436196.57,4473259.56,-375195102,40.40750757,
717,,ENVASES,E0800CT,,,1,LATINA,LUCERO,,,,436644.3871,4472962.723,-374664418,40.40486775,
718,,ENVASES,E0800CT,,,1,LATINA,LUCERO,,,,436574.57,4472724.45,-374744316,40.40271597,
719,,ENVASES,E0800CT,,,1,LATINA,LUCERO,,,,436574.57,4472724.45,-374744316,40.40271597,
720,,ENVASES,E0800CT,,,1,LATINA,LUCERO,,,,436520.67,4472808.95,-374808673,40.40347307,
721,,ENVASES,E0800CT,,,1,LATINA,LUCERO,,,,436520.67,4472808.95,-374808673,40.40347307,
722,,ENVASES,E0800CT,,,1,LATINA,LUCERO,,,,436520.67,4472808.95,-374808673,40.40347307,
723,,ENVASES,E0800CT,,,1,LATINA,LUCERO,,,,436485.95,4473234.02,-374853828,40.40729963,
724,,ENVASES,E0800CT,,,1,LATINA,LUCERO,,,,436485.95,4473234.02,-374853828,40.40729963,
725,,ENVASES,E0800CT,,,1,LATINA,LUCERO,,,,436240.04,4473045.48,-375141730,40.40558239,
726,,ENVASES,E0800CT,,,1,LATINA,LUCERO,,,,436240.04,4473045.48,-375141730,40.40558239,
727,,ENVASES,E0800CT,,,1,LATINA,LUCERO,,,,436869.54,4472924.94,-374398722,40.40454449,
728,,ENVASES,E0800CT,,,1,LATINA,LUCERO,,,,436826.65,4472923.33,-374449248,40.40452673,
729,,ENVASES,E0800CT,,,1,LATINA,LUCERO,,,,436424.81,4471942.32,-374912978,40.3956588,
730,,ENVASES,E0800CT,,,1,LATINA,LUCERO,,,,436949.21,4473278.34,-374308341,40.40773409,
731,,ENVASES,E0800CT,,,1,LATINA,LUCERO,,,,436673.57,4473348.6,-374633868,40.4083461,
732,,ENVASES,E0800CT,,,1,LATINA,LUCERO,,,,436080.5571,4473143.84,-375330655,40.40645622,
733,,ENVASES,E0800CT,,,1,LATINA,LUCERO,,,,436080.5571,4473143.84,-375330655,40.40645622,
734,,ENVASES,E0800CT,,,1,LATINA,LUCERO,,,,436463.53,4472923.74,-374877151,40.40450279,
735,,ENVASES,E0800CT,,,1,LATINA,LUCERO,,,,436463.53,4472923.74,-374877151,40.40450279,
736,,ENVASES,E0800CT,,,1,LATINA,LUCERO,,,,436463.53,4472923.74,-374877151,40.40450279,
737,,ENVASES,E0800CT,,,1,LATINA,LUCERO,,,,436066.0425,4473035.205,-375346668,40.40547648,
738,,ENVASES,E0800CT,,,1,LATINA,LUCERO,,,,436066.0425,4473035.205,-375346668,40.40547648,
739,,ENVASES,E0800CT,,,1,LATINA,LUCERO,,,,436914.76,4472979.19,-374345973,40.40503662,
740,,ENVASES,E0800CT,,,1,LATINA,LUCERO,,,,436436.88,4473126.08,-374910576,40.40632352,
741,,ENVASES,E0800CT,,,1,LATINA,LUCERO,,,,436959.3,4473254.69,-374296216,40.40752181,
742,,ENVASES,E0800CT,,,1,LATINA,LUCERO,,,,436641.12,4472606.17,-374664719,40.40165552,
743,,ENVASES,E0800CT,,,1,LATINA,LUCERO,,,,436641.12,4472606.17,-374664719,40.40165552,
744,,ENVASES,E0800CT,,,1,LATINA,LUCERO,,,,436641.12,4472606.17,-374664719,40.40165552,
745,,ENVASES,E0800CT,,,1,LATINA,LUCERO,,,,436386.81,4473300.59,-374971324,40.40789175,
746,,ENVASES,E0800CT,,,1,LATINA,LUCERO,,,,436386.81,4473300.59,-374971324,40.40789175,
747,,ENVASES,E0800CT,,,1,LATINA,LUCERO,,,,436531.72,4473324.04,-374800788,40.40811405,
748,,ENVASES,E0800CT,,,1,LATINA,LUCERO,,,,436910.31,4473243.26,-374353835,40.40741513,
749,,ENVASES,E0800CT,,,1,LATINA,LUCERO,,,,436066.0425,4473035.205,-375346668,40.40547648,
750,,ENVASES,E0800CT,,,1,LATINA,LUCERO,,,,436332.72,4472966.71,-375031727,40.40487989,
751,,ENVASES,E0800CT,,,1,LATINA,LUCERO,,,,436613.26,4472740.73,-374698887,40.40286558,
752,,ENVASES,E0800CT,,,1,LATINA,LUCERO,,,,436739.52,4473046.95,-374553150,40.40563373,
753,,ENVASES,E0800CT,,,1,LATINA,LUCERO,,,,436739.52,4473046.95,-374553150,40.40563373,
754,,ENVASES,E0800CT,,,1,LATINA,LUCERO,,,,436784.18,4472541.22,-374495500,40.4010813,
755,,ENVASES,E0800CT,,,1,LATINA,LUCERO,,,,436739.52,4473046.95,-374553150,40.40563373,
756,,ENVASES,E0800CT,,,1,LATINA,LUCERO,,,,436784.18,4472541.22,-374495500,40.4010813,
757,,ENVASES,E0800CT,,,1,LATINA,LUCERO,,,,436621.68,4473132.09,-374692863,40.40639175,
758,,ENVASES,E0800CT,,,1,LATINA,LUCERO,,,,436621.68,4473132.09,-374692863,40.40639175,
759,,ENVASES,E0800CT,,,1,LATINA,LUCERO,,,,436530.19,4472934.91,-374798711,40.4046085,
760,,ENVASES,E0800CT,,,1,LATINA,LUCERO,,,,436530.19,4472934.91,-374798711,40.4046085,
761,,ENVASES,E0800CT,,,1,LATINA,LUCERO,,,,436673.8222,4472058.324,-374620735,40.39672278,
762,,ENVASES,E0800CT,,,1,LATINA,LUCERO,,,,436673.8222,4472058.324,-374620735,40.39672278,
763,,ENVASES,E0800CT,,,1,LATINA,LUCERO,,,,436875.33,4471985.41,-374382583,40.39608125,
764,,ENVASES,E0800CT,,,1,LATINA,LUCERO,,,,436193.7503,4473006.296,-375195886,40.40522585,
765,,ENVASES,E0800CT,,,1,LATINA,LUCERO,,,,436193.7503,4473006.296,-375195886,40.40522585,
766,,ENVASES,E0800CT,,,1,LATINA,LUCERO,,,,436285.42,4473142.69,-375089227,40.40646157,
767,,ENVASES,E0800CT,,,1,LATINA,LUCERO,,,,436285.42,4473142.69,-375089227,40.40646157,
768,,ENVASES,E0800CT,,,1,LATINA,LUCERO,,,,436337.21,4473167.49,-375028444,40.40668894,
769,,ENVASES,E0800CT,,,1,LATINA,LUCERO,,,,436262.32,4473142.53,-375116447,40.40645836,
770,,ENVASES,E0800CT,,,1,LATINA,LUCERO,,,,436337.21,4473167.49,-375028444,40.40668894,
771,,ENVASES,E0800CT,,,1,LATINA,LUCERO,,,,436660.4,4472660.65,-374642542,40.40214777,
772,,ENVASES,E0800CT,,,1,LATINA,LUCERO,,,,436269.06,4472833.16,-375105407,40.40367195,
773,,ENVASES,E0800CT,,,1,LATINA,LUCERO,,,,436581.06,4472798.82,-374737410,40.40338642,
774,,ENVASES,E0800CT,,,1,LATINA,LUCERO,,,,436842.99,4472208.97,-374422905,40.39809272,
775,,ENVASES,E0800CT,,,1,LATINA,LUCERO,,,,436408.08,4473227.06,-374945524,40.40723098,
776,,ENVASES,E0800CT,,,1,LATINA,LUCERO,,,,436572.36,4472936.52,-374749034,40.40462622,
777,,ENVASES,E0800CT,,,1,LATINA,LUCERO,,,,436376.2,4472876.69,-374979590,40.40407228,
778,,ENVASES,E0800CT,,,1,LATINA,LUCERO,,,,436644.86,4472840.11,-374662640,40.40376324,
779,,ENVASES,E0800CT,,,1,LATINA,LUCERO,,,,436408.08,4473227.06,-374945524,40.40723098,
780,,ENVASES,E0800CT,,,1,LATINA,LUCERO,,,,436482.59,4473020.57,-374855657,40.40537653,
781,,ENVASES,E0800CT,,,1,LATINA,LUCERO,,,,436482.59,4473020.57,-374855657,40.40537653,
782,,ENVASES,E0800CT,,,1,LATINA,LUCERO,,,,436427.46,4472682.94,-374917251,40.40233081,
783,,ENVASES,E0800CT,,,1,LATINA,LUCERO,,,,436427.46,4472682.94,-374917251,40.40233081,
784,,ENVASES,E0800CT,,,1,LATINA,LUCERO,,,,436507.55,4471927.08,-374815338,40.39552783,
785,,ENVASES,E0800CT,,,1,LATINA,LUCERO,,,,436610.48,4471910.76,-374693900,40.39538865,
786,,ENVASES,E0800CT,,,1,LATINA,LUCERO,,,,436839.4,4473223.18,-374437199,40.40722887,
787,,ENVASES,E0800CT,,,1,LATINA,LUCERO,,,,436259.55,4473288.61,-375121174,40.40777409,
788,,ENVASES,E0800CT,,,1,LATINA,LUCERO,,,,436780.51,4472598.56,-374500393,40.40159756,
789,,ENVASES,E0800CT,,,1,LATINA,LUCERO,,,,436795.5579,4472649.806,-374483171,40.40206035,
790,,ENVASES,E0800CT,,,1,LATINA,LUCERO,,,,436799.1753,4472616.746,-374478580,40.40176281,
791,,ENVASES,E0800CT,,,1,LATINA,LUCERO,,,,436657.54,4473263.19,-374651909,40.40757548,
792,,ENVASES,E0800CT,,,1,LATINA,LUCERO,,,,436365.37,4472980.27,-374993388,40.40500454,
793,,ENVASES,E0800CT,,,1,LATINA,LUCERO,,,,436541.52,4472740.86,-374783425,40.40286128,
794,,ENVASES,E0800CT,,,1,LATINA,LUCERO,,,,436541.52,4472740.86,-374783425,40.40286128,
795,,ENVASES,E0800CT,,,1,LATINA,LUCERO,,,,436081.32,4473065.37,-375328968,40.40574939,
796,,ENVASES,E0800CT,,,1,LATINA,LUCERO,,,,436085.09,4473169.18,-375325568,40.40668484,
797,,ENVASES,E0800CT,,,1,LATINA,LUCERO,,,,436081.32,4473065.37,-375328968,40.40574939,
798,,ENVASES,E0800CT,,,1,LATINA,LUCERO,,,,436085.09,4473169.18,-375325568,40.40668484,
799,,ENVASES,E0800CT,,,1,LATINA,LUCERO,,,,435915.93,4473008.2,-375523290,40.40522167,
800,,ENVASES,E0800CT,,,1,LATINA,LUCERO,,,,435915.93,4473008.2,-375523290,40.40522167,
801,,ENVASES,E0800CT,,,1,LATINA,LUCERO,,,,436246.22,4473295.5,-375136952,40.40783514,
802,,ENVASES,E0800CT,,,2,HORTALEZA,PINAR DEL REY,,,,444919.0,4480739.0,-364980865,40.47550917,
803,,ENVASES,E0800CT,,,2,HORTALEZA,PINAR DEL REY,,,,444983.0,4480759.0,-364905540,40.47569358,
804,,ENVASES,E0800CT,,,2,HORTALEZA,PINAR DEL REY,,,,445207.0,4481124.0,-364644449,40.47899648,
806,,ENVASES,E0800CT,,,2,HORTALEZA,PINAR DEL REY,,,,445280.1234,4480581.308,-364553501,40.47411247,
807,,ENVASES,E0800CT,,,2,HORTALEZA,CANILLAS,,,,445102.5998,4479627.961,-364754665,40.46551254,
808,,ENVASES,E0800CT,,,2,HORTALEZA,PINAR DEL REY,,,,445712.5355,4480506.666,-364042772,40.47346844,
809,,ENVASES,E0800CT,,,2,HORTALEZA,PINAR DEL REY,,,,445183.852,4481147.261,-364671958,40.47920451,
810,,ENVASES,E0800CT,,,2,HORTALEZA,PINAR DEL REY,,,,444993.0,4480190.0,-364888809,40.47056841,
811,,ENVASES,E0800CT,,,2,HORTALEZA,CANILLAS,,,,445169.0,4479454.0,-364674843,40.46394979,
812,,ENVASES,E0800CT,,,2,HORTALEZA,PINAR DEL REY,,,,444783.0,4480267.0,-365137190,40.47124813,
813,,ENVASES,E0800CT,,,2,HORTALEZA,PINAR DEL REY,,,,444817.0,4480263.0,-365097049,40.47121436,
814,,ENVASES,E0800CT,,,2,HORTALEZA,PINAR DEL REY,,,,444726.0,4480355.0,-365205193,40.47203709,
815,,ENVASES,E0800CT,,,2,HORTALEZA,PINAR DEL REY,,,,444783.0,4480267.0,-365137190,40.47124813,
816,,ENVASES,E0800CT,,,2,HORTALEZA,PINAR DEL REY,,,,444791.0,4480376.0,-365128702,40.47223059,
817,,ENVASES,E0800CT,,,2,HORTALEZA,PINAR DEL REY,,,,444726.0,4480355.0,-365205193,40.47203709,
819,,ENVASES,E0800CT,,,2,HORTALEZA,PINAR DEL REY,,,,444681.0,4480322.0,-365257987,40.47173681,
820,,ENVASES,E0800CT,,,2,HORTALEZA,PINAR DEL REY,,,,444743.0,4480206.0,-365183842,40.47069596,
821,,ENVASES,E0800CT,,,2,HORTALEZA,PINAR DEL REY,,,,444721.0,4480200.0,-365209740,40.47064044,
822,,ENVASES,E0800CT,,,2,HORTALEZA,PINAR DEL REY,,,,444637.0,4480143.0,-365308327,40.47012136,
823,,ENVASES,E0800CT,,,2,HORTALEZA,CANILLAS,,,,445158.3275,4479574.186,-364688470,40.46503179,
824,,ENVASES,E0800CT,,,2,HORTALEZA,PINAR DEL REY,,,,444969.6748,4480213.312,-364916525,40.47077687,
825,,ENVASES,E0800CT,,,2,HORTALEZA,CANILLAS,,,,445071.3253,4479395.359,-364789539,40.46341507,
826,,ENVASES,E0800CT,,,2,HORTALEZA,CANILLAS,,,,445071.3253,4479395.359,-364789539,40.46341507,
827,,ENVASES,E0800CT,,,2,HORTALEZA,PINAR DEL REY,,,,444723.7796,4479886.756,-365203732,40.46781877,
828,,ENVASES,E0800CT,,,2,HORTALEZA,PINAR DEL REY,,,,444780.0,4479964.0,-365138091,40.46851836,
830,,ENVASES,E0800CT,,,2,HORTALEZA,PINAR DEL REY,,,,445541.1041,4480560.087,-364245456,40.47393845,
831,,ENVASES,E0800CT,,,2,HORTALEZA,PINAR DEL REY,,,,444983.0,4480759.0,-364905540,40.47569358,
832,,ENVASES,E0800CT,,,2,HORTALEZA,PINAR DEL REY,,,,445078.0936,4480763.985,-364793405,40.47574478,
833,,ENVASES,E0800CT,,,2,HORTALEZA,PINAR DEL REY,,,,445078.0,4480764.0,-364793515,40.47574491,
834,,ENVASES,E0800CT,,,2,HORTALEZA,CANILLAS,,,,445207.9827,4479589.145,-364630032,40.46516983,
835,,ENVASES,E0800CT,,,2,HORTALEZA,PINAR DEL REY,,,,445331.0,4480557.0,-364493276,40.47389684,
836,,ENVASES,E0800CT,,,2,HORTALEZA,PINAR DEL REY,,,,444693.0035,4480504.987,-365245424,40.47338605,
837,,ENVASES,E0800CT,,,2,HORTALEZA,PINAR DEL REY,,,,444675.0,4480545.0,-365267010,40.4737453,
838,,ENVASES,E0800CT,,,2,HORTALEZA,PINAR DEL REY,,,,445183.6788,4481146.73,-364672158,40.47919971,
839,,ENVASES,E0800CT,,,2,HORTALEZA,PINAR DEL REY,,,,445183.528,4481146.871,-364672337,40.47920096,
840,,ENVASES,E0800CT,,,2,HORTALEZA,PINAR DEL REY,,,,445331.0,4480557.0,-364493276,40.47389684,
842,,ENVASES,E0800CT,,,2,HORTALEZA,CANILLAS,,,,445158.2925,4479574.189,-364688511,40.46503181,
843,,ENVASES,E0800CT,,,2,HORTALEZA,CANILLAS,,,,445171.9803,4479422.936,-364671060,40.46367015,
844,,ENVASES,E0800CT,,,2,HORTALEZA,CANILLAS,,,,445102.5998,4479627.961,-364754665,40.46551254,
845,,ENVASES,E0800CT,,,2,HORTALEZA,PINAR DEL REY,,,,445712.0144,4480700.998,-364045051,40.47521904,
846,,ENVASES,E0800CT,,,2,HORTALEZA,PINAR DEL REY,,,,444811.1803,4480310.821,-365104330,40.47164477,
847,,ENVASES,E0800CT,,,2,HORTALEZA,CANILLAS,,,,444819.0,4479402.0,-365087202,40.46345818,
848,,ENVASES,E0800CT,,,2,HORTALEZA,PINAR DEL REY,,,,444811.3161,4480310.593,-365104168,40.47164272,
903,,ENVASES,E0800CT,,,1,LATINA,PUERTA DEL ANGEL,,,,438699.64,4473426.36,-372246960,40.40919826,
906,,ENVASES,E0800CT,,,1,LATINA,PUERTA DEL ANGEL,,,,437270.77,4473396.54,-373930562,40.40882318,
908,,ENVASES,E0800CT,,,1,LATINA,PUERTA DEL ANGEL,,,,437270.77,4473396.54,-373930562,40.40882318,
910,,ENVASES,E0800CT,,,1,LATINA,PUERTA DEL ANGEL,,,,437270.77,4473396.54,-373930562,40.40882318,
912,,ENVASES,E0800CT,,,1,LATINA,PUERTA DEL ANGEL,,,,437384.39,4473550.82,-373798182,40.41022155,
938,,ENVASES,E0800CT,,,1,LATINA,CARMENES,,,,437191.52,4472812.05,-374018188,40.40355188,
941,,ENVASES,E0800CT,,,1,LATINA,CARMENES,,,,437191.52,4472812.05,-374018188,40.40355188,
942,,ENVASES,E0800CT,,,1,LATINA,CARMENES,,,,436910.64,4472822.44,-374349274,40.40362424,
943,,ENVASES,E0800CT,,,1,LATINA,CARMENES,,,,436881.27,4472922.59,-374384876,40.4045242,
944,,ENVASES,E0800CT,,,1,LATINA,CARMENES,,,,438533.09,4473123.69,-372440313,40.40645939,
945,,ENVASES,E0800CT,,,1,LATINA,CARMENES,,,,436924.39,4472777.81,-374332629,40.40322323,
946,,ENVASES,E0800CT,,,1,LATINA,CARMENES,,,,436813.25,4472734.51,-374463164,40.40282474,
947,,ENVASES,E0800CT,,,1,LATINA,CARMENES,,,,436924.39,4472777.81,-374332629,40.40322323,
948,,ENVASES,E0800CT,,,1,LATINA,CARMENES,,,,438533.09,4473123.69,-372440313,40.40645939,
949,,ENVASES,E0800CT,,,1,LATINA,PUERTA DEL ANGEL,,,,437090.83,4473312.96,-374141790,40.40805668,
950,,ENVASES,E0800CT,,,1,LATINA,PUERTA DEL ANGEL,,,,438415.31,4473897.27,-372586596,40.41341943,
951,,ENVASES,E0800CT,,,1,LATINA,PUERTA DEL ANGEL,,,,437203.64,4473390.16,-374009610,40.40876065,
952,,ENVASES,E0800CT,,,1,LATINA,PUERTA DEL ANGEL,,,,437534.7,4473299.18,-373618572,40.40796597,
953,,ENVASES,E0800CT,,,1,LATINA,PUERTA DEL ANGEL,,,,437457.49,4473585.76,-373712377,40.4105418,
954,,ENVASES,E0800CT,,,1,LATINA,PUERTA DEL ANGEL,,,,437457.49,4473585.76,-373712377,40.4105418,
955,,ENVASES,E0800CT,,,1,LATINA,PUERTA DEL ANGEL,,,,437311.24,4472966.46,-373878633,40.40495189,
956,,ENVASES,E0800CT,,,1,LATINA,PUERTA DEL ANGEL,,,,437060.54,4473055.85,-374174943,40.40573824,
957,,ENVASES,E0800CT,,,1,LATINA,PUERTA DEL ANGEL,,,,438286.18,4473538.85,-372735306,40.41018107,
958,,ENVASES,E0800CT,,,1,LATINA,PUERTA DEL ANGEL,,,,438286.18,4473538.85,-372735306,40.41018107,
959,,ENVASES,E0800CT,,,1,LATINA,PUERTA DEL ANGEL,,,,438234.51,4473786.37,-372798602,40.412407,
960,,ENVASES,E0800CT,,,1,LATINA,PUERTA DEL ANGEL,,,,437886.32,4473496.32,-373206126,40.4097682,
961,,ENVASES,E0800CT,,,1,LATINA,PUERTA DEL ANGEL,,,,438234.51,4473786.37,-372798602,40.412407,
962,,ENVASES,E0800CT,,,1,LATINA,PUERTA DEL ANGEL,,,,438529.77,4473774.03,-372450507,40.4123177,
963,,ENVASES,E0800CT,,,1,LATINA,PUERTA DEL ANGEL,,,,438529.77,4473774.03,-372450507,40.4123177,
964,,ENVASES,E0800CT,,,1,LATINA,PUERTA DEL ANGEL,,,,437302.39,4473042.82,-373889814,40.40563911,
965,,ENVASES,E0800CT,,,1,LATINA,PUERTA DEL ANGEL,,,,438226.0,4473622.82,-372807044,40.41093304,
966,,ENVASES,E0800CT,,,1,LATINA,PUERTA DEL ANGEL,,,,437654.41,4472941.83,-373473998,40.40475578,
967,,ENVASES,E0800CT,,,1,LATINA,PUERTA DEL ANGEL,,,,438226.0,4473622.82,-372807044,40.41093304,
968,,ENVASES,E0800CT,,,1,LATINA,PUERTA DEL ANGEL,,,,437478.52,4473436.33,-373686125,40.40919725,
969,,ENVASES,E0800CT,,,1,LATINA,PUERTA DEL ANGEL,,,,437288.76,4473273.12,-373908145,40.40771272,
970,,ENVASES,E0800CT,,,1,LATINA,PUERTA DEL ANGEL,,,,437422.3,4473086.77,-373748942,40.40604405,
971,,ENVASES,E0800CT,,,1,LATINA,PUERTA DEL ANGEL,,,,437645.08,4473155.0,-373487081,40.40667541,
972,,ENVASES,E0800CT,,,1,LATINA,PUERTA DEL ANGEL,,,,437422.3,4473086.77,-373748942,40.40604405,
973,,ENVASES,E0800CT,,,1,LATINA,PUERTA DEL ANGEL,,,,437898.89,4473498.68,-373191335,40.4097904,
974,,ENVASES,E0800CT,,,1,LATINA,PUERTA DEL ANGEL,,,,437766.23,4473278.69,-373345523,40.40779873,
975,,ENVASES,E0800CT,,,1,LATINA,PUERTA DEL ANGEL,,,,437358.87,4473085.37,-373823676,40.40602667,
976,,ENVASES,E0800CT,,,1,LATINA,PUERTA DEL ANGEL,,,,437766.23,4473278.69,-373345523,40.40779873,
977,,ENVASES,E0800CT,,,1,LATINA,PUERTA DEL ANGEL,,,,437582.89,4473089.88,-373559729,40.40608412,
978,,ENVASES,E0800CT,,,1,LATINA,PUERTA DEL ANGEL,,,,438691.84,4473488.2,-372256748,40.40975477,
979,,ENVASES,E0800CT,,,1,LATINA,PUERTA DEL ANGEL,,,,438144.61,4473593.38,-372902677,40.41066179,
980,,ENVASES,E0800CT,,,1,LATINA,PUERTA DEL ANGEL,,,,438503.7,4473855.9,-372482023,40.41305329,
981,,ENVASES,E0800CT,,,1,LATINA,PUERTA DEL ANGEL,,,,437912.46,4473745.29,-373177750,40.41201298,
982,,ENVASES,E0800CT,,,1,LATINA,PUERTA DEL ANGEL,,,,438503.7,4473855.9,-372482023,40.41305329,
983,,ENVASES,E0800CT,,,1,LATINA,PUERTA DEL ANGEL,,,,438326.2,4473740.97,-372690102,40.41200482,
984,,ENVASES,E0800CT,,,1,LATINA,PUERTA DEL ANGEL,,,,437474.32,4473353.36,-373690259,40.40844951,
985,,ENVASES,E0800CT,,,1,LATINA,PUERTA DEL ANGEL,,,,437736.45,4473786.31,-373385584,40.41236935,
986,,ENVASES,E0800CT,,,1,LATINA,PUERTA DEL ANGEL,,,,437736.45,4473786.31,-373385584,40.41236935,
987,,ENVASES,E0800CT,,,1,LATINA,PUERTA DEL ANGEL,,,,437736.45,4473786.31,-373385584,40.41236935,
988,,ENVASES,E0800CT,,,1,LATINA,PUERTA DEL ANGEL,,,,438097.3515,4473358.516,-372956086,40.40854252,
989,,ENVASES,E0800CT,,,1,LATINA,PUERTA DEL ANGEL,,,,438097.1119,4473358.759,-372956371,40.40854469,
990,,ENVASES,E0800CT,,,1,LATINA,PUERTA DEL ANGEL,,,,437997.86,4473430.77,-373074038,40.40918601,
991,,ENVASES,E0800CT,,,1,LATINA,PUERTA DEL ANGEL,,,,437997.86,4473430.77,-373074038,40.40918601,
992,,ENVASES,E0800CT,,,1,LATINA,PUERTA DEL ANGEL,,,,437231.58,4472973.38,-373972573,40.40500823,
993,,ENVASES,E0800CT,,,1,LATINA,PUERTA DEL ANGEL,,,,437231.58,4472973.38,-373972573,40.40500823,
994,,ENVASES,E0800CT,,,1,LATINA,PUERTA DEL ANGEL,,,,438617.7,4473543.65,-372344656,40.41024882,
995,,ENVASES,E0800CT,,,1,LATINA,PUERTA DEL ANGEL,,,,438617.7,4473543.65,-372344656,40.41024882,
996,,ENVASES,E0800CT,,,1,LATINA,PUERTA DEL ANGEL,,,,437956.97,4473550.92,-373123398,40.41026533,
997,,ENVASES,E0800CT,,,1,LATINA,PUERTA DEL ANGEL,,,,437903.76,4473907.2,-373189583,40.41347088,
998,,ENVASES,E0800CT,,,1,LATINA,PUERTA DEL ANGEL,,,,437588.43,4473198.07,-373554261,40.40705916,
999,,ENVASES,E0800CT,,,1,LATINA,PUERTA DEL ANGEL,,,,438146.09,4473528.23,-372900299,40.410075,
1000,,ENVASES,E0800CT,,,1,LATINA,PUERTA DEL ANGEL,,,,437557.45,4473075.44,-373589566,40.40595213,
1001,,ENVASES,E0800CT,,,1,LATINA,PUERTA DEL ANGEL,,,,437450.14,4473693.71,-373722100,40.41151371,
1002,,ENVASES,E0800CT,,,1,LATINA,PUERTA DEL ANGEL,,,,437868.9,4473413.54,-373225847,40.40902118,
1003,,ENVASES,E0800CT,,,1,LATINA,PUERTA DEL ANGEL,,,,437642.32,4473113.22,-373489924,40.40629883,
1004,,ENVASES,E0800CT,,,1,LATINA,PUERTA DEL ANGEL,,,,437488.17,4473307.85,-373673491,40.40804058,
1005,,ENVASES,E0800CT,,,1,LATINA,PUERTA DEL ANGEL,,,,438072.96,4473279.24,-372984060,40.40782655,
1006,,ENVASES,E0800CT,,,1,LATINA,PUERTA DEL ANGEL,,,,437384.39,4473550.82,-373798182,40.41022155,
1007,,ENVASES,E0800CT,,,1,LATINA,PUERTA DEL ANGEL,,,,437384.39,4473550.82,-373798182,40.41022155,
1008,,ENVASES,E0800CT,,,1,LATINA,PUERTA DEL ANGEL,,,,437141.54,4473295.92,-374081862,40.40790701,
1009,,ENVASES,E0800CT,,,1,LATINA,PUERTA DEL ANGEL,,,,437208.85,4473249.61,-374002083,40.40749491,
1010,,ENVASES,E0800CT,,,1,LATINA,PUERTA DEL ANGEL,,,,437244.76,4473287.65,-373960140,40.40784029,
1011,,ENVASES,E0800CT,,,1,LATINA,PUERTA DEL ANGEL,,,,438437.6,4473617.78,-372557621,40.41090332,
1012,,ENVASES,E0800CT,,,1,LATINA,PUERTA DEL ANGEL,,,,438437.6,4473617.78,-372557621,40.41090332,
1013,,ENVASES,E0800CT,,,1,LATINA,PUERTA DEL ANGEL,,,,437809.11,4473016.54,-373292429,40.40544037,
1014,,ENVASES,E0800CT,,,1,LATINA,PUERTA DEL ANGEL,,,,437809.11,4473016.54,-373292429,40.40544037,
1015,,ENVASES,E0800CT,,,1,LATINA,PUERTA DEL ANGEL,,,,438423.82,4473835.27,-372575966,40.41286154,
1016,,ENVASES,E0800CT,,,1,LATINA,PUERTA DEL ANGEL,,,,437885.43,4473736.75,-373209522,40.41193403,
1017,,ENVASES,E0800CT,,,1,LATINA,PUERTA DEL ANGEL,,,,438423.82,4473835.27,-372575966,40.41286154,
1018,,ENVASES,E0800CT,,,1,LATINA,PUERTA DEL ANGEL,,,,437140.0,4473478.48,-374085480,40.40955147,
1019,,ENVASES,E0800CT,,,1,LATINA,PUERTA DEL ANGEL,,,,437140.0,4473478.48,-374085480,40.40955147,
1020,,ENVASES,E0800CT,,,1,LATINA,PUERTA DEL ANGEL,,,,437228.0,4473058.92,-373977635,40.40577854,
1021,,ENVASES,E0800CT,,,1,LATINA,PUERTA DEL ANGEL,,,,438632.03,4473558.23,-372327909,40.41038122,
1022,,ENVASES,E0800CT,,,1,LATINA,PUERTA DEL ANGEL,,,,437649.97,4473098.87,-373480768,40.40617013,
1023,,ENVASES,E0800CT,,,1,LATINA,PUERTA DEL ANGEL,,,,437429.73,4472900.23,-373738352,40.40436418,
1024,,ENVASES,E0800CT,,,1,LATINA,PUERTA DEL ANGEL,,,,437561.27,4473254.92,-373586826,40.40756925,
1025,,ENVASES,E0800CT,,,1,LATINA,PUERTA DEL ANGEL,,,,438321.86,4473782.55,-372695620,40.41237907,
1026,,ENVASES,E0800CT,,,1,LATINA,PUERTA DEL ANGEL,,,,438321.86,4473782.55,-372695620,40.41237907,
1027,,ENVASES,E0800CT,,,1,LATINA,PUERTA DEL ANGEL,,,,437072.96,4473233.83,-374162067,40.40734249,
1028,,ENVASES,E0800CT,,,1,LATINA,PUERTA DEL ANGEL,,,,437072.96,4473233.83,-374162067,40.40734249,
1029,,ENVASES,E0800CT,,,1,LATINA,PUERTA DEL ANGEL,,,,437574.07,4472972.41,-373568970,40.40502524,
1030,,ENVASES,E0800CT,,,1,LATINA,PUERTA DEL ANGEL,,,,437704.76,4473121.18,-373416420,40.40637521,
1031,,ENVASES,E0800CT,,,1,LATINA,PUERTA DEL ANGEL,,,,437704.76,4473121.18,-373416420,40.40637521,
1032,,ENVASES,E0800CT,,,1,LATINA,PUERTA DEL ANGEL,,,,437356.22,4473257.52,-373828493,40.40757727,
1033,,ENVASES,E0800CT,,,1,LATINA,PUERTA DEL ANGEL,,,,437356.22,4473257.52,-373828493,40.40757727,
1034,,ENVASES,E0800CT,,,1,LATINA,PUERTA DEL ANGEL,,,,438016.05,4473742.99,-373055643,40.41199998,
1035,,ENVASES,E0800CT,,,1,LATINA,PUERTA DEL ANGEL,,,,437223.87,4473038.51,-373982301,40.40559436,
1036,,ENVASES,E0800CT,,,1,LATINA,PUERTA DEL ANGEL,,,,437023.72,4472926.71,-374217054,40.40457211,
1037,,ENVASES,E0800CT,,,1,LATINA,PUERTA DEL ANGEL,,,,437223.87,4473038.51,-373982301,40.40559436,
1038,,ENVASES,E0800CT,,,1,LATINA,PUERTA DEL ANGEL,,,,437303.2,4473431.64,-373892690,40.40914182,
1039,,ENVASES,E0800CT,,,1,LATINA,PUERTA DEL ANGEL,,,,437140.71,4473155.97,-374081458,40.40664622,
1040,,ENVASES,E0800CT,,,1,LATINA,PUERTA DEL ANGEL,,,,438152.95,4473439.66,-372891354,40.40927763,
1041,,ENVASES,E0800CT,,,1,LATINA,PUERTA DEL ANGEL,,,,437159.78,4473041.01,-374057850,40.40561205,
1042,,ENVASES,E0800CT,,,1,LATINA,PUERTA DEL ANGEL,,,,438184.71,4473610.63,-372855586,40.41082016,
1043,,ENVASES,E0800CT,,,1,LATINA,PUERTA DEL ANGEL,,,,437768.32,4473392.38,-373344171,40.40882305,
1044,,ENVASES,E0800CT,,,1,LATINA,PUERTA DEL ANGEL,,,,438184.71,4473610.63,-372855586,40.41082016,
1045,,ENVASES,E0800CT,,,1,LATINA,PUERTA DEL ANGEL,,,,437768.32,4473392.38,-373344171,40.40882305,
1046,,ENVASES,E0800CT,,,1,LATINA,PUERTA DEL ANGEL,,,,437164.02,4473495.93,-374057345,40.40971048,
1047,,ENVASES,E0800CT,,,1,LATINA,PUERTA DEL ANGEL,,,,437164.02,4473495.93,-374057345,40.40971048,
1048,,ENVASES,E0800CT,,,1,LATINA,PUERTA DEL ANGEL,,,,438232.56,4473497.25,-372798094,40.40980234,
1049,,ENVASES,E0800CT,,,1,LATINA,PUERTA DEL ANGEL,,,,437965.91,4473687.52,-373114194,40.41149654,
1050,,ENVASES,E0800CT,,,1,LATINA,PUERTA DEL ANGEL,,,,437284.44,4473585.0,-373916310,40.41052194,
1051,,ENVASES,E0800CT,,,1,LATINA,PUERTA DEL ANGEL,,,,437258.05,4473044.04,-373942077,40.40564676,
1052,,ENVASES,E0800CT,,,1,LATINA,PUERTA DEL ANGEL,,,,437284.44,4473585.0,-373916310,40.41052194,
1053,,ENVASES,E0800CT,,,1,LATINA,PUERTA DEL ANGEL,,,,438156.07,4474026.92,-372893385,40.41456816,
1054,,ENVASES,E0800CT,,,1,LATINA,PUERTA DEL ANGEL,,,,438289.99,4474091.18,-372736174,40.41515698,
1055,,ENVASES,E0800CT,,,1,LATINA,PUERTA DEL ANGEL,,,,438289.99,4474091.18,-372736174,40.41515698,
1056,,ENVASES,E0800CT,,,1,LATINA,PUERTA DEL ANGEL,,,,438064.76,4473521.47,-372996081,40.41000806,
1057,,ENVASES,E0800CT,,,1,LATINA,PUERTA DEL ANGEL,,,,437634.92,4473563.64,-373503058,40.41035585,
1058,,ENVASES,E0800CT,,,1,LATINA,PUERTA DEL ANGEL,,,,438064.76,4473521.47,-372996081,40.41000806,
1059,,ENVASES,E0800CT,,,1,LATINA,PUERTA DEL ANGEL,,,,437264.51,4473568.68,-373939636,40.41037342,
1060,,ENVASES,E0800CT,,,1,LATINA,PUERTA DEL ANGEL,,,,437264.51,4473568.68,-373939636,40.41037342,
1061,,ENVASES,E0800CT,,,1,LATINA,PUERTA DEL ANGEL,,,,437220.91,4473184.36,-373987228,40.40690802,
1062,,ENVASES,E0800CT,,,1,LATINA,PUERTA DEL ANGEL,,,,437929.52,4473756.3,-373157751,40.41211343,
1063,,ENVASES,E0800CT,,,1,LATINA,PUERTA DEL ANGEL,,,,438037.25,4473676.35,-373030009,40.41140123,
1064,,ENVASES,E0800CT,,,1,LATINA,PUERTA DEL ANGEL,,,,437588.95,4473124.19,-373552924,40.40639365,
1065,,ENVASES,E0800CT,,,1,LATINA,PUERTA DEL ANGEL,,,,438037.25,4473676.35,-373030009,40.41140123,
1066,,ENVASES,E0800CT,,,1,LATINA,PUERTA DEL ANGEL,,,,437492.51,4473606.57,-373671310,40.4107319,
1067,,ENVASES,E0800CT,,,1,LATINA,PUERTA DEL ANGEL,,,,437492.51,4473606.57,-373671310,40.4107319,
1068,,ENVASES,E0800CT,,,1,LATINA,PUERTA DEL ANGEL,,,,437724.46,4473014.65,-373392163,40.40541702,
1069,,ENVASES,E0800CT,,,1,LATINA,PUERTA DEL ANGEL,,,,437724.46,4473014.65,-373392163,40.40541702,
1070,,ENVASES,E0800CT,,,1,LATINA,PUERTA DEL ANGEL,,,,437369.14,4473193.09,-373812633,40.40699783,
1071,,ENVASES,E0800CT,,,1,LATINA,PUERTA DEL ANGEL,,,,437217.78,4473139.51,-373990474,40.40650375,
1072,,ENVASES,E0800CT,,,1,LATINA,PUERTA DEL ANGEL,,,,437816.21,4473496.12,-373288748,40.40976116,
1073,,ENVASES,E0800CT,,,1,LATINA,PUERTA DEL ANGEL,,,,437816.21,4473496.12,-373288748,40.40976116,
1074,,ENVASES,E0800CT,,,1,LATINA,PUERTA DEL ANGEL,,,,437816.21,4473496.12,-373288748,40.40976116,
1075,,ENVASES,E0800CT,,,1,LATINA,PUERTA DEL ANGEL,,,,438382.87,4473765.93,-372623556,40.41223387,
1076,,ENVASES,E0800CT,,,1,LATINA,PUERTA DEL ANGEL,,,,437334.59,4473261.51,-373854022,40.40761158,
1077,,ENVASES,E0800CT,,,1,LATINA,PUERTA DEL ANGEL,,,,438010.19,4473794.5,-373063051,40.41246357,
1078,,ENVASES,E0800CT,,,1,LATINA,PUERTA DEL ANGEL,,,,438172.86,4473405.18,-372867555,40.4089685,
1079,,ENVASES,E0800CT,,,1,LATINA,PUERTA DEL ANGEL,,,,438010.19,4473794.5,-373063051,40.41246357,
1080,,ENVASES,E0800CT,,,1,LATINA,PUERTA DEL ANGEL,,,,437286.79,4473366.91,-373911391,40.40855747,
1081,,ENVASES,E0800CT,,,1,LATINA,PUERTA DEL ANGEL,,,,437859.86,4473886.81,-373241123,40.41328392,
1082,,ENVASES,E0800CT,,,1,LATINA,PUERTA DEL ANGEL,,,,437286.79,4473366.91,-373911391,40.40855747,
1083,,ENVASES,E0800CT,,,1,LATINA,PUERTA DEL ANGEL,,,,438275.96,4473438.92,-372746381,40.4092801,
1084,,ENVASES,E0800CT,,,1,LATINA,PUERTA DEL ANGEL,,,,438275.96,4473438.92,-372746381,40.4092801,
1085,,ENVASES,E0800CT,,,1,LATINA,PUERTA DEL ANGEL,,,,438209.92,4473828.13,-372827988,40.41278137,
1086,,ENVASES,E0800CT,,,1,LATINA,PUERTA DEL ANGEL,,,,438209.92,4473828.13,-372827988,40.41278137,
1087,,ENVASES,E0800CT,,,1,LATINA,PUERTA DEL ANGEL,,,,437548.85,4473740.33,-373606226,40.41194109,
1088,,ENVASES,E0800CT,,,1,LATINA,PUERTA DEL ANGEL,,,,438411.88,4473641.88,-372588166,40.41111852,
1089,,ENVASES,E0800CT,,,1,LATINA,PUERTA DEL ANGEL,,,,437769.63,4473160.37,-373340359,40.4067331,
1090,,ENVASES,E0800CT,,,1,LATINA,PUERTA DEL ANGEL,,,,437548.85,4473740.33,-373606226,40.41194109,
1091,,ENVASES,E0800CT,,,1,LATINA,PUERTA DEL ANGEL,,,,437155.69,4472975.57,-374062024,40.40502223,
1092,,ENVASES,E0800CT,,,1,LATINA,PUERTA DEL ANGEL,,,,438273.29,4473544.76,-372750555,40.41023335,
1093,,ENVASES,E0800CT,,,1,LATINA,PUERTA DEL ANGEL,,,,438273.29,4473544.76,-372750555,40.41023335,
1094,,ENVASES,E0800CT,,,1,LATINA,PUERTA DEL ANGEL,,,,438433.09,4473685.77,-372563594,40.41151547,
1095,,ENVASES,E0800CT,,,1,LATINA,PUERTA DEL ANGEL,,,,438433.09,4473685.77,-372563594,40.41151547,
1096,,ENVASES,E0800CT,,,1,LATINA,PUERTA DEL ANGEL,,,,437831.2,4473707.75,-373273150,40.41166873,
1097,,ENVASES,E0800CT,,,1,LATINA,PUERTA DEL ANGEL,,,,438333.99,4473680.59,-372680336,40.41146147,
1098,,ENVASES,E0800CT,,,1,LATINA,PUERTA DEL ANGEL,,,,437688.76,4473804.66,-373441968,40.41253109,
1099,,ENVASES,E0800CT,,,1,LATINA,PUERTA DEL ANGEL,,,,438610.27,4473437.25,-372352386,40.40928977,
1100,,ENVASES,E0800CT,,,1,LATINA,PUERTA DEL ANGEL,,,,437731.73,4473825.94,-373391535,40.412726,
1101,,ENVASES,E0800CT,,,1,LATINA,LUCERO,,,,436020.2,4472784.89,-375398173,40.40321803,
1102,,ENVASES,E0800CT,,,1,LATINA,LUCERO,,,,436246.22,4473295.5,-375136952,40.40783514,
1103,,ENVASES,E0800CT,,,1,LATINA,LUCERO,,,,436020.2,4472784.89,-375398173,40.40321803,
1104,,ENVASES,E0800CT,,,1,LATINA,LUCERO,,,,436431.38,4472898.62,-374914786,40.40427405,
1105,,ENVASES,E0800CT,,,1,LATINA,LUCERO,,,,436788.61,4472750.36,-374492356,40.40296566,
1106,,ENVASES,E0800CT,,,1,LATINA,LUCERO,,,,436340.44,4472042.61,-375013389,40.39655581,
1107,,ENVASES,E0800CT,,,1,LATINA,LUCERO,,,,436431.38,4472898.62,-374914786,40.40427405,
1108,,ENVASES,E0800CT,,,1,LATINA,LUCERO,,,,436340.44,4472042.61,-375013389,40.39655581,
1109,,ENVASES,E0800CT,,,1,LATINA,LUCERO,,,,436429.21,4473294.69,-374921299,40.40784184,
1110,,ENVASES,E0800CT,,,1,LATINA,LUCERO,,,,437023.08,4473187.3,-374220387,40.40691956,
1111,,ENVASES,E0800CT,,,1,LATINA,LUCERO,,,,436429.21,4473294.69,-374921299,40.40784184,
1112,,ENVASES,E0800CT,,,1,LATINA,LUCERO,,,,437035.21,4473137.86,-374205604,40.4064751,
1113,,ENVASES,E0800CT,,,1,LATINA,LUCERO,,,,436712.9,4472971.42,-374583769,40.4049513,
1114,,ENVASES,E0800CT,,,1,LATINA,LUCERO,,,,436549.44,4472658.16,-374773268,40.40211689,
1115,,ENVASES,E0800CT,,,1,LATINA,LUCERO,,,,436549.44,4472658.16,-374773268,40.40211689,
1116,,ENVASES,E0800CT,,,1,LATINA,LUCERO,,,,436541.52,4472740.86,-374783425,40.40286128,
1117,,ENVASES,E0800CT,,,1,LATINA,LUCERO,,,,435551.6,4472862.05,-375951139,40.40387697,
1118,,ENVASES,E0800CT,,,1,LATINA,LUCERO,,,,436541.52,4472740.86,-374783425,40.40286128,
1119,,ENVASES,E0800CT,,,1,LATINA,LUCERO,,,,436368.36,4471952.27,-374979589,40.39574413,
1120,,ENVASES,E0800CT,,,1,LATINA,LUCERO,,,,435551.6,4472862.05,-375951139,40.40387697,
1121,,ENVASES,E0800CT,,,1,LATINA,LUCERO,,,,436936.82,4473080.49,-374320981,40.40595084,
1122,,ENVASES,E0800CT,,,1,LATINA,LUCERO,,,,436413.03,4472032.64,-374927759,40.39647155,
1123,,ENVASES,E0800CT,,,1,LATINA,LUCERO,,,,436413.03,4472032.64,-374927759,40.39647155,
1124,,ENVASES,E0800CT,,,1,LATINA,LUCERO,,,,436781.14,4473149.94,-374505128,40.40656467,
1125,,ENVASES,E0800CT,,,1,LATINA,LUCERO,,,,436781.14,4473149.94,-374505128,40.40656467,
1126,,ENVASES,E0800CT,,,1,LATINA,LUCERO,,,,436203.87,4472796.9,-375181862,40.40334031,
1127,,ENVASES,E0800CT,,,1,LATINA,LUCERO,,,,436203.87,4472796.9,-375181862,40.40334031,
1128,,ENVASES,E0800CT,,,1,LATINA,LUCERO,,,,436673.07,4472541.79,-374626430,40.40107799,
1129,,ENVASES,E0800CT,,,1,LATINA,LUCERO,,,,436673.07,4472541.79,-374626430,40.40107799,
1130,,ENVASES,E0800CT,,,1,LATINA,LUCERO,,,,436673.07,4472541.79,-374626430,40.40107799,
1131,,ENVASES,E0800CT,,,1,LATINA,LUCERO,,,,436733.24,4472724.0,-374557341,40.40272399,
1132,,ENVASES,E0800CT,,,1,LATINA,LUCERO,,,,436733.24,4472724.0,-374557341,40.40272399,
1133,,ENVASES,E0800CT,,,1,LATINA,CARMENES,,,,436861.03,4472880.65,-374408311,40.40414486,
1134,,ENVASES,E0800CT,,,1,LATINA,CARMENES,,,,436861.03,4472880.65,-374408311,40.40414486,
1135,,ENVASES,E0800CT,,,1,LATINA,CARMENES,,,,437024.38,4472015.68,-374207265,40.39636522,
1136,,ENVASES,E0800CT,,,1,LATINA,CARMENES,,,,436861.03,4472880.65,-374408311,40.40414486,
1137,,ENVASES,E0800CT,,,1,LATINA,CARMENES,,,,438666.41,4473187.88,-372283822,40.40704748,
1138,,ENVASES,E0800CT,,,1,LATINA,CARMENES,,,,438666.41,4473187.88,-372283822,40.40704748,
1139,,ENVASES,E0800CT,,,1,LATINA,CARMENES,,,,437024.38,4472015.68,-374207265,40.39636522,
1140,,ENVASES,E0800CT,,,1,LATINA,CARMENES,,,,437323.08,4472079.48,-373855947,40.39696249,
1141,,ENVASES,E0800CT,,,1,LATINA,CARMENES,,,,437386.44,4472095.9,-373781454,40.39711517,
1142,,ENVASES,E0800CT,,,1,LATINA,CARMENES,,,,437323.08,4472079.48,-373855947,40.39696249,
1143,,ENVASES,E0800CT,,,1,LATINA,CARMENES,,,,437386.44,4472095.9,-373781454,40.39711517,
1144,,ENVASES,E0800CT,,,1,LATINA,CARMENES,,,,438676.08,4473221.0,-372272746,40.40734655,
1145,,ENVASES,E0800CT,,,1,LATINA,CARMENES,,,,437136.48,4471883.84,-374073880,40.39518601,
1146,,ENVASES,E0800CT,,,1,LATINA,CARMENES,,,,437300.55,4472216.64,-373883844,40.39819639,
1147,,ENVASES,E0800CT,,,1,LATINA,CARMENES,,,,437136.48,4471883.84,-374073880,40.39518601,
1148,,ENVASES,E0800CT,,,1,LATINA,CARMENES,,,,437015.19,4472871.47,-374226560,40.40407384,
1149,,ENVASES,E0800CT,,,1,LATINA,CARMENES,,,,437015.19,4472871.47,-374226560,40.40407384,
1150,,ENVASES,E0800CT,,,1,LATINA,CARMENES,,,,438547.88,4473077.45,-372422437,40.40604393,
1151,,ENVASES,E0800CT,,,1,LATINA,CARMENES,,,,438547.88,4473077.45,-372422437,40.40604393,
1152,,ENVASES,E0800CT,,,1,LATINA,CARMENES,,,,437074.47,4472868.65,-374156677,40.40405292,
1153,,ENVASES,E0800CT,,,1,LATINA,CARMENES,,,,437455.67,4472069.33,-373699621,40.39688102,
1154,,ENVASES,E0800CT,,,1,LATINA,CARMENES,,,,437116.67,4471835.64,-374096745,40.39475031,
1155,,ENVASES,E0800CT,,,1,LATINA,CARMENES,,,,438580.3601,4473333.896,-372386637,40.40835651,
1156,,ENVASES,E0800CT,,,1,LATINA,CARMENES,,,,437116.67,4471835.64,-374096745,40.39475031,
1157,,ENVASES,E0800CT,,,1,LATINA,CARMENES,,,,438580.3601,4473333.896,-372386637,40.40835651,
1158,,ENVASES,E0800CT,,,1,LATINA,CARMENES,,,,437974.93,4472939.6,-373096274,40.40475963,
1159,,ENVASES,E0800CT,,,1,LATINA,CARMENES,,,,436854.76,4472214.14,-374409088,40.39814018,
1160,,ENVASES,E0800CT,,,1,LATINA,CARMENES,,,,437275.26,4472858.28,-373919966,40.40397465,
1161,,ENVASES,E0800CT,,,1,LATINA,CARMENES,,,,437117.5,4472912.92,-374106408,40.40445497,
1162,,ENVASES,E0800CT,,,1,LATINA,CARMENES,,,,437275.26,4472858.28,-373919966,40.40397465,
1163,,ENVASES,E0800CT,,,1,LATINA,CARMENES,,,,437179.13,4472862.71,-374033288,40.40400731,
1164,,ENVASES,E0800CT,,,1,LATINA,CARMENES,,,,437179.13,4472862.71,-374033288,40.40400731,
1165,,ENVASES,E0800CT,,,1,LATINA,CARMENES,,,,437363.39,4472860.14,-373816133,40.40399804,
1166,,ENVASES,E0800CT,,,1,LATINA,CARMENES,,,,437050.0003,4472090.008,-374177812,40.39703673,
1167,,ENVASES,E0800CT,,,1,LATINA,CARMENES,,,,437155.78,4472175.26,-374054017,40.39781271,
1168,,ENVASES,E0800CT,,,1,LATINA,CARMENES,,,,437101.15,4472145.79,-374118095,40.3975431,
1169,,ENVASES,E0800CT,,,1,LATINA,CARMENES,,,,437101.15,4472145.79,-374118095,40.3975431,
1170,,ENVASES,E0800CT,,,1,LATINA,CARMENES,,,,437306.11,4471831.69,-373873503,40.39472901,
1171,,ENVASES,E0800CT,,,1,LATINA,CARMENES,,,,437306.11,4471831.69,-373873503,40.39472901,
1172,,ENVASES,E0800CT,,,1,LATINA,CARMENES,,,,437959.11,4473011.69,-373115619,40.40540787,
1173,,ENVASES,E0800CT,,,1,LATINA,CARMENES,,,,437275.38,4471994.56,-373911314,40.3961939,
1174,,ENVASES,E0800CT,,,1,LATINA,CARMENES,,,,437275.38,4471994.56,-373911314,40.3961939,
1175,,ENVASES,E0800CT,,,1,LATINA,CARMENES,,,,437044.85,4471943.17,-374182429,40.39571356,
1176,,ENVASES,E0800CT,,,1,LATINA,CARMENES,,,,437897.81,4472729.01,-373185098,40.4028568,
1177,,ENVASES,E0800CT,,,1,LATINA,CARMENES,,,,437897.81,4472729.01,-373185098,40.4028568,
1178,,ENVASES,E0800CT,,,1,LATINA,CARMENES,,,,437377.09,4472813.83,-373799533,40.40358189,
1179,,ENVASES,E0800CT,,,1,LATINA,CARMENES,,,,437377.09,4472813.83,-373799533,40.40358189,
1180,,ENVASES,E0800CT,,,1,LATINA,CARMENES,,,,438697.95,4473351.36,-372248229,40.4085225,
1181,,ENVASES,E0800CT,,,1,LATINA,CARMENES,,,,437377.09,4472813.83,-373799533,40.40358189,
1182,,ENVASES,E0800CT,,,1,LATINA,CARMENES,,,,436861.81,4472828.49,-374406875,40.40367504,
1183,,ENVASES,E0800CT,,,1,LATINA,CARMENES,,,,437152.3806,4471789.86,-374054218,40.3943406,
1184,,ENVASES,E0800CT,,,1,LATINA,CARMENES,,,,437109.54,4472756.83,-374114246,40.40304824,
1185,,ENVASES,E0800CT,,,1,LATINA,CARMENES,,,,437152.3806,4471789.86,-374054218,40.3943406,
1186,,ENVASES,E0800CT,,,1,LATINA,CARMENES,,,,437109.54,4472756.83,-374114246,40.40304824,
1187,,ENVASES,E0800CT,,,1,LATINA,CARMENES,,,,437495.75,4472110.73,-373652803,40.39725698,
1188,,ENVASES,E0800CT,,,1,LATINA,CARMENES,,,,438518.24,4473040.64,-372457010,40.40571014,
1189,,ENVASES,E0800CT,,,1,LATINA,CARMENES,,,,438542.32,4473184.0,-372430018,40.40700337,
1190,,ENVASES,E0800CT,,,1,LATINA,CARMENES,,,,438625.12,4473021.98,-372330880,40.40554993,
1191,,ENVASES,E0800CT,,,1,LATINA,CARMENES,,,,437021.06,4472723.88,-374218182,40.40274473,
1192,,ENVASES,E0800CT,,,1,LATINA,CARMENES,,,,437021.06,4472723.88,-374218182,40.40274473,
1193,,ENVASES,E0800CT,,,1,LATINA,CARMENES,,,,437231.38,4471910.53,-373962329,40.39543361,
1194,,ENVASES,E0800CT,,,1,LATINA,CARMENES,,,,437806.71,4472921.83,-373294331,40.404587,
1195,,ENVASES,E0800CT,,,1,LATINA,CARMENES,,,,436885.87,4472052.51,-374370830,40.39668651,
1196,,ENVASES,E0800CT,,,1,LATINA,CARMENES,,,,437390.76,4471984.08,-373775264,40.39610817,
1197,,ENVASES,E0800CT,,,1,LATINA,CARMENES,,,,437390.76,4471984.08,-373775264,40.39610817,
1198,,ENVASES,E0800CT,,,1,LATINA,CARMENES,,,,437116.63,4471980.28,-374098221,40.39605329,
1199,,ENVASES,E0800CT,,,1,LATINA,CARMENES,,,,437336.83,4471884.17,-373837824,40.39520408,
1200,,ENVASES,E0800CT,,,1,LATINA,CARMENES,,,,437116.63,4471980.28,-374098221,40.39605329,
1201,,ENVASES,E0800CT,,,1,LATINA,LUCERO,,,,436011.51,4473069.21,-375411272,40.40577862,
1202,,ENVASES,E0800CT,,,1,LATINA,LUCERO,,,,436661.0,4471902.68,-374634295,40.39531971,
1203,,ENVASES,E0800CT,,,1,LATINA,LUCERO,,,,436298.38,4471964.82,-375062168,40.39585183,
1204,,ENVASES,E0800CT,,,1,LATINA,LUCERO,,,,436004.33,4472639.55,-375415413,40.40190753,
1205,,ENVASES,E0800CT,,,1,LATINA,LUCERO,,,,436004.33,4472639.55,-375415413,40.40190753,
1206,,ENVASES,E0800CT,,,1,LATINA,LUCERO,,,,436541.36,4473287.99,-374789069,40.40779004,
1207,,ENVASES,E0800CT,,,1,LATINA,LUCERO,,,,436226.97,4473124.44,-375157923,40.40629269,
1208,,ENVASES,E0800CT,,,1,LATINA,LUCERO,,,,436189.41,4473104.13,-375201981,40.40610685,
1209,,ENVASES,E0800CT,,,1,LATINA,LUCERO,,,,436100.95,4473180.3,-375306989,40.40678623,
1210,,ENVASES,E0800CT,,,1,LATINA,LUCERO,,,,436439.43,4472139.33,-374897719,40.39743467,
1211,,ENVASES,E0800CT,,,1,LATINA,LUCERO,,,,436072.45,4472810.95,-375336865,40.4034568,
1212,,ENVASES,E0800CT,,,1,LATINA,LUCERO,,,,436820.0202,4472314.218,-374451015,40.39903909,
1213,,ENVASES,E0800CT,,,1,LATINA,LUCERO,,,,436533.66,4473043.81,-374795708,40.40558978,
1214,,ENVASES,E0800CT,,,1,LATINA,LUCERO,,,,436355.68,4473187.63,-375006880,40.40687178,
1215,,ENVASES,E0800CT,,,1,LATINA,LUCERO,,,,436355.68,4473187.63,-375006880,40.40687178,
1216,,ENVASES,E0800CT,,,1,LATINA,LUCERO,,,,436533.66,4473043.81,-374795708,40.40558978,
1217,,ENVASES,E0800CT,,,1,LATINA,LUCERO,,,,436555.59,4472567.13,-374765114,40.40129732,
1218,,ENVASES,E0800CT,,,1,LATINA,LUCERO,,,,436555.59,4472567.13,-374765114,40.40129732,
1219,,ENVASES,E0800CT,,,1,LATINA,LUCERO,,,,436843.68,4472185.75,-374421862,40.39788359,
1220,,ENVASES,E0800CT,,,1,LATINA,LUCERO,,,,436571.29,4473202.73,-374752948,40.40702426,
1221,,ENVASES,E0800CT,,,1,LATINA,LUCERO,,,,436571.29,4473202.73,-374752948,40.40702426,
1222,,ENVASES,E0800CT,,,1,LATINA,LUCERO,,,,436034.4,4472691.23,-375380499,40.40237539,
1223,,ENVASES,E0800CT,,,1,LATINA,LUCERO,,,,436034.4,4472691.23,-375380499,40.40237539,
1224,,ENVASES,E0800CT,,,1,LATINA,LUCERO,,,,435532.37,4472804.52,-375973216,40.40335723,
1225,,ENVASES,E0800CT,,,1,LATINA,LUCERO,,,,435532.37,4472804.52,-375973216,40.40335723,
1226,,ENVASES,E0800CT,,,1,LATINA,LUCERO,,,,436485.34,4472912.49,-374851338,40.40440311,
1227,,ENVASES,E0800CT,,,1,LATINA,LUCERO,,,,436288.77,4472880.3,-375082653,40.40409811,
1228,,ENVASES,E0800CT,,,1,LATINA,LUCERO,,,,436485.34,4472912.49,-374851338,40.40440311,
1229,,ENVASES,E0800CT,,,1,LATINA,LUCERO,,,,436801.56,4472782.25,-374477413,40.40325392,
1230,,ENVASES,E0800CT,,,1,LATINA,LUCERO,,,,436723.46,4472907.3,-374570687,40.40437449,
1231,,ENVASES,E0800CT,,,1,LATINA,LUCERO,,,,436723.46,4472907.3,-374570687,40.40437449,
1232,,ENVASES,E0800CT,,,1,LATINA,LUCERO,,,,436801.56,4472782.25,-374477413,40.40325392,
1233,,ENVASES,E0800CT,,,1,LATINA,LUCERO,,,,436474.24,4473277.22,-374868059,40.4076879,
1234,,ENVASES,E0800CT,,,1,LATINA,LUCERO,,,,436474.24,4473277.22,-374868059,40.4076879,
1235,,ENVASES,E0800CT,,,1,LATINA,LUCERO,,,,436731.71,4472279.91,-374554730,40.39872333,
1236,,ENVASES,E0800CT,,,1,LATINA,LUCERO,,,,436731.71,4472279.91,-374554730,40.39872333,
1237,,ENVASES,E0800CT,,,1,LATINA,LUCERO,,,,436139.36,4473172.03,-375261643,40.40671468,
1238,,ENVASES,E0800CT,,,1,LATINA,LUCERO,,,,436139.36,4473172.03,-375261643,40.40671468,
1239,,ENVASES,E0800CT,,,1,LATINA,LUCERO,,,,436941.12,4472922.9,-374314352,40.40453153,
1240,,ENVASES,E0800CT,,,1,LATINA,LUCERO,,,,436505.39,4473023.09,-374828815,40.40540097,
1241,,ENVASES,E0800CT,,,1,LATINA,LUCERO,,,,436941.12,4472922.9,-374314352,40.40453153,
1242,,ENVASES,E0800CT,,,1,LATINA,ALUCHE,,,,436302.0,4471608.79,-375054341,40.39264485,
1243,,ENVASES,E0800CT,,,1,LATINA,ALUCHE,,,,436810.11,4471771.26,-374457304,40.39414715,
1244,,ENVASES,E0800CT,,,1,LATINA,ALUCHE,,,,436814.2278,4471728.013,-374452023,40.39375787,
1245,,ENVASES,E0800CT,,,1,LATINA,ALUCHE,,,,436933.64,4471442.46,-374308503,40.39119454,
1246,,ENVASES,E0800CT,,,1,LATINA,ALUCHE,,,,436652.32,4471392.9,-374639451,40.39072673,
1247,,ENVASES,E0800CT,,,1,LATINA,ALUCHE,,,,436220.24,4471608.86,-375150671,40.39263922,
1248,,ENVASES,E0800CT,,,1,LATINA,ALUCHE,,,,436933.64,4471442.46,-374308503,40.39119454,
1249,,ENVASES,E0800CT,,,1,LATINA,ALUCHE,,,,436808.22,4471575.32,-374457586,40.39238189,
1250,,ENVASES,E0800CT,,,1,LATINA,ALUCHE,,,,436808.22,4471575.32,-374457586,40.39238189,
1251,,ENVASES,E0800CT,,,1,LATINA,ALUCHE,,,,436980.67,4471537.35,-374254032,40.39205291,
1252,,ENVASES,E0800CT,,,1,LATINA,ALUCHE,,,,436859.17,4471608.31,-374397885,40.39268294,
1253,,ENVASES,E0800CT,,,1,LATINA,ALUCHE,,,,436759.95,4471546.93,-374514175,40.39212248,
1254,,ENVASES,E0800CT,,,1,LATINA,ALUCHE,,,,436982.57,4471594.62,-374252361,40.39256896,
1255,,ENVASES,E0800CT,,,1,LATINA,ALUCHE,,,,436210.79,4471671.27,-375162430,40.39320071,
1256,,ENVASES,E0800CT,,,1,LATINA,ALUCHE,,,,436786.33,4471338.82,-374481029,40.39024974,
1257,,ENVASES,E0800CT,,,1,LATINA,ALUCHE,,,,436786.33,4471338.82,-374481029,40.39024974,
1258,,ENVASES,E0800CT,,,1,LATINA,ALUCHE,,,,436982.57,4471594.62,-374252361,40.39256896,
1259,,ENVASES,E0800CT,,,1,LATINA,ALUCHE,,,,436847.08,4471313.6,-374409207,40.39002715,
1260,,ENVASES,E0800CT,,,1,LATINA,ALUCHE,,,,436913.49,4471724.7,-374335038,40.39373555,
1261,,ENVASES,E0800CT,,,1,LATINA,ALUCHE,,,,436875.07,4471344.47,-374376537,40.39030736,
1262,,ENVASES,E0800CT,,,1,LATINA,ALUCHE,,,,434973.63,4471292.62,-376616179,40.38969402,
1263,,ENVASES,E0800CT,,,1,LATINA,ALUCHE,,,,434973.63,4471292.62,-376616179,40.38969402,
1264,,ENVASES,E0800CT,,,1,LATINA,ALUCHE,,,,436954.17,4471474.05,-374284628,40.39148067,
1265,,ENVASES,E0800CT,,,1,LATINA,ALUCHE,,,,436954.17,4471474.05,-374284628,40.39148067,
1266,,ENVASES,E0800CT,,,1,LATINA,ALUCHE,,,,436285.11,4471697.99,-375075133,40.3934471,
1267,,ENVASES,E0800CT,,,1,LATINA,ALUCHE,,,,436285.11,4471697.99,-375075133,40.3934471,
1268,,ENVASES,E0800CT,,,1,LATINA,ALUCHE,,,,436682.98,4471381.33,-374603214,40.39062484,
1269,,ENVASES,E0800CT,,,1,LATINA,ALUCHE,,,,434945.25,4471324.59,-376649941,40.3899798,
1270,,ENVASES,E0800CT,,,1,LATINA,ALUCHE,,,,434945.25,4471324.59,-376649941,40.3899798,
1271,,ENVASES,E0800CT,,,1,LATINA,ALUCHE,,,,435006.64,4471251.13,-376576866,40.38932284,
1272,,ENVASES,E0800CT,,,1,LATINA,ALUCHE,,,,435049.471,4471210.06,-376525987,40.38895621,
1273,,ENVASES,E0800CT,,,1,LATINA,ALUCHE,,,,436753.37,4471352.33,-374519995,40.39036894,
1274,,ENVASES,E0800CT,,,1,LATINA,ALUCHE,,,,435049.471,4471210.06,-376525987,40.38895621,
1275,,ENVASES,E0800CT,,,1,LATINA,ALUCHE,,,,435423.71,4472232.32,-376095454,40.39819422,
1276,,ENVASES,E0800CT,,,1,LATINA,ALUCHE,,,,435423.71,4472232.32,-376095454,40.39819422,
1277,,ENVASES,E0800CT,,,1,LATINA,ALUCHE,,,,435434.8604,4472203.0,-376082018,40.39793095,
1278,,ENVASES,E0800CT,,,1,LATINA,ALUCHE,,,,435435.0212,4472202.19,-376081821,40.39792367,
1279,,ENVASES,E0800CT,,,1,LATINA,ALUCHE,,,,436714.3,4471505.7,-374567550,40.39174759,
1280,,ENVASES,E0800CT,,,1,LATINA,ALUCHE,,,,436714.3,4471505.7,-374567550,40.39174759,
1281,,ENVASES,E0800CT,,,1,LATINA,ALUCHE,,,,436233.13,4471682.14,-375136218,40.39330034,
1282,,ENVASES,E0800CT,,,1,LATINA,ALUCHE,,,,436978.98,4471761.45,-374258241,40.39407157,
1283,,ENVASES,E0800CT,,,1,LATINA,ALUCHE,,,,435097.57,4471150.12,-376468710,40.38841999,
1284,,ENVASES,E0800CT,,,1,LATINA,ALUCHE,,,,436625.36,4471433.04,-374671613,40.39108628,
1285,,ENVASES,E0800CT,,,1,LATINA,ALUCHE,,,,436656.07,4471457.08,-374635671,40.39130518,
1286,,ENVASES,E0800CT,,,1,LATINA,ALUCHE,,,,436656.07,4471457.08,-374635671,40.39130518,
1287,,ENVASES,E0800CT,,,1,LATINA,ALUCHE,,,,436961.17,4471699.78,-374278615,40.39351467,
1288,,ENVASES,E0800CT,,,1,LATINA,CAMPAMENTO,,,,432895.24,4470225.31,-379053547,40.37991449,
1289,,ENVASES,E0800CT,,,1,LATINA,CAMPAMENTO,,,,432895.24,4470225.31,-379053547,40.37991449,
1290,,ENVASES,E0800CT,,,1,LATINA,CAMPAMENTO,,,,434893.46,4472259.69,-376720517,40.39839949,
1291,,ENVASES,E0800CT,,,1,LATINA,CAMPAMENTO,,,,433691.9117,4471688.441,-378130331,40.39315868,
1292,,ENVASES,E0800CT,,,1,LATINA,CAMPAMENTO,,,,434484.22,4472102.24,-377201098,40.39694903,
1293,,ENVASES,E0800CT,,,1,LATINA,CAMPAMENTO,,,,434570.59,4471907.56,-377097331,40.39520207,
1294,,ENVASES,E0800CT,,,1,LATINA,CAMPAMENTO,,,,434570.59,4471907.56,-377097331,40.39520207,
1295,,ENVASES,E0800CT,,,1,LATINA,CAMPAMENTO,,,,433691.7569,4471688.118,-378130510,40.39315576,
1296,,ENVASES,E0800CT,,,1,LATINA,CAMPAMENTO,,,,434218.32,4472256.29,-377515988,40.3983158,
1297,,ENVASES,E0800CT,,,1,LATINA,CAMPAMENTO,,,,434714.21,4472048.41,-376929558,40.39648217,
1298,,ENVASES,E0800CT,,,1,LATINA,CAMPAMENTO,,,,434496.73,4472250.67,-377187885,40.39828712,
1299,,ENVASES,E0800CT,,,1,LATINA,CAMPAMENTO,,,,434496.73,4472250.67,-377187885,40.39828712,
1300,,ENVASES,E0800CT,,,1,LATINA,CAMPAMENTO,,,,432801.47,4470524.37,-379167157,40.38260097,
1301,,ENVASES,E0800CT,,,1,LATINA,PUERTA DEL ANGEL,,,,438635.81,4473679.23,-372324621,40.41147152,
1302,,ENVASES,E0800CT,,,1,LATINA,PUERTA DEL ANGEL,,,,437662.29,4473576.97,-373470933,40.41047798,
1303,,ENVASES,E0800CT,,,1,LATINA,PUERTA DEL ANGEL,,,,437822.58,4473405.04,-373280351,40.40894115,
1304,,ENVASES,E0800CT,,,1,LATINA,PUERTA DEL ANGEL,,,,437261.93,4472922.8,-373936310,40.40455487,
1305,,ENVASES,E0800CT,,,1,LATINA,PUERTA DEL ANGEL,,,,437620.89,4473714.35,-373521070,40.41171246,
1306,,ENVASES,E0800CT,,,1,LATINA,PUERTA DEL ANGEL,,,,437620.89,4473714.35,-373521070,40.41171246,
1307,,ENVASES,E0800CT,,,1,LATINA,PUERTA DEL ANGEL,,,,437658.88,4473248.82,-373471737,40.40752161,
1308,,ENVASES,E0800CT,,,1,LATINA,PUERTA DEL ANGEL,,,,438079.08,4473989.16,-372983756,40.41422227,
1309,,ENVASES,E0800CT,,,1,LATINA,PUERTA DEL ANGEL,,,,438079.08,4473989.16,-372983756,40.41422227,
1310,,ENVASES,E0800CT,,,1,LATINA,PUERTA DEL ANGEL,,,,438066.38,4473724.84,-372996151,40.41184022,
1311,,ENVASES,E0800CT,,,1,LATINA,PUERTA DEL ANGEL,,,,437031.37,4472959.29,-374208362,40.40486618,
1312,,ENVASES,E0800CT,,,1,LATINA,PUERTA DEL ANGEL,,,,437215.38,4473265.94,-373994549,40.40764251,
1313,,ENVASES,E0800CT,,,1,LATINA,PUERTA DEL ANGEL,,,,437215.38,4473265.94,-373994549,40.40764251,
1314,,ENVASES,E0800CT,,,1,LATINA,PUERTA DEL ANGEL,,,,437031.37,4472959.29,-374208362,40.40486618,
1315,,ENVASES,E0800CT,,,1,LATINA,LUCERO,,,,436885.62,4473174.05,-374382244,40.40678979,
1316,,ENVASES,E0800CT,,,1,LATINA,PUERTA DEL ANGEL,,,,438255.49,4473523.93,-372771330,40.41004439,
1317,,ENVASES,E0800CT,,,1,LATINA,LUCERO,,,,436446.91,4472595.62,-374893460,40.40154569,
1318,,ENVASES,E0800CT,,,1,LATINA,LUCERO,,,,436885.62,4473174.05,-374382244,40.40678979,
1319,,ENVASES,E0800CT,,,1,LATINA,LUCERO,,,,436200.53,4473168.45,-375189522,40.40668712,
1320,,ENVASES,E0800CT,,,1,LATINA,LUCERO,,,,436200.53,4473168.45,-375189522,40.40668712,
1321,,ENVASES,E0800CT,,,1,LATINA,LUCERO,,,,436746.59,4471888.55,-374533309,40.39519892,
1322,,ENVASES,E0800CT,,,1,LATINA,LUCERO,,,,436652.04,4472896.44,-374654740,40.40427123,
1323,,ENVASES,E0800CT,,,1,LATINA,LUCERO,,,,436652.04,4472896.44,-374654740,40.40427123,
1324,,ENVASES,E0800CT,,,1,LATINA,LUCERO,,,,436627.2649,4472623.543,-374681218,40.40181097,
1325,,ENVASES,E0800CT,,,1,LATINA,PUERTA DEL ANGEL,,,,437061.2,4473156.331,-374175159,40.40664346,
1326,,ENVASES,E0800CT,,,1,LATINA,LUCERO,,,,436392.34,4472910.88,-374960913,40.40438151,
1327,,ENVASES,E0800CT,,,1,LATINA,LUCERO,,,,436363.22,4472108.57,-374987207,40.39715175,
1328,,ENVASES,E0800CT,,,1,LATINA,LUCERO,,,,436149.78,4473214.43,-375249789,40.40709744,
1329,,ENVASES,E0800CT,,,1,LATINA,LUCERO,,,,436149.78,4473214.43,-375249789,40.40709744,
1330,,ENVASES,E0800CT,,,1,LATINA,LUCERO,,,,436627.2649,4472623.543,-374681218,40.40181097,
1331,,ENVASES,E0800CT,,,1,LATINA,LUCERO,,,,436608.4572,4472210.228,-374699264,40.39808623,
1332,,ENVASES,E0800CT,,,1,LATINA,LUCERO,,,,436215.56,4473097.21,-375171096,40.40604652,
1333,,ENVASES,E0800CT,,,1,LATINA,LUCERO,,,,436608.4572,4472210.228,-374699264,40.39808623,
1334,,ENVASES,E0800CT,,,1,LATINA,LUCERO,,,,436030.99,4473086.83,-375388493,40.40593885,
1335,,ENVASES,E0800CT,,,1,LATINA,LUCERO,,,,436230.84,4472819.94,-375150312,40.40354993,
1336,,ENVASES,E0800CT,,,1,LATINA,LUCERO,,,,436181.24,4473212.19,-375212693,40.40707967,
1337,,ENVASES,E0800CT,,,1,LATINA,LUCERO,,,,436846.45,4473354.34,-374430193,40.40841094,
1338,,ENVASES,E0800CT,,,1,LATINA,LUCERO,,,,436990.98,4473286.38,-374259196,40.40780968,
1339,,ENVASES,E0800CT,,,1,LATINA,LUCERO,,,,436581.65,4472878.78,-374737511,40.40410678,
1340,,ENVASES,E0800CT,,,1,LATINA,LUCERO,,,,436581.65,4472878.78,-374737511,40.40410678,
1341,,ENVASES,E0800CT,,,1,LATINA,LUCERO,,,,437002.6,4473089.62,-374243555,40.40603807,
1342,,ENVASES,E0800CT,,,1,LATINA,LUCERO,,,,436171.5,4473086.29,-375222908,40.40594477,
1343,,ENVASES,E0800CT,,,1,LATINA,LUCERO,,,,436351.07,4472937.02,-375009806,40.40461383,
1344,,ENVASES,E0800CT,,,1,LATINA,LUCERO,,,,436752.23,4473305.74,-374540745,40.40796598,
1345,,ENVASES,E0800CT,,,1,LATINA,LUCERO,,,,435493.0,4472738.12,-376018936,40.40275603,
1346,,ENVASES,E0800CT,,,1,LATINA,LUCERO,,,,435493.0,4472738.12,-376018936,40.40275603,
1347,,ENVASES,E0800CT,,,1,LATINA,LUCERO,,,,436752.23,4473305.74,-374540745,40.40796598,
1348,,ENVASES,E0800CT,,,1,LATINA,LUCERO,,,,436805.31,4472091.59,-374466138,40.39703245,
1349,,ENVASES,E0800CT,,,1,LATINA,LUCERO,,,,436805.31,4472091.59,-374466138,40.39703245,
1350,,ENVASES,E0800CT,,,1,LATINA,LUCERO,,,,436805.31,4472091.59,-374466138,40.39703245,
1351,,ENVASES,E0800CT,,,1,LATINA,LUCERO,,,,436066.29,4472729.19,-375343302,40.4027198,
1352,,ENVASES,E0800CT,,,1,LATINA,LUCERO,,,,436066.29,4472729.19,-375343302,40.4027198,
1353,,ENVASES,E0800CT,,,1,LATINA,LUCERO,,,,436639.1,4472059.9,-374661662,40.39673434,
1354,,ENVASES,E0800CT,,,1,LATINA,LUCERO,,,,436639.1,4472059.9,-374661662,40.39673434,
1355,,ENVASES,E0800CT,,,1,LATINA,LUCERO,,,,436674.38,4472964.83,-374629095,40.40488901,
1356,,ENVASES,E0800CT,,,1,LATINA,LUCERO,,,,436950.17,4473131.01,-374305750,40.40640696,
1357,,ENVASES,E0800CT,,,1,LATINA,LUCERO,,,,436711.7,4473288.52,-374588336,40.40780778,
1358,,ENVASES,E0800CT,,,1,LATINA,LUCERO,,,,436318.73,4473296.44,-375051512,40.40784916,
1359,,ENVASES,E0800CT,,,1,LATINA,LUCERO,,,,436318.73,4473296.44,-375051512,40.40784916,
1360,,ENVASES,E0800CT,,,1,LATINA,LUCERO,,,,436711.7,4473288.52,-374588336,40.40780778,
1361,,ENVASES,E0800CT,,,1,LATINA,LUCERO,,,,436508.09,4472166.05,-374817085,40.39768061,
1362,,ENVASES,E0800CT,,,1,LATINA,LUCERO,,,,436508.09,4472166.05,-374817085,40.39768061,
1363,,ENVASES,E0800CT,,,1,LATINA,LUCERO,,,,436470.36,4472550.62,-374865379,40.4011421,
1364,,ENVASES,E0800CT,,,1,LATINA,LUCERO,,,,436470.36,4472550.62,-374865379,40.4011421,
1365,,ENVASES,E0800CT,,,1,LATINA,LUCERO,,,,436470.36,4472550.62,-374865379,40.4011421,
1366,,ENVASES,E0800CT,,,1,LATINA,LUCERO,,,,436770.68,4473002.15,-374515986,40.40523252,
1367,,ENVASES,E0800CT,,,1,LATINA,LUCERO,,,,436770.68,4473002.15,-374515986,40.40523252,
1368,,ENVASES,E0800CT,,,1,LATINA,LUCERO,,,,436825.37,4472919.07,-374450714,40.40448826,
1369,,ENVASES,E0800CT,,,1,LATINA,LUCERO,,,,436837.4,4472970.74,-374437051,40.40495463,
1370,,ENVASES,E0800CT,,,1,LATINA,LUCERO,,,,436837.4,4472970.74,-374437051,40.40495463,
1371,,ENVASES,E0800CT,,,1,LATINA,LUCERO,,,,436928.91,4472927.46,-374328786,40.40457169,
1372,,ENVASES,E0800CT,,,1,LATINA,LUCERO,,,,436928.91,4472927.46,-374328786,40.40457169,
1373,,ENVASES,E0800CT,,,1,LATINA,LUCERO,,,,436025.37,4472776.26,-375391994,40.40314068,
1374,,ENVASES,E0800CT,,,1,LATINA,LUCERO,,,,436025.37,4472776.26,-375391994,40.40314068,
1375,,ENVASES,E0800CT,,,1,LATINA,LUCERO,,,,436743.42,4472816.0,-374546259,40.40355354,
1376,,ENVASES,E0800CT,,,1,LATINA,LUCERO,,,,436743.42,4472816.0,-374546259,40.40355354,
1377,,ENVASES,E0800CT,,,1,LATINA,LUCERO,,,,436355.06,4472883.62,-375004571,40.40413309,
1378,,ENVASES,E0800CT,,,1,LATINA,LUCERO,,,,436355.06,4472883.62,-375004571,40.40413309,
1379,,ENVASES,E0800CT,,,1,LATINA,LUCERO,,,,436402.09,4473254.45,-374952857,40.40747727,
1380,,ENVASES,E0800CT,,,1,LATINA,LUCERO,,,,436402.09,4473254.45,-374952857,40.40747727,
1381,,ENVASES,E0800CT,,,1,LATINA,LUCERO,,,,436300.58,4472877.62,-375068709,40.40407487,
1382,,ENVASES,E0800CT,,,1,LATINA,LUCERO,,,,436730.5,4472768.52,-374561012,40.40312484,
1383,,ENVASES,E0800CT,,,1,LATINA,LUCERO,,,,436762.2444,4473355.113,-374529434,40.40841151,
1384,,ENVASES,E0800CT,,,1,LATINA,LUCERO,,,,436762.2444,4473355.113,-374529434,40.40841151,
1385,,ENVASES,E0800CT,,,1,LATINA,LUCERO,,,,436300.58,4472877.62,-375068709,40.40407487,
1386,,ENVASES,E0800CT,,,1,LATINA,LUCERO,,,,437053.07,4473313.38,-374186293,40.40805761,
1387,,ENVASES,E0800CT,,,1,LATINA,LUCERO,,,,437067.06,4473253.86,-374169218,40.40752249,
1388,,ENVASES,E0800CT,,,1,LATINA,LUCERO,,,,436774.1,4473070.7,-374512637,40.40585031,
1389,,ENVASES,E0800CT,,,1,LATINA,LUCERO,,,,436774.1,4473070.7,-374512637,40.40585031,
1390,,ENVASES,E0800CT,,,1,LATINA,LUCERO,,,,436310.12,4472848.46,-375057175,40.40381292,
1391,,ENVASES,E0800CT,,,1,LATINA,LUCERO,,,,436310.12,4472848.46,-375057175,40.40381292,
1392,,ENVASES,E0800CT,,,1,LATINA,LUCERO,,,,436205.4,4471999.82,-375172072,40.39616001,
1393,,ENVASES,E0800CT,,,1,LATINA,LUCERO,,,,436241.34,4472949.66,-375139238,40.4047193,
1394,,ENVASES,E0800CT,,,1,LATINA,LUCERO,,,,435570.17,4472808.3,-375928712,40.40339421,
1395,,ENVASES,E0800CT,,,1,LATINA,LUCERO,,,,436241.34,4472949.66,-375139238,40.4047193,
1396,,ENVASES,E0800CT,,,1,LATINA,LUCERO,,,,436445.61,4472993.32,-374898963,40.40512823,
1397,,ENVASES,E0800CT,,,1,LATINA,LUCERO,,,,436445.61,4472993.32,-374898963,40.40512823,
1398,,ENVASES,E0800CT,,,1,LATINA,LUCERO,,,,436011.51,4473069.21,-375411272,40.40577862,
1399,,ENVASES,E0800CT,,,1,LATINA,LUCERO,,,,436790.95,4472972.28,-374491803,40.40496498,
1400,,ENVASES,E0800CT,,,1,LATINA,LUCERO,,,,436790.95,4472972.28,-374491803,40.40496498,
1401,,ENVASES,E0800CT,,,1,LATINA,CAMPAMENTO,,,,434367.96,4471680.84,-377333739,40.39314375,
1402,,ENVASES,E0800CT,,,1,LATINA,CAMPAMENTO,,,,434367.96,4471680.84,-377333739,40.39314375,
1403,,ENVASES,E0800CT,,,1,LATINA,CAMPAMENTO,,,,432337.93,4469734.51,-379704822,40.37544813,
1404,,ENVASES,E0800CT,,,1,LATINA,CAMPAMENTO,,,,434367.96,4471680.84,-377333739,40.39314375,
1405,,ENVASES,E0800CT,,,1,LATINA,CAMPAMENTO,,,,434236.32,4471979.35,-377491918,40.39582245,
1406,,ENVASES,E0800CT,,,1,LATINA,CAMPAMENTO,,,,434704.29,4472183.44,-376942631,40.39769779,
1407,,ENVASES,E0800CT,,,1,LATINA,CAMPAMENTO,,,,434135.39,4472005.07,-377611104,40.39604617,
1408,,ENVASES,E0800CT,,,1,LATINA,CAMPAMENTO,,,,434704.29,4472183.44,-376942631,40.39769779,
1409,,ENVASES,E0800CT,,,1,LATINA,CAMPAMENTO,,,,434665.19,4472248.58,-376989370,40.39828153,
1410,,ENVASES,E0800CT,,,1,LATINA,CAMPAMENTO,,,,434665.19,4472248.58,-376989370,40.39828153,
1411,,ENVASES,E0800CT,,,1,LATINA,CAMPAMENTO,,,,432546.86,4470035.78,-379461916,40.37817901,
1412,,ENVASES,E0800CT,,,1,LATINA,CAMPAMENTO,,,,432546.86,4470035.78,-379461916,40.37817901,
1413,,ENVASES,E0800CT,,,1,LATINA,CAMPAMENTO,,,,432351.26,4470067.37,-379692654,40.37844773,
1414,,ENVASES,E0800CT,,,1,LATINA,CAMPAMENTO,,,,432351.26,4470067.37,-379692654,40.37844773,
1415,,ENVASES,E0800CT,,,1,LATINA,CAMPAMENTO,,,,432764.9,4470097.59,-379205734,40.37875344,
1416,,ENVASES,E0800CT,,,1,LATINA,CAMPAMENTO,,,,434774.27,4472211.26,-376860461,40.39795389,
1417,,ENVASES,E0800CT,,,1,LATINA,CAMPAMENTO,,,,434774.27,4472211.26,-376860461,40.39795389,
1418,,ENVASES,E0800CT,,,1,LATINA,CAMPAMENTO,,,,433925.43,4471870.94,-377857095,40.39482125,
1419,,ENVASES,E0800CT,,,1,LATINA,CAMPAMENTO,,,,432312.73,4470028.74,-379737629,40.37809661,
1420,,ENVASES,E0800CT,,,1,LATINA,CAMPAMENTO,,,,432312.73,4470028.74,-379737629,40.37809661,
1421,,ENVASES,E0800CT,,,1,LATINA,CAMPAMENTO,,,,434463.24,4471987.29,-377224634,40.39591186,
1422,,ENVASES,E0800CT,,,1,LATINA,CAMPAMENTO,,,,434463.24,4471987.29,-377224634,40.39591186,
1423,,ENVASES,E0800CT,,,1,LATINA,CAMPAMENTO,,,,432706.01,4470315.53,-379277404,40.38071196,
1424,,ENVASES,E0800CT,,,1,LATINA,CAMPAMENTO,,,,432706.01,4470315.53,-379277404,40.38071196,
1425,,ENVASES,E0800CT,,,1,LATINA,CAMPAMENTO,,,,434720.69,4472252.4,-376924015,40.39832029,
1426,,ENVASES,E0800CT,,,1,LATINA,CAMPAMENTO,,,,434811.89,4472292.78,-376816969,40.39869119,
1427,,ENVASES,E0800CT,,,1,LATINA,CAMPAMENTO,,,,434226.89,4472014.16,-377503389,40.39613529,
1428,,ENVASES,E0800CT,,,1,LATINA,CAMPAMENTO,,,,434382.82,4472225.03,-377321838,40.39804718,
1429,,ENVASES,E0800CT,,,1,LATINA,CAMPAMENTO,,,,434811.89,4472292.78,-376816969,40.39869119,
1430,,ENVASES,E0800CT,,,1,LATINA,CAMPAMENTO,,,,434865.65,4472234.93,-376753032,40.39817427,
1431,,ENVASES,E0800CT,,,1,LATINA,CAMPAMENTO,,,,434865.65,4472234.93,-376753032,40.39817427,
1432,,ENVASES,E0800CT,,,1,LATINA,CAMPAMENTO,,,,434359.55,4472252.48,-377349540,40.39829263,
1433,,ENVASES,E0800CT,,,1,LATINA,CAMPAMENTO,,,,434359.55,4472252.48,-377349540,40.39829263,
1434,,ENVASES,E0800CT,,,1,LATINA,CAMPAMENTO,,,,434594.1,4472104.02,-377071649,40.3969737,
1435,,ENVASES,E0800CT,,,1,LATINA,CAMPAMENTO,,,,434342.19,4472337.39,-377370871,40.39905616,
1436,,ENVASES,E0800CT,,,1,LATINA,CAMPAMENTO,,,,434342.19,4472337.39,-377370871,40.39905616,
1437,,ENVASES,E0800CT,,,1,LATINA,CAMPAMENTO,,,,434645.21,4471987.09,-377010228,40.39592436,
1438,,ENVASES,E0800CT,,,1,LATINA,CAMPAMENTO,,,,434724.25,4472111.39,-376918374,40.3970503,
1439,,ENVASES,E0800CT,,,1,LATINA,CAMPAMENTO,,,,434248.29,4471755.65,-377475505,40.39380823,
1440,,ENVASES,E0800CT,,,1,LATINA,CAMPAMENTO,,,,434248.29,4471755.65,-377475505,40.39380823,
1441,,ENVASES,E0800CT,,,1,LATINA,CAMPAMENTO,,,,434299.74,4471804.36,-377415389,40.39425108,
1442,,ENVASES,E0800CT,,,1,LATINA,CAMPAMENTO,,,,434304.89,4472231.54,-377413729,40.39809968,
1443,,ENVASES,E0800CT,,,1,LATINA,CAMPAMENTO,,,,434299.74,4471804.36,-377415389,40.39425108,
1444,,ENVASES,E0800CT,,,1,LATINA,CAMPAMENTO,,,,432506.5,4470233.81,-379511555,40.37995967,
1445,,ENVASES,E0800CT,,,1,LATINA,CAMPAMENTO,,,,432675.15,4470116.07,-379311649,40.37891267,
1446,,ENVASES,E0800CT,,,1,LATINA,CAMPAMENTO,,,,434486.2,4472218.69,-377199963,40.39799821,
1447,,ENVASES,E0800CT,,,1,LATINA,CAMPAMENTO,,,,434277.79,4471996.54,-377443234,40.39598058,
1448,,ENVASES,E0800CT,,,1,LATINA,CAMPAMENTO,,,,434569.17,4472035.4,-377100318,40.39635359,
1449,,ENVASES,E0800CT,,,1,LATINA,CAMPAMENTO,,,,432565.22,4469879.25,-379438634,40.37677042,
1450,,ENVASES,E0800CT,,,1,LATINA,CAMPAMENTO,,,,432867.99,4470198.48,-379085363,40.3796706,
1451,,ENVASES,E0800CT,,,1,LATINA,CAMPAMENTO,,,,434429.31,4472163.68,-377266429,40.39749818,
1452,,ENVASES,E0800CT,,,1,LATINA,CAMPAMENTO,,,,434209.19,4471854.23,-377522591,40.39469318,
1453,,ENVASES,E0800CT,,,1,LATINA,CAMPAMENTO,,,,434046.5,4472106.11,-377716884,40.39694934,
1454,,ENVASES,E0800CT,,,1,LATINA,CAMPAMENTO,,,,432424.37,4470139.11,-379607296,40.37909992,
1455,,ENVASES,E0800CT,,,1,LATINA,CAMPAMENTO,,,,432424.37,4470139.11,-379607296,40.37909992,
1456,,ENVASES,E0800CT,,,1,LATINA,CAMPAMENTO,,,,434405.72,4472066.21,-377293220,40.39661828,
1457,,ENVASES,E0800CT,,,1,LATINA,CAMPAMENTO,,,,434405.72,4472066.21,-377293220,40.39661828,
1458,,ENVASES,E0800CT,,,1,LATINA,CAMPAMENTO,,,,434289.74,4472236.54,-377431631,40.39814353,
1459,,ENVASES,E0800CT,,,1,LATINA,CAMPAMENTO,,,,434289.74,4472236.54,-377431631,40.39814353,
1460,,ENVASES,E0800CT,,,1,LATINA,CAMPAMENTO,,,,434301.5,4471948.99,-377414808,40.3955541,
1461,,ENVASES,E0800CT,,,1,LATINA,CAMPAMENTO,,,,434301.5,4471948.99,-377414808,40.3955541,
1462,,ENVASES,E0800CT,,,1,LATINA,CAMPAMENTO,,,,434265.45,4471834.98,-377456106,40.39452421,
1463,,ENVASES,E0800CT,,,1,LATINA,CAMPAMENTO,,,,434189.4,4472323.03,-377550754,40.39891474,
1464,,ENVASES,E0800CT,,,1,LATINA,CAMPAMENTO,,,,432935.45,4470482.86,-379008892,40.38223783,
1465,,ENVASES,E0800CT,,,1,LATINA,CAMPAMENTO,,,,434189.4,4472323.03,-377550754,40.39891474,
1466,,ENVASES,E0800CT,,,1,LATINA,CAMPAMENTO,,,,432935.45,4470482.86,-379008892,40.38223783,
1467,,ENVASES,E0800CT,,,1,LATINA,CAMPAMENTO,,,,434265.45,4471834.98,-377456106,40.39452421,
1468,,ENVASES,E0800CT,,,1,LATINA,CAMPAMENTO,,,,432393.77,4469707.01,-379638758,40.37520493,
1469,,ENVASES,E0800CT,,,1,LATINA,CAMPAMENTO,,,,434243.13,4472334.58,-377487563,40.39902303,
1470,,ENVASES,E0800CT,,,1,LATINA,CAMPAMENTO,,,,434243.13,4472334.58,-377487563,40.39902303,
1471,,ENVASES,E0800CT,,,1,LATINA,CAMPAMENTO,,,,434376.92,4472095.94,-377327460,40.39688383,
1472,,ENVASES,E0800CT,,,1,LATINA,CAMPAMENTO,,,,432706.7,4470431.68,-379277818,40.38175834,
1473,,ENVASES,E0800CT,,,1,LATINA,CAMPAMENTO,,,,434376.92,4472095.94,-377327460,40.39688383,
1474,,ENVASES,E0800CT,,,1,LATINA,CAMPAMENTO,,,,432706.7,4470431.68,-379277818,40.38175834,
1475,,ENVASES,E0800CT,,,1,LATINA,CAMPAMENTO,,,,432815.09,4470146.03,-379147124,40.37919385,
1476,,ENVASES,E0800CT,,,1,LATINA,CAMPAMENTO,,,,432815.09,4470146.03,-379147124,40.37919385,
1477,,ENVASES,E0800CT,,,1,LATINA,CAMPAMENTO,,,,434311.64,4471838.6,-377401722,40.39456047,
1478,,ENVASES,E0800CT,,,1,LATINA,CAMPAMENTO,,,,434639.47,4471979.56,-377016914,40.39585608,
1479,,ENVASES,E0800CT,,,1,LATINA,CAMPAMENTO,,,,432582.01,4470227.12,-379422537,40.37990551,
1480,,ENVASES,E0800CT,,,1,LATINA,CAMPAMENTO,,,,434431.46,4472310.27,-377265405,40.39881888,
1481,,ENVASES,E0800CT,,,1,LATINA,CAMPAMENTO,,,,432582.01,4470227.12,-379422537,40.37990551,
1482,,ENVASES,E0800CT,,,1,LATINA,CAMPAMENTO,,,,434515.68,4471942.94,-377162391,40.39551647,
1483,,ENVASES,E0800CT,,,1,LATINA,CAMPAMENTO,,,,434729.96,4472143.25,-376911973,40.39733776,
1484,,ENVASES,E0800CT,,,1,LATINA,CAMPAMENTO,,,,434547.55,4471877.35,-377124167,40.39492812,
1485,,ENVASES,E0800CT,,,1,LATINA,CAMPAMENTO,,,,434547.55,4471877.35,-377124167,40.39492812,
1486,,ENVASES,E0800CT,,,1,LATINA,CAMPAMENTO,,,,432659.97,4469971.61,-379328003,40.37761009,
1487,,ENVASES,E0800CT,,,1,LATINA,CAMPAMENTO,,,,432794.02,4470126.3,-379171735,40.37901442,
1488,,ENVASES,E0800CT,,,1,LATINA,CAMPAMENTO,,,,434414.35,4471894.36,-377281281,40.39507087,
1489,,ENVASES,E0800CT,,,1,LATINA,CAMPAMENTO,,,,432711.44,4470023.03,-379267919,40.37807746,
1490,,ENVASES,E0800CT,,,1,LATINA,CAMPAMENTO,,,,433959.83,4471789.74,-377815723,40.3940925,
1491,,ENVASES,E0800CT,,,1,LATINA,CAMPAMENTO,,,,434838.94,4472170.98,-376783849,40.39759609,
1492,,ENVASES,E0800CT,,,1,LATINA,CAMPAMENTO,,,,433959.83,4471789.74,-377815723,40.3940925,
1493,,ENVASES,E0800CT,,,1,LATINA,CAMPAMENTO,,,,434838.94,4472170.98,-376783849,40.39759609,
1494,,ENVASES,E0800CT,,,1,LATINA,CAMPAMENTO,,,,432261.4,4469992.97,-379797711,40.37777021,
1495,,ENVASES,E0800CT,,,1,LATINA,CAMPAMENTO,,,,432261.4,4469992.97,-379797711,40.37777021,
1496,,ENVASES,E0800CT,,,1,LATINA,CAMPAMENTO,,,,432464.66,4470178.61,-379560255,40.37945902,
1497,,ENVASES,E0800CT,,,1,LATINA,CAMPAMENTO,,,,434435.91,4472267.95,-377259726,40.398438,
1498,,ENVASES,E0800CT,,,1,LATINA,CAMPAMENTO,,,,432440.93,4469754.98,-379583718,40.37564089,
1499,,ENVASES,E0800CT,,,1,LATINA,CAMPAMENTO,,,,434435.91,4472267.95,-377259726,40.398438,
1500,,ENVASES,E0800CT,,,1,LATINA,CAMPAMENTO,,,,434272.93,4472160.18,-377450650,40.39745432,
1501,,ENVASES,E0800CT,,,1,LATINA,CAMPAMENTO,,,,434639.568,4472329.265,-377020388,40.39900636,
1502,,ENVASES,E0800CT,,,1,LATINA,CAMPAMENTO,,,,434639.7539,4472329.437,-377020171,40.39900793,
1503,,ENVASES,E0800CT,,,1,LATINA,CAMPAMENTO,,,,434596.93,4472074.32,-377068010,40.39670637,
1504,,ENVASES,E0800CT,,,1,LATINA,CAMPAMENTO,,,,434596.93,4472074.32,-377068010,40.39670637,
1505,,ENVASES,E0800CT,,,1,LATINA,CAMPAMENTO,,,,434417.79,4471850.99,-377276782,40.39468045,
1506,,ENVASES,E0800CT,,,1,LATINA,CAMPAMENTO,,,,434230.63,4471801.05,-377496781,40.39421581,
1507,,ENVASES,E0800CT,,,1,LATINA,CAMPAMENTO,,,,434230.63,4471801.05,-377496781,40.39421581,
1508,,ENVASES,E0800CT,,,1,LATINA,CAMPAMENTO,,,,433000.14,4470328.03,-378931059,40.38084827,
1509,,ENVASES,E0800CT,,,1,LATINA,CAMPAMENTO,,,,434417.79,4471850.99,-377276782,40.39468045,
1510,,ENVASES,E0800CT,,,1,LATINA,CAMPAMENTO,,,,433000.14,4470328.03,-378931059,40.38084827,
1511,,ENVASES,E0800CT,,,1,LATINA,CAMPAMENTO,,,,433833.48,4471792.66,-377964619,40.39410878,
1512,,ENVASES,E0800CT,,,1,LATINA,CAMPAMENTO,,,,434323.36,4472167.47,-377391305,40.39752397,
1513,,ENVASES,E0800CT,,,1,LATINA,CAMPAMENTO,,,,434323.36,4472167.47,-377391305,40.39752397,
1514,,ENVASES,E0800CT,,,1,LATINA,CAMPAMENTO,,,,434259.46,4471935.87,-377464205,40.39543259,
1515,,ENVASES,E0800CT,,,1,LATINA,CAMPAMENTO,,,,434259.46,4471935.87,-377464205,40.39543259,
1516,,ENVASES,E0800CT,,,1,LATINA,CAMPAMENTO,,,,434969.0,4472303.9,-376631961,40.39880365,
1517,,ENVASES,E0800CT,,,1,LATINA,ALUCHE,,,,436909.57,4471577.38,-374338198,40.39240813,
1518,,ENVASES,E0800CT,,,1,LATINA,CAMPAMENTO,,,,434969.0,4472303.9,-376631961,40.39880365,
1519,,ENVASES,E0800CT,,,1,LATINA,CAMPAMENTO,,,,434426.12,4471988.44,-377268383,40.3959193,
1520,,ENVASES,E0800CT,,,1,LATINA,CAMPAMENTO,,,,432650.31,4470116.68,-379340915,40.37891615,
1521,,ENVASES,E0800CT,,,1,LATINA,CAMPAMENTO,,,,432650.31,4470116.68,-379340915,40.37891615,
1522,,ENVASES,E0800CT,,,1,LATINA,CAMPAMENTO,,,,434426.12,4471988.44,-377268383,40.3959193,
1523,,ENVASES,E0800CT,,,1,LATINA,CAMPAMENTO,,,,434574.73,4472338.08,-377096877,40.39908067,
1524,,ENVASES,E0800CT,,,1,LATINA,CAMPAMENTO,,,,434858.21,4472245.71,-376761909,40.3982708,
1525,,ENVASES,E0800CT,,,1,LATINA,CAMPAMENTO,,,,434231.34,4471901.08,-377496978,40.39511697,
1526,,ENVASES,E0800CT,,,1,LATINA,CAMPAMENTO,,,,432577.83,4470064.29,-379425738,40.37843835,
1527,,ENVASES,E0800CT,,,1,LATINA,CAMPAMENTO,,,,434858.21,4472245.71,-376761909,40.3982708,
1528,,ENVASES,E0800CT,,,1,LATINA,CAMPAMENTO,,,,432577.83,4470064.29,-379425738,40.37843835,
1529,,ENVASES,E0800CT,,,1,LATINA,CAMPAMENTO,,,,432284.9,4469892.24,-379768960,40.37686471,
1530,,ENVASES,E0800CT,,,1,LATINA,CAMPAMENTO,,,,432284.9,4469892.24,-379768960,40.37686471,
1531,,ENVASES,E0800CT,,,1,LATINA,CAMPAMENTO,,,,434742.28,4472334.79,-376899420,40.39906418,
1532,,ENVASES,E0800CT,,,1,LATINA,CAMPAMENTO,,,,434742.28,4472334.79,-376899420,40.39906418,
1533,,ENVASES,E0800CT,,,1,LATINA,CAMPAMENTO,,,,432458.11,4469947.2,-379565518,40.37737387,
1534,,ENVASES,E0800CT,,,1,LATINA,CAMPAMENTO,,,,432458.11,4469947.2,-379565518,40.37737387,
1535,,ENVASES,E0800CT,,,1,LATINA,CAMPAMENTO,,,,434424.8508,4471766.953,-377267597,40.39392397,
1536,,ENVASES,E0800CT,,,1,LATINA,CAMPAMENTO,,,,434283.77,4471905.91,-377435253,40.39516462,
1537,,ENVASES,E0800CT,,,1,LATINA,CAMPAMENTO,,,,434363.8,4471972.84,-377341650,40.39577386,
1538,,ENVASES,E0800CT,,,1,LATINA,CAMPAMENTO,,,,434620.7251,4472143.755,-377040686,40.39733374,
1539,,ENVASES,E0800CT,,,1,LATINA,CAMPAMENTO,,,,432606.3,4469919.62,-379390672,40.37713741,
1540,,ENVASES,E0800CT,,,1,LATINA,CAMPAMENTO,,,,434620.9225,4472144.235,-377040458,40.39733807,
1541,,ENVASES,E0800CT,,,1,LATINA,CAMPAMENTO,,,,434567.15,4472172.14,-377104103,40.39758523,
1542,,ENVASES,E0800CT,,,1,LATINA,CAMPAMENTO,,,,434567.15,4472172.14,-377104103,40.39758523,
1543,,ENVASES,E0800CT,,,1,LATINA,CAMPAMENTO,,,,434567.15,4472172.14,-377104103,40.39758523,
1544,,ENVASES,E0800CT,,,1,LATINA,CAMPAMENTO,,,,434511.93,4472225.47,-377169716,40.39806131,
1545,,ENVASES,E0800CT,,,1,LATINA,CAMPAMENTO,,,,434511.93,4472225.47,-377169716,40.39806131,
1546,,ENVASES,E0800CT,,,1,LATINA,CAMPAMENTO,,,,434548.32,4472017.57,-377124701,40.39619133,
1547,,ENVASES,E0800CT,,,1,LATINA,CAMPAMENTO,,,,434548.32,4472017.57,-377124701,40.39619133,
1548,,ENVASES,E0800CT,,,1,LATINA,CAMPAMENTO,,,,432338.72,4469852.68,-379705146,40.37651271,
1549,,ENVASES,E0800CT,,,1,LATINA,CAMPAMENTO,,,,432338.72,4469852.68,-379705146,40.37651271,
1550,,ENVASES,E0800CT,,,1,LATINA,CAMPAMENTO,,,,434236.18,4472210.28,-377494468,40.39790274,
1551,,ENVASES,E0800CT,,,1,LATINA,CAMPAMENTO,,,,434274.2,4472308.23,-377450682,40.39878811,
1552,,ENVASES,E0800CT,,,1,LATINA,CAMPAMENTO,,,,434189.24,4471767.98,-377545205,40.39391464,
1553,,ENVASES,E0800CT,,,1,LATINA,AGUILAS,,,,434195.23,4469674.44,-377516525,40.37505571,
1554,,ENVASES,E0800CT,,,1,LATINA,PUERTA DEL ANGEL,,,,437942.64,4473269.36,-373137540,40.40772785,
1555,,ENVASES,E0800CT,,,3,PUENTE DE VALLECAS,NUMANCIA,,,,443970.65,4472188.59,-366024202,40.39841918,
1556,,ENVASES,E0800CT,,,1,LATINA,AGUILAS,,,,434195.05,4470125.98,-377521399,40.37912335,
1557,,ENVASES,E0800CT,,,1,LATINA,AGUILAS,,,,434802.38,4469764.63,-376802300,40.3759159,
1558,,ENVASES,E0800CT,,,1,LATINA,AGUILAS,,,,434397.65,4470979.57,-377291535,40.38682879,
1559,,ENVASES,E0800CT,,,1,LATINA,AGUILAS,,,,434300.86,4469848.14,-377393896,40.3766288,
1560,,ENVASES,E0800CT,,,1,LATINA,AGUILAS,,,,435184.76,4469721.36,-376351457,40.37555593,
1561,,ENVASES,E0800CT,,,1,LATINA,AGUILAS,,,,435167.91,4469766.35,-376371762,40.37595991,
1562,,ENVASES,E0800CT,,,1,LATINA,AGUILAS,,,,435184.76,4469721.36,-376351457,40.37555593,
1563,,ENVASES,E0800CT,,,1,LATINA,AGUILAS,,,,435013.41,4470019.93,-376556332,40.37823223,
1564,,ENVASES,E0800CT,,,1,LATINA,AGUILAS,,,,434226.87,4470234.72,-377485039,40.38010543,
1565,,ENVASES,E0800CT,,,1,LATINA,AGUILAS,,,,434790.24,4469689.62,-376815832,40.37523923,
1566,,ENVASES,E0800CT,,,1,LATINA,AGUILAS,,,,434790.24,4469689.62,-376815832,40.37523923,
1567,,ENVASES,E0800CT,,,1,LATINA,AGUILAS,,,,435001.7,4469559.07,-376565426,40.3740797,
1568,,ENVASES,E0800CT,,,1,LATINA,AGUILAS,,,,434994.16,4469755.1,-376576306,40.37584503,
1569,,ENVASES,E0800CT,,,1,LATINA,AGUILAS,,,,433822.83,4469721.02,-377955649,40.37544584,
1570,,ENVASES,E0800CT,,,1,LATINA,AGUILAS,,,,434447.1,4469911.66,-377222293,40.37721253,
1571,,ENVASES,E0800CT,,,1,LATINA,AGUILAS,,,,434447.1,4469911.66,-377222293,40.37721253,
1572,,ENVASES,E0800CT,,,1,LATINA,AGUILAS,,,,435196.18,4469676.55,-376337550,40.37515315,
1573,,ENVASES,E0800CT,,,1,LATINA,AGUILAS,,,,434060.85,4469690.64,-377674975,40.37519103,
1574,,ENVASES,E0800CT,,,1,LATINA,AGUILAS,,,,434916.95,4469576.93,-376665432,40.37423397,
1575,,ENVASES,E0800CT,,,1,LATINA,AGUILAS,,,,434437.26,4469921.87,-377233989,40.37730373,
1576,,ENVASES,E0800CT,,,1,LATINA,AGUILAS,,,,434656.01,4471195.67,-376989383,40.3887958,
1577,,ENVASES,E0800CT,,,1,LATINA,AGUILAS,,,,434375.73,4470082.27,-377308117,40.37874384,
1578,,ENVASES,E0800CT,,,1,LATINA,AGUILAS,,,,434416.88,4470133.72,-377260175,40.37921056,
1579,,ENVASES,E0800CT,,,1,LATINA,AGUILAS,,,,434283.36,4469959.59,-377415659,40.37763141,
1580,,ENVASES,E0800CT,,,1,LATINA,AGUILAS,,,,434427.36,4470155.79,-377248057,40.3794102,
1581,,ENVASES,E0800CT,,,1,LATINA,AGUILAS,,,,435041.27,4470255.61,-376525917,40.3803575,
1582,,ENVASES,E0800CT,,,1,LATINA,AGUILAS,,,,434713.48,4470050.96,-376909947,40.37848831,
1583,,ENVASES,E0800CT,,,1,LATINA,AGUILAS,,,,434283.36,4469959.59,-377415659,40.37763141,
1584,,ENVASES,E0800CT,,,1,LATINA,AGUILAS,,,,434713.48,4470050.96,-376909947,40.37848831,
1585,,ENVASES,E0800CT,,,1,LATINA,AGUILAS,,,,433808.99,4469805.92,-377972832,40.37620955,
1586,,ENVASES,E0800CT,,,1,LATINA,AGUILAS,,,,434428.76,4471005.06,-377255148,40.38706086,
1587,,ENVASES,E0800CT,,,1,LATINA,AGUILAS,,,,433808.99,4469805.92,-377972832,40.37620955,
1588,,ENVASES,E0800CT,,,1,LATINA,AGUILAS,,,,434745.79,4469960.65,-376870963,40.3776773,
1589,,ENVASES,E0800CT,,,1,LATINA,AGUILAS,,,,434745.79,4469960.65,-376870963,40.3776773,
1590,,ENVASES,E0800CT,,,1,LATINA,AGUILAS,,,,434085.44,4469854.02,-377647701,40.37666476,
1591,,ENVASES,E0800CT,,,1,LATINA,AGUILAS,,,,434085.44,4469854.02,-377647701,40.37666476,
1592,,ENVASES,E0800CT,,,1,LATINA,AGUILAS,,,,434788.87,4469745.02,-376818012,40.37573819,
1593,,ENVASES,E0800CT,,,1,LATINA,AGUILAS,,,,434788.87,4469745.02,-376818012,40.37573819,
1594,,ENVASES,E0800CT,,,1,LATINA,AGUILAS,,,,434599.6,4470114.86,-377044746,40.37905502,
1595,,ENVASES,E0800CT,,,1,LATINA,AGUILAS,,,,434599.6,4470114.86,-377044746,40.37905502,
1596,,ENVASES,E0800CT,,,1,LATINA,AGUILAS,,,,434668.33,4469909.59,-376961682,40.37721126,
1597,,ENVASES,E0800CT,,,1,LATINA,AGUILAS,,,,434668.33,4469909.59,-376961682,40.37721126,
1598,,ENVASES,E0800CT,,,1,LATINA,AGUILAS,,,,433983.38,4469815.09,-377767514,40.37630599,
1599,,ENVASES,E0800CT,,,1,LATINA,AGUILAS,,,,435097.5,4469532.98,-376452321,40.37385213,
1600,,ENVASES,E0800CT,,,1,LATINA,AGUILAS,,,,434945.4422,4469906.041,-376635231,40.37720096,
1601,,ENVASES,E0800CT,,,1,LATINA,AGUILAS,,,,435097.5,4469532.98,-376452321,40.37385213,
1602,,ENVASES,E0800CT,,,1,LATINA,AGUILAS,,,,435286.26,4469715.68,-376231844,40.37551265,
1603,,ENVASES,E0800CT,,,1,LATINA,AGUILAS,,,,434945.4422,4469906.041,-376635231,40.37720096,
1604,,ENVASES,E0800CT,,,1,LATINA,AGUILAS,,,,434630.29,4469683.34,-377004169,40.37517012,
1605,,ENVASES,E0800CT,,,1,LATINA,AGUILAS,,,,434630.29,4469683.34,-377004169,40.37517012,
1606,,ENVASES,E0800CT,,,3,PUENTE DE VALLECAS,NUMANCIA,,,,443721.33,4472779.12,-366323200,40.4037222,
1607,,ENVASES,E0800CT,,,1,LATINA,AGUILAS,,,,434802.38,4469764.63,-376802300,40.3759159,
1608,,ENVASES,E0800CT,,,1,LATINA,AGUILAS,,,,434818.26,4469749.6,-376783441,40.37578174,
1609,,ENVASES,E0800CT,,,1,LATINA,PUERTA DEL ANGEL,,,,437832.59,4473288.88,-373267420,40.40789548,
1610,,ENVASES,E0800CT,,,1,LATINA,AGUILAS,,,,434102.73,4469927.15,-377628091,40.37732491,
1611,,ENVASES,E0800CT,,,3,PUENTE DE VALLECAS,NUMANCIA,,,,443962.91,4472151.35,-366032995,40.39808318,
1612,,ENVASES,E0800CT,,,1,LATINA,AGUILAS,,,,433974.0,4470017.51,-377780660,40.37812872,
1613,,ENVASES,E0800CT,,,1,LATINA,PUERTA DEL ANGEL,,,,437834.1,4473432.76,-373267046,40.40919173,
1614,,ENVASES,E0800CT,,,1,LATINA,PUERTA DEL ANGEL,,,,437834.1,4473432.76,-373267046,40.40919173,
1615,,ENVASES,E0800CT,,,1,LATINA,LUCERO,,,,435940.06,4473023.2,-375495006,40.40535865,
1616,,ENVASES,E0800CT,,,1,LATINA,CARMENES,,,,438559.42,4472916.75,-372407287,40.40459713,
1617,,ENVASES,E0800CT,,,1,LATINA,AGUILAS,,,,434818.26,4469749.6,-376783441,40.37578174,
1618,,ENVASES,E0800CT,,,1,LATINA,CARMENES,,,,438559.42,4472916.75,-372407287,40.40459713,
1619,,ENVASES,E0800CT,,,1,LATINA,LUCERO,,,,435749.88,4472949.26,-375718370,40.40467792,
1620,,ENVASES,E0800CT,,,3,PUENTE DE VALLECAS,PALOMERAS BAJAS,,,,443887.19,4471684.47,-366118102,40.39387216,
1621,,ENVASES,E0800CT,,,1,LATINA,AGUILAS,,,,434677.26,4469899.97,-376951064,40.3771253,
1622,,ENVASES,E0800CT,,,1,LATINA,PUERTA DEL ANGEL,,,,437920.69,4473713.86,-373167744,40.41173046,
1623,,ENVASES,E0800CT,,,1,LATINA,AGUILAS,,,,433974.0,4470017.51,-377780660,40.37812872,
1624,,ENVASES,E0800CT,,,1,LATINA,LUCERO,,,,435940.06,4473023.2,-375495006,40.40535865,
1625,,ENVASES,E0800CT,,,3,PUENTE DE VALLECAS,PALOMERAS BAJAS,,,,443819.47,4471741.48,-366198395,40.39438117,
1626,,ENVASES,E0800CT,,,1,LATINA,AGUILAS,,,,434392.93,4470011.16,-377287125,40.3781046,
1627,,ENVASES,E0800CT,,,1,LATINA,CAMPAMENTO,,,,432999.1032,4470415.576,-378933201,40.38163683,
1628,,ENVASES,E0800CT,,,1,LATINA,AGUILAS,,,,435073.81,4469686.88,-376481792,40.37523668,
1629,,ENVASES,E0800CT,,,1,LATINA,PUERTA DEL ANGEL,,,,437832.59,4473288.88,-373267420,40.40789548,
1630,,ENVASES,E0800CT,,,3,PUENTE DE VALLECAS,NUMANCIA,,,,443601.3331,4472089.425,-366458494,40.39750092,
1631,,ENVASES,E0800CT,,,1,LATINA,AGUILAS,,,,434563.58,4471114.84,-377097446,40.3880604,
1632,,ENVASES,E0800CT,,,1,LATINA,CAMPAMENTO,,,,432999.2329,4470415.454,-378933047,40.38163574,
1633,,ENVASES,E0800CT,,,1,LATINA,AGUILAS,,,,435073.81,4469686.88,-376481792,40.37523668,
1634,,ENVASES,E0800CT,,,1,LATINA,LUCERO,,,,435749.88,4472949.26,-375718370,40.40467792,
1635,,ENVASES,E0800CT,,,1,LATINA,AGUILAS,,,,434519.17,4469912.25,-377137407,40.37722351,
1636,,ENVASES,E0800CT,,,1,LATINA,CAMPAMENTO,,,,434511.29,4472204.23,-377170251,40.39786992,
1637,,ENVASES,E0800CT,,,1,LATINA,AGUILAS,,,,435073.81,4469686.88,-376481792,40.37523668,
1638,,ENVASES,E0800CT,,,3,PUENTE DE VALLECAS,NUMANCIA,,,,444061.27,4471662.86,-365912805,40.39368919,
1639,,ENVASES,E0800CT,,,1,LATINA,AGUILAS,,,,435073.81,4469686.88,-376481792,40.37523668,
1640,,ENVASES,E0800CT,,,1,LATINA,AGUILAS,,,,434519.17,4469912.25,-377137407,40.37722351,
1641,,ENVASES,E0800CT,,,1,LATINA,LUCERO,,,,435749.88,4472949.26,-375718370,40.40467792,
1642,,ENVASES,E0800CT,,,3,PUENTE DE VALLECAS,NUMANCIA,,,,443516.5,4472342.85,-366560701,40.39977817,
1643,,ENVASES,E0800CT,,,1,LATINA,CAMPAMENTO,,,,433864.38,4471724.2,-377927502,40.39349452,
1644,,ENVASES,E0800CT,,,1,LATINA,AGUILAS,,,,434946.25,4469570.88,-376630859,40.37418176,
1645,,ENVASES,E0800CT,,,1,LATINA,AGUILAS,,,,434734.78,4469992.91,-376884263,40.37796704,
1646,,ENVASES,E0800CT,,,1,LATINA,LUCERO,,,,435927.48,4473039.71,-375509997,40.40550641,
1647,,ENVASES,E0800CT,,,3,PUENTE DE VALLECAS,NUMANCIA,,,,443404.46,4472351.24,-366692796,40.39984614,
1648,,ENVASES,E0800CT,,,1,LATINA,CAMPAMENTO,,,,434511.29,4472204.23,-377170251,40.39786992,
1649,,ENVASES,E0800CT,,,1,LATINA,AGUILAS,,,,434562.64,4469895.54,-377086031,40.3770764,
1650,,ENVASES,E0800CT,,,1,LATINA,AGUILAS,,,,434734.78,4469992.91,-376884263,40.37796704,
1651,,ENVASES,E0800CT,,,1,LATINA,CAMPAMENTO,,,,433901.22,4471885.29,-377885769,40.3949486,
1652,,ENVASES,E0800CT,,,3,PUENTE DE VALLECAS,NUMANCIA,,,,443491.7898,4472315.455,-366589575,40.3995297,
1653,,ENVASES,E0800CT,,,1,LATINA,CAMPAMENTO,,,,433670.38,4471718.23,-378156009,40.39342531,
1654,,ENVASES,E0800CT,,,1,LATINA,AGUILAS,,,,433914.42,4469709.01,-377847642,40.37534491,
1655,,ENVASES,E0800CT,,,1,LATINA,AGUILAS,,,,435150.75,4470122.5,-376395598,40.37916692,
1656,,ENVASES,E0800CT,,,1,LATINA,ALUCHE,,,,436902.36,4471385.96,-374344796,40.39068319,
1657,,ENVASES,E0800CT,,,3,PUENTE DE VALLECAS,NUMANCIA,,,,443617.0972,4472267.054,-366441492,40.39910217,
1658,,ENVASES,E0800CT,,,1,LATINA,PUERTA DEL ANGEL,,,,437920.69,4473713.86,-373167744,40.41173046,
1659,,ENVASES,E0800CT,,,1,LATINA,AGUILAS,,,,433914.42,4469709.01,-377847642,40.37534491,
1660,,ENVASES,E0800CT,,,1,LATINA,AGUILAS,,,,433661.16,4470354.08,-378152666,40.38113582,
1661,,ENVASES,E0800CT,,,1,LATINA,ALUCHE,,,,436902.36,4471385.96,-374344796,40.39068319,
1662,,ENVASES,E0800CT,,,3,PUENTE DE VALLECAS,NUMANCIA,,,,443441.51,4472335.42,-366648998,40.39970614,
1663,,ENVASES,E0800CT,,,1,LATINA,CARMENES,,,,437824.85,4472837.83,-373272135,40.40383165,
1664,,ENVASES,E0800CT,,,1,LATINA,AGUILAS,,,,433960.4,4469723.37,-377793632,40.37547792,
1665,,ENVASES,E0800CT,,,1,LATINA,AGUILAS,,,,433661.16,4470354.08,-378152666,40.38113582,
1666,,ENVASES,E0800CT,,,1,LATINA,LUCERO,,,,436747.23,4473386.87,-374547443,40.40869645,
1667,,ENVASES,E0800CT,,,3,PUENTE DE VALLECAS,NUMANCIA,,,,443807.63,4472834.75,-366221995,40.40422918,
1668,,ENVASES,E0800CT,,,1,LATINA,AGUILAS,,,,433960.4,4469723.37,-377793632,40.37547792,
1669,,ENVASES,E0800CT,,,1,LATINA,LUCERO,,,,436205.74,4472808.12,-375179771,40.40344153,
1670,,ENVASES,E0800CT,,,1,LATINA,AGUILAS,,,,433661.16,4470354.08,-378152666,40.38113582,
1671,,ENVASES,E0800CT,,,3,PUENTE DE VALLECAS,NUMANCIA,,,,443930.74,4472809.52,-366076698,40.40401019,
1672,,ENVASES,E0800CT,,,1,LATINA,LUCERO,,,,436747.23,4473386.87,-374547443,40.40869645,
1673,,ENVASES,E0800CT,,,1,LATINA,AGUILAS,,,,434386.24,4469744.37,-377292259,40.37570073,
1674,,ENVASES,E0800CT,,,1,LATINA,AGUILAS,,,,434230.54,4470220.62,-377480570,40.3799787,
1675,,ENVASES,E0800CT,,,1,LATINA,AGUILAS,,,,434189.64,4469874.4,-377525174,40.37685659,
1676,,ENVASES,E0800CT,,,1,LATINA,AGUILAS,,,,434386.24,4469744.37,-377292259,40.37570073,
1677,,ENVASES,E0800CT,,,1,LATINA,PUERTA DEL ANGEL,,,,437969.85,4473165.17,-373104459,40.40679129,
1678,,ENVASES,E0800CT,,,1,LATINA,LUCERO,,,,436205.74,4472808.12,-375179771,40.40344153,
1679,,ENVASES,E0800CT,,,3,PUENTE DE VALLECAS,SAN DIEGO,,,,443208.6857,4471400.438,-366915004,40.39126744,
1680,,ENVASES,E0800CT,,,1,LATINA,AGUILAS,,,,433710.75,4469910.46,-378089636,40.37714348,
1681,,ENVASES,E0800CT,,,1,LATINA,AGUILAS,,,,433770.02,4470385.15,-378024754,40.38142437,
1682,,ENVASES,E0800CT,,,1,LATINA,CARMENES,,,,437045.95,4471729.41,-374179019,40.393788,
1683,,ENVASES,E0800CT,,,1,LATINA,CARMENES,,,,436967.05,4472824.73,-374282824,40.40364914,
1684,,ENVASES,E0800CT,,,3,PUENTE DE VALLECAS,NUMANCIA,,,,443732.12,4472702.11,-366309804,40.40302918,
1685,,ENVASES,E0800CT,,,1,LATINA,AGUILAS,,,,434404.63,4469777.0,-377270933,40.37599612,
1686,,ENVASES,E0800CT,,,1,LATINA,AGUILAS,,,,433770.02,4470385.15,-378024754,40.38142437,
1687,,ENVASES,E0800CT,,,1,LATINA,LUCERO,,,,436518.8232,4472013.855,-374802921,40.39631039,
1688,,ENVASES,E0800CT,,,1,LATINA,CARMENES,,,,436967.05,4472824.73,-374282824,40.40364914,
1689,,ENVASES,E0800CT,,,3,PUENTE DE VALLECAS,SAN DIEGO,,,,443270.74,4471524.93,-366843001,40.39239317,
1690,,ENVASES,E0800CT,,,1,LATINA,AGUILAS,,,,434404.63,4469777.0,-377270933,40.37599612,
1691,,ENVASES,E0800CT,,,1,LATINA,AGUILAS,,,,433770.02,4470385.15,-378024754,40.38142437,
1692,,ENVASES,E0800CT,,,1,LATINA,PUERTA DEL ANGEL,,,,437969.85,4473165.17,-373104459,40.40679129,
1693,,ENVASES,E0800CT,,,1,LATINA,PUERTA DEL ANGEL,,,,438029.91,4473600.7,-373037923,40.4107192,
1694,,ENVASES,E0800CT,,,3,PUENTE DE VALLECAS,SAN DIEGO,,,,443313.21,4472045.45,-366797596,40.3970852,
1695,,ENVASES,E0800CT,,,1,LATINA,AGUILAS,,,,435145.18,4470240.25,-376403358,40.38022722,
1696,,ENVASES,E0800CT,,,1,LATINA,AGUILAS,,,,434952.55,4469802.59,-376625803,40.37626959,
1697,,ENVASES,E0800CT,,,1,LATINA,LUCERO,,,,436518.8232,4472013.855,-374802921,40.39631039,
1698,,ENVASES,E0800CT,,,1,LATINA,LUCERO,,,,435969.78,4472973.72,-375459486,40.4049152,
1699,,ENVASES,E0800CT,,,3,PUENTE DE VALLECAS,SAN DIEGO,,,,443326.3,4472026.14,-366782001,40.39691214,
1700,,ENVASES,E0800CT,,,1,LATINA,AGUILAS,,,,435036.78,4469614.1,-376524667,40.37457816,
1701,,ENVASES,E0800CT,,,1,LATINA,AGUILAS,,,,434952.55,4469802.59,-376625803,40.37626959,
1702,,ENVASES,E0800CT,,,1,LATINA,LUCERO,,,,436449.64,4473230.02,-374896577,40.40726082,
1703,,ENVASES,E0800CT,,,1,LATINA,AGUILAS,,,,434322.9,4470957.07,-377379365,40.38662021,
1704,,ENVASES,E0800CT,,,1,LATINA,AGUILAS,,,,434346.14,4469664.92,-377338674,40.37498185,
1705,,ENVASES,E0800CT,,,1,LATINA,AGUILAS,,,,434346.36,4469838.5,-377340202,40.37654555,
1706,,ENVASES,E0800CT,,,1,LATINA,AGUILAS,,,,434178.86,4470382.49,-377543119,40.38143281,
1707,,ENVASES,E0800CT,,,1,LATINA,LUCERO,,,,435969.78,4472973.72,-375459486,40.4049152,
1708,,ENVASES,E0800CT,,,3,PUENTE DE VALLECAS,SAN DIEGO,,,,443270.74,4471524.93,-366843001,40.39239317,
1709,,ENVASES,E0800CT,,,1,LATINA,ALUCHE,,,,437100.79,4471658.57,-374113707,40.39315399,
1710,,ENVASES,E0800CT,,,1,LATINA,AGUILAS,,,,435051.29,4470161.72,-376513157,40.37951248,
1711,,ENVASES,E0800CT,,,1,LATINA,AGUILAS,,,,434346.36,4469838.5,-377340202,40.37654555,
1712,,ENVASES,E0800CT,,,3,PUENTE DE VALLECAS,SAN DIEGO,,,,443313.21,4472045.45,-366797596,40.3970852,
1713,,ENVASES,E0800CT,,,1,LATINA,LUCERO,,,,435980.89,4472942.22,-375446077,40.40463229,
1714,,ENVASES,E0800CT,,,1,LATINA,LUCERO,,,,436449.64,4473230.02,-374896577,40.40726082,
1715,,ENVASES,E0800CT,,,1,LATINA,AGUILAS,,,,435051.29,4470161.72,-376513157,40.37951248,
1716,,ENVASES,E0800CT,,,1,LATINA,AGUILAS,,,,434734.48,4469916.25,-376883831,40.37727644,
1717,,ENVASES,E0800CT,,,3,PUENTE DE VALLECAS,PALOMERAS BAJAS,,,,443582.96,4471237.85,-366472599,40.38982819,
1718,,ENVASES,E0800CT,,,1,LATINA,LUCERO,,,,435980.89,4472942.22,-375446077,40.40463229,
1719,,ENVASES,E0800CT,,,1,LATINA,LUCERO,,,,436592.63,4473255.99,-374728330,40.40750567,
1720,,ENVASES,E0800CT,,,1,LATINA,AGUILAS,,,,434609.85,4469757.48,-377029006,40.3758364,
1721,,ENVASES,E0800CT,,,1,LATINA,AGUILAS,,,,435088.81,4470103.59,-376468368,40.37899175,
1722,,ENVASES,E0800CT,,,3,PUENTE DE VALLECAS,NUMANCIA,,,,443914.91,4472201.55,-366089996,40.39853218,
1723,,ENVASES,E0800CT,,,1,LATINA,LUCERO,,,,435980.89,4472942.22,-375446077,40.40463229,
1724,,ENVASES,E0800CT,,,1,LATINA,AGUILAS,,,,434194.05,4470372.58,-377525123,40.38134473,
1725,,ENVASES,E0800CT,,,1,LATINA,AGUILAS,,,,434609.85,4469757.48,-377029006,40.3758364,
1726,,ENVASES,E0800CT,,,1,LATINA,AGUILAS,,,,434734.48,4469916.25,-376883831,40.37727644,
1727,,ENVASES,E0800CT,,,3,PUENTE DE VALLECAS,NUMANCIA,,,,443454.79,4472171.48,-366631894,40.39823018,
1728,,ENVASES,E0800CT,,,1,LATINA,CAMPAMENTO,,,,434011.76,4471991.74,-377756632,40.3959163,
1729,,ENVASES,E0800CT,,,1,LATINA,AGUILAS,,,,434194.05,4470372.58,-377525123,40.38134473,
1730,,ENVASES,E0800CT,,,1,LATINA,AGUILAS,,,,434115.05,4470050.37,-377614853,40.3784359,
1731,,ENVASES,E0800CT,,,1,LATINA,AGUILAS,,,,433826.43,4469897.26,-377953238,40.37703376,
1732,,ENVASES,E0800CT,,,3,PUENTE DE VALLECAS,PORTAZGO,,,,444734.66,4470822.56,-365112105,40.38616421,
1733,,ENVASES,E0800CT,,,1,LATINA,CARMENES,,,,437575.78,4472232.17,-373559696,40.39835697,
1734,,ENVASES,E0800CT,,,1,LATINA,LUCERO,,,,436262.6885,4472070.941,-375105283,40.39680508,
1735,,ENVASES,E0800CT,,,1,LATINA,AGUILAS,,,,433970.83,4469961.1,-377783810,40.37762031,
1736,,ENVASES,E0800CT,,,1,LATINA,AGUILAS,,,,434782.07,4469831.87,-376826911,40.37652003,
1737,,ENVASES,E0800CT,,,3,PUENTE DE VALLECAS,SAN DIEGO,,,,443237.03,4471544.94,-366882897,40.39257114,
1738,,ENVASES,E0800CT,,,1,LATINA,LUCERO,,,,435779.37,4472831.63,-375682432,40.40362054,
1739,,ENVASES,E0800CT,,,1,LATINA,AGUILAS,,,,434474.97,4470216.84,-377192602,40.37996391,
1740,,ENVASES,E0800CT,,,1,LATINA,AGUILAS,,,,433826.43,4469897.26,-377953238,40.37703376,
1741,,ENVASES,E0800CT,,,3,PUENTE DE VALLECAS,PALOMERAS BAJAS,,,,443582.96,4471237.85,-366472599,40.38982819,
1742,,ENVASES,E0800CT,,,1,LATINA,LUCERO,,,,436162.08,4472789.17,-375231029,40.40326747,
1743,,ENVASES,E0800CT,,,1,LATINA,LUCERO,,,,436262.6885,4472070.941,-375105283,40.39680508,
1744,,ENVASES,E0800CT,,,1,LATINA,LUCERO,,,,436162.08,4472789.17,-375231029,40.40326747,
1745,,ENVASES,E0800CT,,,1,LATINA,AGUILAS,,,,434296.84,4470087.21,-377401096,40.37878212,
1746,,ENVASES,E0800CT,,,1,LATINA,AGUILAS,,,,434084.65,4469820.69,-377648287,40.37636445,
1747,,ENVASES,E0800CT,,,1,LATINA,CARMENES,,,,437870.16,4472983.13,-373220160,40.40514396,
1748,,ENVASES,E0800CT,,,3,PUENTE DE VALLECAS,PORTAZGO,,,,444743.47,4470796.74,-365101502,40.38593219,
1749,,ENVASES,E0800CT,,,1,LATINA,CAMPAMENTO,,,,433757.23,4471767.04,-378054191,40.39387192,
1750,,ENVASES,E0800CT,,,1,LATINA,AGUILAS,,,,434474.97,4470216.84,-377192602,40.37996391,
1751,,ENVASES,E0800CT,,,1,LATINA,AGUILAS,,,,434306.5,4469988.87,-377388703,40.377897,
1752,,ENVASES,E0800CT,,,1,LATINA,PUERTA DEL ANGEL,,,,438528.58,4473468.51,-372448958,40.40956535,
1753,,ENVASES,E0800CT,,,3,PUENTE DE VALLECAS,NUMANCIA,,,,444147.39,4471704.95,-365811705,40.39407414,
1754,,ENVASES,E0800CT,,,1,LATINA,CAMPAMENTO,,,,433772.94,4471729.96,-378035296,40.39353914,
1755,,ENVASES,E0800CT,,,1,LATINA,AGUILAS,,,,434855.21,4469970.38,-376742175,40.37777351,
1756,,ENVASES,E0800CT,,,1,LATINA,AGUILAS,,,,434213.09,4469756.01,-377496330,40.37579194,
1757,,ENVASES,E0800CT,,,1,LATINA,CARMENES,,,,437870.16,4472983.13,-373220160,40.40514396,
1758,,ENVASES,E0800CT,,,3,PUENTE DE VALLECAS,NUMANCIA,,,,444101.3,4471681.1,-365865801,40.3938562,
1759,,ENVASES,E0800CT,,,1,LATINA,ALUCHE,,,,436811.04,4471830.14,-374456792,40.39467763,
1760,,ENVASES,E0800CT,,,1,LATINA,AGUILAS,,,,435193.48,4470291.66,-376346985,40.3806941,
1761,,ENVASES,E0800CT,,,1,LATINA,AGUILAS,,,,434213.09,4469756.01,-377496330,40.37579194,
1762,,ENVASES,E0800CT,,,1,FUENCARRAL-EL PARDO,PEÑAGRANDE,,,,439158.88,4481522.79,-371783306,40.48216782,
1763,,ENVASES,E0800CT,,,1,LATINA,CARMENES,,,,437870.16,4472983.13,-373220160,40.40514396,
1764,,ENVASES,E0800CT,,,3,PUENTE DE VALLECAS,SAN DIEGO,,,,443309.99,4471451.7,-366796105,40.39173614,
1765,,ENVASES,E0800CT,,,1,LATINA,LUCERO,,,,435826.17,4472922.1,-375628196,40.40443913,
1766,,ENVASES,E0800CT,,,1,LATINA,AGUILAS,,,,434229.35,4470169.5,-377481444,40.3795181,
1767,,ENVASES,E0800CT,,,1,LATINA,AGUILAS,,,,434968.61,4469650.6,-376605335,40.37490166,
1768,,ENVASES,E0800CT,,,3,PUENTE DE VALLECAS,NUMANCIA,,,,444019.93,4472161.8,-365965900,40.39818116,
1769,,ENVASES,E0800CT,,,1,LATINA,PUERTA DEL ANGEL,,,,438528.58,4473468.51,-372448958,40.40956535,
1770,,ENVASES,E0800CT,,,3,PUENTE DE VALLECAS,SAN DIEGO,,,,443385.8432,4471533.479,-366707462,40.39247801,
1771,,ENVASES,E0800CT,,,1,LATINA,ALUCHE,,,,437003.0846,4471545.191,-374227702,40.39212523,
1772,,ENVASES,E0800CT,,,1,LATINA,AGUILAS,,,,434855.21,4469970.38,-376742175,40.37777351,
1773,,ENVASES,E0800CT,,,1,LATINA,AGUILAS,,,,434084.65,4469820.69,-377648287,40.37636445,
1774,,ENVASES,E0800CT,,,3,PUENTE DE VALLECAS,SAN DIEGO,,,,443087.9,4471868.88,-367061498,40.3954792,
1775,,ENVASES,E0800CT,,,3,PUENTE DE VALLECAS,SAN DIEGO,,,,443212.25,4471837.41,-366914701,40.39520418,
1776,,ENVASES,E0800CT,,,3,PUENTE DE VALLECAS,NUMANCIA,,,,444116.25,4472126.45,-365852095,40.39786917,
1777,,ENVASES,E0800CT,,,3,PUENTE DE VALLECAS,NUMANCIA,,,,444176.48,4472100.47,-365780898,40.39763917,
1778,,ENVASES,E0800CT,,,3,PUENTE DE VALLECAS,NUMANCIA,,,,443922.92,4471910.88,-366077997,40.3959142,
1779,,ENVASES,E0800CT,,,3,PUENTE DE VALLECAS,NUMANCIA,,,,444194.91,4472091.34,-365759102,40.39755816,
1780,,ENVASES,E0800CT,,,3,PUENTE DE VALLECAS,NUMANCIA,,,,443863.34,4471764.02,-366146904,40.39458718,
1781,,ENVASES,E0800CT,,,3,PUENTE DE VALLECAS,NUMANCIA,,,,444015.32,4472123.76,-365970997,40.39783816,
1782,,ENVASES,E0800CT,,,3,PUENTE DE VALLECAS,NUMANCIA,,,,443989.63,4472070.67,-366000801,40.39735817,
1783,,ENVASES,E0800CT,,,3,PUENTE DE VALLECAS,NUMANCIA,,,,443992.4858,4472082.426,-365997539,40.39746426,
1784,,ENVASES,E0800CT,,,3,PUENTE DE VALLECAS,NUMANCIA,,,,443922.87,4471824.52,-366077296,40.39513621,
1785,,ENVASES,E0800CT,,,3,PUENTE DE VALLECAS,NUMANCIA,,,,443954.4558,4471969.707,-366041357,40.39644627,
1786,,ENVASES,E0800CT,,,3,PUENTE DE VALLECAS,NUMANCIA,,,,443976.05,4472013.6,-366016300,40.39684314,
1787,,ENVASES,E0800CT,,,3,PUENTE DE VALLECAS,PORTAZGO,,,,444862.85,4470686.08,-364959903,40.38494321,
1788,,ENVASES,E0800CT,,,3,PUENTE DE VALLECAS,NUMANCIA,,,,443545.33,4472170.13,-366525198,40.39822416,
1789,,ENVASES,E0800CT,,,3,PUENTE DE VALLECAS,NUMANCIA,,,,443986.2773,4471784.683,-366002235,40.39478161,
1790,,ENVASES,E0800CT,,,3,PUENTE DE VALLECAS,NUMANCIA,,,,444105.21,4471749.89,-365861798,40.39447616,
1791,,ENVASES,E0800CT,,,3,PUENTE DE VALLECAS,SAN DIEGO,,,,443488.69,4471894.82,-366589494,40.39574017,
1792,,ENVASES,E0800CT,,,3,PUENTE DE VALLECAS,NUMANCIA,,,,443828.28,4471842.43,-366188905,40.39529118,
1793,,ENVASES,E0800CT,,,3,PUENTE DE VALLECAS,NUMANCIA,,,,444139.75,4471726.43,-365820895,40.39426714,
1794,,ENVASES,E0800CT,,,3,PUENTE DE VALLECAS,NUMANCIA,,,,443970.66,4471791.41,-366020696,40.39484116,
1795,,ENVASES,E0800CT,,,3,PUENTE DE VALLECAS,NUMANCIA,,,,443848.3329,4471909.993,-366165873,40.39590119,
1796,,ENVASES,E0800CT,,,3,PUENTE DE VALLECAS,NUMANCIA,,,,443782.13,4471856.32,-366243404,40.3954132,
1797,,ENVASES,E0800CT,,,3,PUENTE DE VALLECAS,NUMANCIA,,,,444031.34,4471768.42,-365948997,40.39463813,
1798,,ENVASES,E0800CT,,,3,PUENTE DE VALLECAS,NUMANCIA,,,,443926.74,4472865.05,-366081901,40.40451017,
1799,,ENVASES,E0800CT,,,3,PUENTE DE VALLECAS,SAN DIEGO,,,,443098.81,4471248.94,-367043104,40.38989517,
1800,,ENVASES,E0800CT,,,3,PUENTE DE VALLECAS,SAN DIEGO,,,,443315.07,4471921.33,-366794300,40.39596719,
1801,,ENVASES,E0800CT,,,3,PUENTE DE VALLECAS,SAN DIEGO,,,,443315.07,4471921.33,-366794300,40.39596719,
1802,,ENVASES,E0800CT,,,3,PUENTE DE VALLECAS,SAN DIEGO,,,,443497.13,4471843.92,-366579098,40.39528221,
1803,,ENVASES,E0800CT,,,3,PUENTE DE VALLECAS,SAN DIEGO,,,,443336.39,4471912.62,-366769102,40.39589017,
1804,,ENVASES,E0800CT,,,3,PUENTE DE VALLECAS,NUMANCIA,,,,443423.63,4472519.05,-366671699,40.40135917,
1805,,ENVASES,E0800CT,,,3,PUENTE DE VALLECAS,SAN DIEGO,,,,443435.87,4471869.46,-366651504,40.39550813,
1806,,ENVASES,E0800CT,,,3,PUENTE DE VALLECAS,SAN DIEGO,,,,443494.13,4471828.73,-366582498,40.39514516,
1807,,ENVASES,E0800CT,,,3,PUENTE DE VALLECAS,SAN DIEGO,,,,443497.13,4471843.92,-366579098,40.39528221,
1808,,ENVASES,E0800CT,,,3,PUENTE DE VALLECAS,SAN DIEGO,,,,443135.9113,4471767.735,-367004025,40.3945713,
1809,,ENVASES,E0800CT,,,3,PUENTE DE VALLECAS,NUMANCIA,,,,444149.75,4472056.16,-365812005,40.39723821,
1810,,ENVASES,E0800CT,,,3,PUENTE DE VALLECAS,NUMANCIA,,,,444119.55,4472034.62,-365847400,40.39704214,
1811,,ENVASES,E0800CT,,,3,PUENTE DE VALLECAS,SAN DIEGO,,,,443257.02,4471944.3,-366862903,40.39617016,
1812,,ENVASES,E0800CT,,,3,PUENTE DE VALLECAS,NUMANCIA,,,,444087.17,4471959.49,-365884894,40.39636315,
1813,,ENVASES,E0800CT,,,3,PUENTE DE VALLECAS,NUMANCIA,,,,444111.09,4471992.95,-365857003,40.39666618,
1814,,ENVASES,E0800CT,,,3,PUENTE DE VALLECAS,NUMANCIA,,,,443819.22,4472139.1,-366202197,40.39796315,
1815,,ENVASES,E0800CT,,,3,PUENTE DE VALLECAS,NUMANCIA,,,,444111.09,4471992.95,-365857003,40.39666618,
1816,,ENVASES,E0800CT,,,3,PUENTE DE VALLECAS,NUMANCIA,,,,444157.32,4472000.37,-365802596,40.39673613,
1817,,ENVASES,E0800CT,,,3,PUENTE DE VALLECAS,NUMANCIA,,,,444022.9,4472071.09,-365961603,40.39736419,
1818,,ENVASES,E0800CT,,,3,PUENTE DE VALLECAS,NUMANCIA,,,,444055.75,4472048.42,-365922696,40.39716217,
1819,,ENVASES,E0800CT,,,3,PUENTE DE VALLECAS,NUMANCIA,,,,444087.17,4471959.49,-365884894,40.39636315,
1820,,ENVASES,E0800CT,,,3,PUENTE DE VALLECAS,NUMANCIA,,,,444119.79,4472066.59,-365847398,40.39733016,
1821,,ENVASES,E0800CT,,,3,PUENTE DE VALLECAS,SAN DIEGO,,,,443144.78,4471233.38,-366988805,40.38975813,
1822,,ENVASES,E0800CT,,,3,PUENTE DE VALLECAS,SAN DIEGO,,,,443144.78,4471233.38,-366988805,40.38975813,
1823,,ENVASES,E0800CT,,,3,PUENTE DE VALLECAS,SAN DIEGO,,,,443154.43,4471262.39,-366977695,40.39002013,
1824,,ENVASES,E0800CT,,,3,PUENTE DE VALLECAS,SAN DIEGO,,,,443035.59,4471731.63,-367121905,40.39423919,
1825,,ENVASES,E0800CT,,,3,PUENTE DE VALLECAS,SAN DIEGO,,,,443377.39,4471621.36,-366718203,40.39326912,
1826,,ENVASES,E0800CT,,,3,PUENTE DE VALLECAS,NUMANCIA,,,,443789.92,4472748.3,-366242101,40.40344919,
1827,,ENVASES,E0800CT,,,3,PUENTE DE VALLECAS,NUMANCIA,,,,443486.92,4472607.38,-366597904,40.4021592,
1828,,ENVASES,E0800CT,,,3,PUENTE DE VALLECAS,PORTAZGO,,,,444625.07,4471016.4,-365242898,40.38790316,
1829,,ENVASES,E0800CT,,,3,PUENTE DE VALLECAS,PALOMERAS BAJAS,,,,444384.37,4470766.98,-365524297,40.3856402,
1830,,ENVASES,E0800CT,,,3,PUENTE DE VALLECAS,NUMANCIA,,,,443513.14,4472584.53,-366566805,40.40195513,
1831,,ENVASES,E0800CT,,,3,PUENTE DE VALLECAS,NUMANCIA,,,,443486.92,4472607.38,-366597904,40.4021592,
1832,,ENVASES,E0800CT,,,3,PUENTE DE VALLECAS,PALOMERAS BAJAS,,,,444490.96,4470660.29,-365397794,40.38468618,
1833,,ENVASES,E0800CT,,,3,PUENTE DE VALLECAS,PALOMERAS BAJAS,,,,444423.57,4470661.68,-365477197,40.38469421,
1834,,ENVASES,E0800CT,,,3,PUENTE DE VALLECAS,PALOMERAS BAJAS,,,,444393.35,4470948.4,-365515301,40.38727514,
1835,,ENVASES,E0800CT,,,3,PUENTE DE VALLECAS,PALOMERAS BAJAS,,,,444442.22,4470659.32,-365455205,40.38467419,
1836,,ENVASES,E0800CT,,,3,PUENTE DE VALLECAS,NUMANCIA,,,,443961.21,4472809.73,-366040794,40.40401414,
1837,,ENVASES,E0800CT,,,3,PUENTE DE VALLECAS,PALOMERAS BAJAS,,,,444460.9,4470660.07,-365433205,40.3846822,
1838,,ENVASES,E0800CT,,,3,PUENTE DE VALLECAS,NUMANCIA,,,,443920.79,4472773.29,-366088104,40.40368314,
1839,,ENVASES,E0800CT,,,3,PUENTE DE VALLECAS,NUMANCIA,,,,443934.96,4472727.67,-366071004,40.40327313,
1840,,ENVASES,E0800CT,,,3,PUENTE DE VALLECAS,NUMANCIA,,,,443961.74,4472767.33,-366039796,40.40363221,
1841,,ENVASES,E0800CT,,,3,PUENTE DE VALLECAS,NUMANCIA,,,,443934.96,4472727.67,-366071004,40.40327313,
1842,,ENVASES,E0800CT,,,3,PUENTE DE VALLECAS,NUMANCIA,,,,443961.74,4472767.33,-366039796,40.40363221,
1843,,ENVASES,E0800CT,,,3,PUENTE DE VALLECAS,NUMANCIA,,,,443766.2036,4471861.144,-366262212,40.39545558,
1844,,ENVASES,E0800CT,,,3,PUENTE DE VALLECAS,NUMANCIA,,,,443721.0145,4471896.051,-366315765,40.39576699,
1845,,ENVASES,E0800CT,,,3,PUENTE DE VALLECAS,NUMANCIA,,,,443991.85,4471935.56,-365996996,40.39614117,
1846,,ENVASES,E0800CT,,,3,PUENTE DE VALLECAS,NUMANCIA,,,,444025.36,4471911.0,-365957297,40.39592217,
1847,,ENVASES,E0800CT,,,3,PUENTE DE VALLECAS,NUMANCIA,,,,444071.93,4471930.63,-365902597,40.39610214,
1848,,ENVASES,E0800CT,,,3,PUENTE DE VALLECAS,NUMANCIA,,,,444027.23,4471922.75,-365955197,40.39602815,
1849,,ENVASES,E0800CT,,,3,PUENTE DE VALLECAS,NUMANCIA,,,,443988.15,4471928.48,-366001294,40.39607714,
1850,,ENVASES,E0800CT,,,3,PUENTE DE VALLECAS,NUMANCIA,,,,443958.95,4471951.24,-366035900,40.39628021,
1851,,ENVASES,E0800CT,,,3,PUENTE DE VALLECAS,NUMANCIA,,,,443951.93,4471943.41,-366044102,40.3962092,
1852,,ENVASES,E0800CT,,,3,PUENTE DE VALLECAS,NUMANCIA,,,,444071.93,4471930.63,-365902597,40.39610214,
1853,,ENVASES,E0800CT,,,3,PUENTE DE VALLECAS,SAN DIEGO,,,,443570.06,4471430.09,-366489500,40.39155913,
1854,,ENVASES,E0800CT,,,3,PUENTE DE VALLECAS,SAN DIEGO,,,,443068.49,4471693.75,-367082802,40.3939002,
1855,,ENVASES,E0800CT,,,3,PUENTE DE VALLECAS,SAN DIEGO,,,,443238.57,4472096.52,-366885999,40.39754019,
1856,,ENVASES,E0800CT,,,3,PUENTE DE VALLECAS,SAN DIEGO,,,,443140.36,4471982.04,-367000697,40.39650219,
1857,,ENVASES,E0800CT,,,3,PUENTE DE VALLECAS,SAN DIEGO,,,,443091.2,4471789.71,-367056902,40.39476621,
1858,,ENVASES,E0800CT,,,3,PUENTE DE VALLECAS,SAN DIEGO,,,,443093.0555,4471812.043,-367054915,40.39496753,
1859,,ENVASES,E0800CT,,,3,PUENTE DE VALLECAS,SAN DIEGO,,,,443219.1133,4472066.475,-366908657,40.3972682,
1860,,ENVASES,E0800CT,,,3,PUENTE DE VALLECAS,NUMANCIA,,,,443890.64,4472871.87,-366124502,40.40456918,
1861,,ENVASES,E0800CT,,,3,PUENTE DE VALLECAS,SAN DIEGO,,,,443046.29,4471586.46,-367107999,40.39293215,
1862,,ENVASES,E0800CT,,,3,PUENTE DE VALLECAS,PALOMERAS BAJAS,,,,444327.14,4470764.63,-365591698,40.38561521,
1863,,ENVASES,E0800CT,,,3,PUENTE DE VALLECAS,PALOMERAS BAJAS,,,,444349.0,4470736.16,-365565696,40.38536019,
1864,,ENVASES,E0800CT,,,3,PUENTE DE VALLECAS,PALOMERAS BAJAS,,,,444368.48,4470730.91,-365542701,40.3853142,
1865,,ENVASES,E0800CT,,,3,PUENTE DE VALLECAS,PORTAZGO,,,,444702.65,4470773.95,-365149394,40.38572418,
1866,,ENVASES,E0800CT,,,3,PUENTE DE VALLECAS,PORTAZGO,,,,444641.19,4470773.74,-365221798,40.3857182,
1867,,ENVASES,E0800CT,,,3,PUENTE DE VALLECAS,PORTAZGO,,,,444645.08,4470691.79,-365216503,40.38498021,
1868,,ENVASES,E0800CT,,,3,PUENTE DE VALLECAS,PORTAZGO,,,,444791.7,4470890.85,-365045498,40.38678319,
1869,,ENVASES,E0800CT,,,3,PUENTE DE VALLECAS,PALOMERAS BAJAS,,,,443866.09,4471621.02,-366142403,40.39329914,
1870,,ENVASES,E0800CT,,,3,PUENTE DE VALLECAS,PORTAZGO,,,,444834.9,4470936.71,-364995001,40.38719919,
1871,,ENVASES,E0800CT,,,3,PUENTE DE VALLECAS,PORTAZGO,,,,444864.35,4470982.45,-364960701,40.38761319,
1872,,ENVASES,E0800CT,,,3,PUENTE DE VALLECAS,NUMANCIA,,,,443712.85,4472824.91,-366333597,40.40413413,
1873,,ENVASES,E0800CT,,,1,LATINA,AGUILAS,,,,434213.09,4469756.01,-377496330,40.37579194,
1874,,ENVASES,E0800CT,,,1,LATINA,PUERTA DEL ANGEL,,,,438528.58,4473468.51,-372448958,40.40956535,
1875,,ENVASES,E0800CT,,,1,LATINA,AGUILAS,,,,434407.18,4470129.06,-377271553,40.37916782,
1876,,ENVASES,E0800CT,,,3,PUENTE DE VALLECAS,SAN DIEGO,,,,443374.1907,4471472.992,-366720653,40.39193232,
1877,,ENVASES,E0800CT,,,1,LATINA,AGUILAS,,,,434331.56,4470206.3,-377361425,40.37985767,
1878,,ENVASES,E0800CT,,,1,LATINA,PUERTA DEL ANGEL,,,,438259.51,4473579.12,-372767128,40.41054186,
1879,,ENVASES,E0800CT,,,1,LATINA,AGUILAS,,,,435023.47,4469594.57,-376540146,40.37440119,
1880,,ENVASES,E0800CT,,,1,LATINA,AGUILAS,,,,435304.93,4469658.46,-376209272,40.37499864,
1881,,ENVASES,E0800CT,,,1,LATINA,AGUILAS,,,,435019.41,4470102.67,-376550108,40.37897805,
1882,,ENVASES,E0800CT,,,1,LATINA,ALUCHE,,,,435103.27,4472093.43,-376471607,40.39691813,
1883,,ENVASES,E0800CT,,,3,PUENTE DE VALLECAS,SAN DIEGO,,,,443372.33,4471377.86,-366722000,40.39107519,
1884,,ENVASES,E0800CT,,,1,LATINA,AGUILAS,,,,434957.36,4469987.99,-376622029,40.37794012,
1885,,ENVASES,E0800CT,,,1,LATINA,CARMENES,,,,437301.18,4472821.11,-373889056,40.40364176,
1886,,ENVASES,E0800CT,,,1,LATINA,AGUILAS,,,,434443.36,4470177.62,-377229434,40.37960811,
1887,,ENVASES,E0800CT,,,1,LATINA,PUERTA DEL ANGEL,,,,438147.93,4473494.11,-372897799,40.40976777,
1888,,ENVASES,E0800CT,,,3,PUENTE DE VALLECAS,NUMANCIA,,,,443580.24,4472636.31,-366488195,40.40242614,
1889,,ENVASES,E0800CT,,,1,LATINA,AGUILAS,,,,434957.36,4469987.99,-376622029,40.37794012,
1890,,ENVASES,E0800CT,,,1,LATINA,LUCERO,,,,436741.58,4471967.76,-374539999,40.3959121,
1891,,ENVASES,E0800CT,,,1,LATINA,AGUILAS,,,,434282.7,4469946.44,-377416301,40.3775129,
1892,,ENVASES,E0800CT,,,1,LATINA,PUERTA DEL ANGEL,,,,438259.51,4473579.12,-372767128,40.41054186,
1893,,ENVASES,E0800CT,,,3,PUENTE DE VALLECAS,SAN DIEGO,,,,443173.05,4471323.53,-366956303,40.39057218,
1894,,ENVASES,E0800CT,,,1,LATINA,AGUILAS,,,,434957.36,4469987.99,-376622029,40.37794012,
1895,,ENVASES,E0800CT,,,1,LATINA,PUERTA DEL ANGEL,,,,437986.87,4473579.1,-373088435,40.41052141,
1896,,ENVASES,E0800CT,,,1,LATINA,AGUILAS,,,,433865.45,4469920.7,-377907519,40.37724801,
1897,,ENVASES,E0800CT,,,1,LATINA,ALUCHE,,,,435103.27,4472093.43,-376471607,40.39691813,
1898,,ENVASES,E0800CT,,,3,PUENTE DE VALLECAS,SAN DIEGO,,,,443230.68,4471301.0,-366888204,40.39037315,
1899,,ENVASES,E0800CT,,,1,LATINA,AGUILAS,,,,434340.11,4470172.15,-377351002,40.37955071,
1900,,ENVASES,E0800CT,,,1,LATINA,PUERTA DEL ANGEL,,,,437986.87,4473579.1,-373088435,40.41052141,
1901,,ENVASES,E0800CT,,,1,LATINA,AGUILAS,,,,435273.6,4469743.39,-376247037,40.37576129,
1902,,ENVASES,E0800CT,,,1,LATINA,ALUCHE,,,,435103.27,4472093.43,-376471607,40.39691813,
1903,,ENVASES,E0800CT,,,3,PUENTE DE VALLECAS,SAN DIEGO,,,,443372.33,4471377.86,-366722000,40.39107519,
1904,,ENVASES,E0800CT,,,1,LATINA,AGUILAS,,,,434829.94,4469945.12,-376771682,40.37754398,
1905,,ENVASES,E0800CT,,,1,LATINA,CARMENES,,,,436983.97,4471939.73,-374254126,40.39567797,
1906,,ENVASES,E0800CT,,,1,LATINA,AGUILAS,,,,434161.24,4470146.88,-377561441,40.37930895,
1907,,ENVASES,E0800CT,,,1,LATINA,ALUCHE,,,,435114.26,4472105.77,-376458784,40.39703015,
1908,,ENVASES,E0800CT,,,3,PUENTE DE VALLECAS,NUMANCIA,,,,443673.9,4472780.36,-366379102,40.40373017,
1909,,ENVASES,E0800CT,,,1,LATINA,AGUILAS,,,,433985.35,4469846.5,-377765519,40.3765891,
1910,,ENVASES,E0800CT,,,1,LATINA,AGUILAS,,,,433985.35,4469846.5,-377765519,40.3765891,
1911,,ENVASES,E0800CT,,,1,LATINA,AGUILAS,,,,434220.38,4470222.59,-377492559,40.37999565,
1912,,ENVASES,E0800CT,,,1,LATINA,AGUILAS,,,,434581.67,4469976.18,-377064443,40.37780433,
1913,,ENVASES,E0800CT,,,1,LATINA,AGUILAS,,,,434581.67,4469976.18,-377064443,40.37780433,
1914,,ENVASES,E0800CT,,,1,LATINA,AGUILAS,,,,435139.29,4469525.33,-376403021,40.37378647,
1915,,ENVASES,E0800CT,,,1,LATINA,AGUILAS,,,,435139.29,4469525.33,-376403021,40.37378647,
1916,,ENVASES,E0800CT,,,1,LATINA,AGUILAS,,,,434670.19,4470116.02,-376961607,40.37907101,
1917,,ENVASES,E0800CT,,,1,LATINA,AGUILAS,,,,435139.29,4469525.33,-376403021,40.37378647,
1918,,ENVASES,E0800CT,,,1,LATINA,AGUILAS,,,,434670.19,4470116.02,-376961607,40.37907101,
1919,,ENVASES,E0800CT,,,1,LATINA,AGUILAS,,,,434451.97,4471024.61,-377228005,40.3872388,
1920,,ENVASES,E0800CT,,,1,LATINA,AGUILAS,,,,434200.95,4470136.85,-377514561,40.37922173,
1921,,ENVASES,E0800CT,,,1,LATINA,AGUILAS,,,,435072.86,4469540.98,-376481425,40.37392228,
1922,,ENVASES,E0800CT,,,1,LATINA,AGUILAS,,,,435072.86,4469540.98,-376481425,40.37392228,
1923,,ENVASES,E0800CT,,,1,LATINA,AGUILAS,,,,433745.96,4470379.63,-378053039,40.38137274,
1924,,ENVASES,E0800CT,,,1,LATINA,AGUILAS,,,,433745.96,4470379.63,-378053039,40.38137274,
1925,,ENVASES,E0800CT,,,1,LATINA,AGUILAS,,,,433745.96,4470379.63,-378053039,40.38137274,
1926,,ENVASES,E0800CT,,,1,LATINA,AGUILAS,,,,434397.88,4470109.37,-377282305,40.37898971,
1927,,ENVASES,E0800CT,,,1,LATINA,AGUILAS,,,,435093.07,4469800.87,-376460267,40.37626505,
1928,,ENVASES,E0800CT,,,1,LATINA,AGUILAS,,,,435093.07,4469800.87,-376460267,40.37626505,
1929,,ENVASES,E0800CT,,,1,LATINA,AGUILAS,,,,435237.92,4470150.34,-376293199,40.37942449,
1930,,ENVASES,E0800CT,,,1,LATINA,AGUILAS,,,,434597.47,4469830.83,-377044341,40.3764962,
1931,,ENVASES,E0800CT,,,1,LATINA,AGUILAS,,,,434955.2231,4469872.128,-376623364,40.37689622,
1932,,ENVASES,E0800CT,,,1,LATINA,AGUILAS,,,,433835.8882,4470401.306,-377947330,40.38157515,
1933,,ENVASES,E0800CT,,,1,LATINA,AGUILAS,,,,434242.6,4470177.55,-377465920,40.37959166,
1934,,ENVASES,E0800CT,,,1,LATINA,AGUILAS,,,,434955.2231,4469872.128,-376623364,40.37689622,
1935,,ENVASES,E0800CT,,,1,LATINA,AGUILAS,,,,433835.8882,4470401.306,-377947330,40.38157515,
1936,,ENVASES,E0800CT,,,1,LATINA,AGUILAS,,,,433835.8882,4470401.306,-377947330,40.38157515,
1937,,ENVASES,E0800CT,,,1,LATINA,AGUILAS,,,,433835.8882,4470401.306,-377947330,40.38157515,
1938,,ENVASES,E0800CT,,,1,LATINA,AGUILAS,,,,433766.14,4469989.48,-378025213,40.37785972,
1939,,ENVASES,E0800CT,,,1,LATINA,AGUILAS,,,,435165.07,4470390.88,-376381461,40.38158571,
1940,,ENVASES,E0800CT,,,1,LATINA,AGUILAS,,,,433766.14,4469989.48,-378025213,40.37785972,
1941,,ENVASES,E0800CT,,,1,LATINA,AGUILAS,,,,434044.64,4470094.27,-377698245,40.3788258,
1942,,ENVASES,E0800CT,,,1,LATINA,AGUILAS,,,,435256.99,4469804.72,-376267225,40.37631248,
1943,,ENVASES,E0800CT,,,1,LATINA,AGUILAS,,,,434578.14,4470084.76,-377069716,40.37878218,
1944,,ENVASES,E0800CT,,,1,LATINA,AGUILAS,,,,433611.38,4470334.64,-378211104,40.38095674,
1945,,ENVASES,E0800CT,,,1,LATINA,AGUILAS,,,,434578.14,4470084.76,-377069716,40.37878218,
1946,,ENVASES,E0800CT,,,1,LATINA,AGUILAS,,,,433611.38,4470334.64,-378211104,40.38095674,
1947,,ENVASES,E0800CT,,,1,LATINA,AGUILAS,,,,435191.38,4470775.11,-376354376,40.38504905,
1948,,ENVASES,E0800CT,,,1,LATINA,AGUILAS,,,,433611.38,4470334.64,-378211104,40.38095674,
1949,,ENVASES,E0800CT,,,1,LATINA,AGUILAS,,,,435058.18,4469790.15,-376501255,40.37616576,
1950,,ENVASES,E0800CT,,,1,LATINA,AGUILAS,,,,434106.32,4470059.98,-377625236,40.37852178,
1951,,ENVASES,E0800CT,,,1,LATINA,AGUILAS,,,,434106.32,4470059.98,-377625236,40.37852178,
1952,,ENVASES,E0800CT,,,1,LATINA,AGUILAS,,,,433928.22,4470417.02,-377838728,40.38172403,
1953,,ENVASES,E0800CT,,,1,LATINA,AGUILAS,,,,435211.6,4470214.8,-376324859,40.38000313,
1954,,ENVASES,E0800CT,,,1,LATINA,AGUILAS,,,,433928.22,4470417.02,-377838728,40.38172403,
1955,,ENVASES,E0800CT,,,1,LATINA,CAMPAMENTO,,,,434034.4,4471961.3,-377729641,40.39564388,
1956,,ENVASES,E0800CT,,,1,LATINA,ALUCHE,,,,436210.06,4471626.21,-375162839,40.39279474,
1957,,ENVASES,E0800CT,,,1,LATINA,ALUCHE,,,,436210.06,4471626.21,-375162839,40.39279474,
1958,,ENVASES,E0800CT,,,1,LATINA,CAMPAMENTO,,,,433947.24,4472059.02,-377833349,40.39651727,
1959,,ENVASES,E0800CT,,,1,LATINA,CAMPAMENTO,,,,433738.33,4471806.39,-378076868,40.3942249,
1960,,ENVASES,E0800CT,,,1,LATINA,PUERTA DEL ANGEL,,,,437455.05,4473552.53,-373714926,40.41024227,
1961,,ENVASES,E0800CT,,,1,LATINA,CAMPAMENTO,,,,434127.04,4471906.46,-377619922,40.3951572,
1962,,ENVASES,E0800CT,,,1,LATINA,PUERTA DEL ANGEL,,,,437455.05,4473552.53,-373714926,40.41024227,
1963,,ENVASES,E0800CT,,,1,LATINA,CAMPAMENTO,,,,434127.04,4471906.46,-377619922,40.3951572,
1964,,ENVASES,E0800CT,,,1,LATINA,CAMPAMENTO,,,,434127.04,4471906.46,-377619922,40.3951572,
1965,,ENVASES,E0800CT,,,1,LATINA,PUERTA DEL ANGEL,,,,437942.64,4473269.36,-373137540,40.40772785,
1966,,ENVASES,E0800CT,,,1,LATINA,AGUILAS,,,,433865.45,4469920.7,-377907519,40.37724801,
1967,,ENVASES,E0800CT,,,1,LATINA,ALUCHE,,,,435114.26,4472105.77,-376458784,40.39703015,
1968,,ENVASES,E0800CT,,,3,PUENTE DE VALLECAS,NUMANCIA,,,,443752.45,4472843.6,-366287098,40.40430518,
1969,,ENVASES,E0800CT,,,1,LATINA,AGUILAS,,,,434546.99,4469884.42,-377104351,40.376975,
1970,,ENVASES,E0800CT,,,1,LATINA,ALUCHE,,,,435114.26,4472105.77,-376458784,40.39703015,
1971,,ENVASES,E0800CT,,,3,PUENTE DE VALLECAS,SAN DIEGO,,,,443428.44,4471974.75,-366661194,40.39645613,
1972,,ENVASES,E0800CT,,,1,LATINA,PUERTA DEL ANGEL,,,,437046.49,4472921.15,-374190167,40.40452374,
1973,,ENVASES,E0800CT,,,3,PUENTE DE VALLECAS,NUMANCIA,,,,444011.93,4472841.44,-365981304,40.40430321,
1974,,ENVASES,E0800CT,,,1,LATINA,PUERTA DEL ANGEL,,,,437046.49,4472921.15,-374190167,40.40452374,
1975,,ENVASES,E0800CT,,,1,LATINA,AGUILAS,,,,434217.5,4469693.11,-377490486,40.37522566,
1976,,ENVASES,E0800CT,,,3,PUENTE DE VALLECAS,SAN DIEGO,,,,443325.81,4471298.28,-366776101,40.39035513,
1977,,ENVASES,E0800CT,,,1,LATINA,AGUILAS,,,,433879.61,4470412.5,-377895943,40.38167946,
1978,,ENVASES,E0800CT,,,1,LATINA,PUERTA DEL ANGEL,,,,437769.29,4473634.26,-373345394,40.41100208,
1979,,ENVASES,E0800CT,,,1,LATINA,AGUILAS,,,,434217.5,4469693.11,-377490486,40.37522566,
1980,,ENVASES,E0800CT,,,3,PUENTE DE VALLECAS,NUMANCIA,,,,443807.2,4471814.61,-366213497,40.39503914,
1981,,ENVASES,E0800CT,,,1,LATINA,AGUILAS,,,,433879.61,4470412.5,-377895943,40.38167946,
1982,,ENVASES,E0800CT,,,1,LATINA,PUERTA DEL ANGEL,,,,437791.89,4473652.01,-373318933,40.41116367,
1983,,ENVASES,E0800CT,,,1,LATINA,AGUILAS,,,,435194.62,4469831.99,-376340968,40.3765533,
1984,,ENVASES,E0800CT,,,3,PUENTE DE VALLECAS,SAN DIEGO,,,,443325.81,4471298.28,-366776101,40.39035513,
1985,,ENVASES,E0800CT,,,1,LATINA,PUERTA DEL ANGEL,,,,437372.26,4473038.02,-373807431,40.40560112,
1986,,ENVASES,E0800CT,,,1,LATINA,AGUILAS,,,,435279.02,4470224.75,-376245541,40.380098,
1987,,ENVASES,E0800CT,,,3,PUENTE DE VALLECAS,NUMANCIA,,,,443899.73,4471772.07,-366104098,40.39466215,
1988,,ENVASES,E0800CT,,,1,LATINA,PUERTA DEL ANGEL,,,,437473.05,4473107.96,-373689345,40.40623875,
1989,,ENVASES,E0800CT,,,3,PUENTE DE VALLECAS,NUMANCIA,,,,443948.1557,4471696.968,-366046380,40.39398885,
1990,,ENVASES,E0800CT,,,1,LATINA,AGUILAS,,,,433879.61,4470412.5,-377895943,40.38167946,
1991,,ENVASES,E0800CT,,,3,PUENTE DE VALLECAS,SAN DIEGO,,,,443127.1021,4471918.653,-367015752,40.39593025,
1992,,ENVASES,E0800CT,,,1,LATINA,PUERTA DEL ANGEL,,,,437473.05,4473107.96,-373689345,40.40623875,
1993,,ENVASES,E0800CT,,,1,LATINA,AGUILAS,,,,434650.02,4469848.91,-376982627,40.37666319,
1994,,ENVASES,E0800CT,,,3,PUENTE DE VALLECAS,NUMANCIA,,,,443637.35,4472286.55,-366417801,40.39927917,
1995,,ENVASES,E0800CT,,,1,LATINA,PUERTA DEL ANGEL,,,,437556.03,4473320.95,-373593649,40.40816368,
1996,,ENVASES,E0800CT,,,1,LATINA,CAMPAMENTO,,,,433793.16,4471866.43,-378012891,40.39477012,
1997,,ENVASES,E0800CT,,,1,LATINA,AGUILAS,,,,435194.62,4469831.99,-376340968,40.3765533,
1998,,ENVASES,E0800CT,,,3,PUENTE DE VALLECAS,PALOMERAS BAJAS,,,,443713.14,4471472.76,-366321302,40.39195321,
1999,,ENVASES,E0800CT,,,1,LATINA,PUERTA DEL ANGEL,,,,437612.15,4473253.56,-373526853,40.40756081,
2000,,ENVASES,E0800CT,,,1,LATINA,LUCERO,,,,435827.65,4472854.46,-375625770,40.40382992,
2001,,ENVASES,E0800CT,,,1,LATINA,AGUILAS,,,,434865.49,4469766.17,-376727979,40.3759347,
2002,,ENVASES,E0800CT,,,1,FUENCARRAL-EL PARDO,PEÑAGRANDE,,,,438326.76,4480730.54,-372757302,40.47496958,
2003,,ENVASES,E0800CT,,,1,FUENCARRAL-EL PARDO,PEÑAGRANDE,,,,437567.57,4480833.09,-373653875,40.47583666,
2004,,ENVASES,E0800CT,,,1,FUENCARRAL-EL PARDO,PEÑAGRANDE,,,,437567.57,4480833.09,-373653875,40.47583666,
2005,,ENVASES,E0800CT,,,1,FUENCARRAL-EL PARDO,PEÑAGRANDE,,,,438175.4,4481323.67,-372941633,40.48030144,
2006,,ENVASES,E0800CT,,,1,FUENCARRAL-EL PARDO,PEÑAGRANDE,,,,438697.5064,4480941.53,-372321996,40.4768977,
2007,,ENVASES,E0800CT,,,1,FUENCARRAL-EL PARDO,PEÑAGRANDE,,,,438382.98,4481459.88,-372698069,40.48154389,
2008,,ENVASES,E0800CT,,,1,FUENCARRAL-EL PARDO,PEÑAGRANDE,,,,438382.98,4481459.88,-372698069,40.48154389,
2009,,ENVASES,E0800CT,,,1,FUENCARRAL-EL PARDO,PEÑAGRANDE,,,,437794.84,4481198.11,-373389357,40.47914193,
2010,,ENVASES,E0800CT,,,1,FUENCARRAL-EL PARDO,PEÑAGRANDE,,,,438758.95,4481654.09,-372256396,40.48332122,
2011,,ENVASES,E0800CT,,,1,FUENCARRAL-EL PARDO,PEÑAGRANDE,,,,438758.95,4481654.09,-372256396,40.48332122,
2012,,ENVASES,E0800CT,,,1,FUENCARRAL-EL PARDO,PEÑAGRANDE,,,,438758.95,4481654.09,-372256396,40.48332122,
2013,,ENVASES,E0800CT,,,1,FUENCARRAL-EL PARDO,PEÑAGRANDE,,,,437938.7,4481181.33,-373219481,40.47900154,
2014,,ENVASES,E0800CT,,,1,FUENCARRAL-EL PARDO,PEÑAGRANDE,,,,438577.86,4481451.01,-372468074,40.48147843,
2015,,ENVASES,E0800CT,,,1,FUENCARRAL-EL PARDO,PEÑAGRANDE,,,,438577.86,4481451.01,-372468074,40.48147843,
2016,,ENVASES,E0800CT,,,1,FUENCARRAL-EL PARDO,PEÑAGRANDE,,,,438414.7,4481120.7,-372657354,40.4784908,
2017,,ENVASES,E0800CT,,,1,FUENCARRAL-EL PARDO,PEÑAGRANDE,,,,437788.07,4480971.08,-373395117,40.47709627,
2018,,ENVASES,E0800CT,,,1,FUENCARRAL-EL PARDO,PEÑAGRANDE,,,,438205.51,4481187.89,-372904788,40.47908053,
2019,,ENVASES,E0800CT,,,1,FUENCARRAL-EL PARDO,PEÑAGRANDE,,,,438799.92,4480569.42,-372197592,40.47355316,
2020,,ENVASES,E0800CT,,,1,FUENCARRAL-EL PARDO,PEÑAGRANDE,,,,438799.92,4480569.42,-372197592,40.47355316,
2021,,ENVASES,E0800CT,,,1,FUENCARRAL-EL PARDO,PEÑAGRANDE,,,,438525.3,4480859.25,-372524345,40.47614377,
2022,,ENVASES,E0800CT,,,1,FUENCARRAL-EL PARDO,PEÑAGRANDE,,,,438817.67,4480638.43,-372177319,40.47417614,
2023,,ENVASES,E0800CT,,,1,FUENCARRAL-EL PARDO,PEÑAGRANDE,,,,438817.67,4480638.43,-372177319,40.47417614,
2024,,ENVASES,E0800CT,,,1,FUENCARRAL-EL PARDO,PEÑAGRANDE,,,,438817.67,4480638.43,-372177319,40.47417614,
2025,,ENVASES,E0800CT,,,1,FUENCARRAL-EL PARDO,PEÑAGRANDE,,,,438306.62,4481293.83,-372786539,40.48004239,
2026,,ENVASES,E0800CT,,,1,FUENCARRAL-EL PARDO,PEÑAGRANDE,,,,438556.83,4481238.39,-372490824,40.47956152,
2027,,ENVASES,E0800CT,,,1,FUENCARRAL-EL PARDO,PEÑAGRANDE,,,,438556.83,4481238.39,-372490824,40.47956152,
2028,,ENVASES,E0800CT,,,1,FUENCARRAL-EL PARDO,PEÑAGRANDE,,,,437727.94,4481205.91,-373468356,40.47920718,
2029,,ENVASES,E0800CT,,,1,FUENCARRAL-EL PARDO,PEÑAGRANDE,,,,437667.93,4481214.0,-373539230,40.47927556,
2030,,ENVASES,E0800CT,,,1,FUENCARRAL-EL PARDO,PEÑAGRANDE,,,,437667.93,4481214.0,-373539230,40.47927556,
2031,,ENVASES,E0800CT,,,1,FUENCARRAL-EL PARDO,PEÑAGRANDE,,,,437645.0,4480884.11,-373563036,40.47630209,
2032,,ENVASES,E0800CT,,,1,FUENCARRAL-EL PARDO,PEÑAGRANDE,,,,438189.7336,4480780.156,-372919426,40.47540635,
2033,,ENVASES,E0800CT,,,1,FUENCARRAL-EL PARDO,PEÑAGRANDE,,,,438189.7336,4480780.156,-372919426,40.47540635,
2034,,ENVASES,E0800CT,,,1,FUENCARRAL-EL PARDO,PEÑAGRANDE,,,,438709.48,4480507.04,-372303673,40.47298455,
2035,,ENVASES,E0800CT,,,1,FUENCARRAL-EL PARDO,PEÑAGRANDE,,,,438610.91,4480945.32,-372424188,40.47692545,
2036,,ENVASES,E0800CT,,,1,FUENCARRAL-EL PARDO,PEÑAGRANDE,,,,438727.71,4480671.58,-372283758,40.47446813,
2037,,ENVASES,E0800CT,,,1,FUENCARRAL-EL PARDO,PEÑAGRANDE,,,,438727.71,4480671.58,-372283758,40.47446813,
2038,,ENVASES,E0800CT,,,1,FUENCARRAL-EL PARDO,PEÑAGRANDE,,,,438612.63,4481482.1,-372427356,40.48176107,
2039,,ENVASES,E0800CT,,,1,FUENCARRAL-EL PARDO,PEÑAGRANDE,,,,438612.63,4481482.1,-372427356,40.48176107,
2040,,ENVASES,E0800CT,,,1,FUENCARRAL-EL PARDO,PEÑAGRANDE,,,,438841.97,4481381.23,-372155818,40.48086932,
2041,,ENVASES,E0800CT,,,1,FUENCARRAL-EL PARDO,PEÑAGRANDE,,,,438841.97,4481381.23,-372155818,40.48086932,
2042,,ENVASES,E0800CT,,,1,FUENCARRAL-EL PARDO,PEÑAGRANDE,,,,439081.99,4480424.72,-371863470,40.47227039,
2043,,ENVASES,E0800CT,,,1,FUENCARRAL-EL PARDO,PEÑAGRANDE,,,,439081.99,4480424.72,-371863470,40.47227039,
2044,,ENVASES,E0800CT,,,1,FUENCARRAL-EL PARDO,PEÑAGRANDE,,,,439081.99,4480424.72,-371863470,40.47227039,
2045,,ENVASES,E0800CT,,,1,FUENCARRAL-EL PARDO,PEÑAGRANDE,,,,438757.09,4480995.14,-372252225,40.47738504,
2046,,ENVASES,E0800CT,,,1,FUENCARRAL-EL PARDO,PEÑAGRANDE,,,,438610.2,4481111.0,-372426629,40.4784179,
2047,,ENVASES,E0800CT,,,1,FUENCARRAL-EL PARDO,PEÑAGRANDE,,,,438428.19,4481704.52,-372647109,40.48375104,
2048,,ENVASES,E0800CT,,,1,FUENCARRAL-EL PARDO,PEÑAGRANDE,,,,438428.19,4481704.52,-372647109,40.48375104,
2049,,ENVASES,E0800CT,,,1,FUENCARRAL-EL PARDO,PEÑAGRANDE,,,,438345.46,4481036.64,-372738218,40.47772842,
2050,,ENVASES,E0800CT,,,1,FUENCARRAL-EL PARDO,PEÑAGRANDE,,,,438710.53,4481492.21,-372311956,40.48185937,
2051,,ENVASES,E0800CT,,,1,FUENCARRAL-EL PARDO,PEÑAGRANDE,,,,438710.53,4481492.21,-372311956,40.48185937,
2052,,ENVASES,E0800CT,,,1,FUENCARRAL-EL PARDO,PEÑAGRANDE,,,,438710.53,4481492.21,-372311956,40.48185937,
2053,,ENVASES,E0800CT,,,1,FUENCARRAL-EL PARDO,PEÑAGRANDE,,,,437489.609,4480922.261,-373746720,40.47663408,
2054,,ENVASES,E0800CT,,,1,FUENCARRAL-EL PARDO,PEÑAGRANDE,,,,437602.82,4481016.03,-373614092,40.47748729,
2055,,ENVASES,E0800CT,,,1,FUENCARRAL-EL PARDO,PEÑAGRANDE,,,,437852.9335,4480822.97,-373317148,40.4757669,
2056,,ENVASES,E0800CT,,,1,FUENCARRAL-EL PARDO,PEÑAGRANDE,,,,438369.68,4480858.09,-372707911,40.47612178,
2057,,ENVASES,E0800CT,,,1,FUENCARRAL-EL PARDO,PEÑAGRANDE,,,,438790.57,4480540.05,-372208338,40.4732879,
2058,,ENVASES,E0800CT,,,1,FUENCARRAL-EL PARDO,PEÑAGRANDE,,,,438790.57,4480540.05,-372208338,40.4732879,
2059,,ENVASES,E0800CT,,,1,FUENCARRAL-EL PARDO,PEÑAGRANDE,,,,437669.39,4480880.77,-373534232,40.47627383,
2060,,ENVASES,E0800CT,,,1,FUENCARRAL-EL PARDO,PEÑAGRANDE,,,,438750.62,4480790.75,-372257884,40.47554334,
2061,,ENVASES,E0800CT,,,1,FUENCARRAL-EL PARDO,PEÑAGRANDE,,,,437566.29,4480906.3,-373656105,40.47649607,
2062,,ENVASES,E0800CT,,,1,FUENCARRAL-EL PARDO,PEÑAGRANDE,,,,437614.3849,4480733.427,-373597669,40.47494239,
2063,,ENVASES,E0800CT,,,1,FUENCARRAL-EL PARDO,PEÑAGRANDE,,,,438677.99,4480791.75,-372343571,40.47554699,
2064,,ENVASES,E0800CT,,,1,FUENCARRAL-EL PARDO,PEÑAGRANDE,,,,437900.37,4481053.14,-373263443,40.4778439,
2065,,ENVASES,E0800CT,,,1,FUENCARRAL-EL PARDO,PEÑAGRANDE,,,,438226.23,4481225.42,-372880711,40.47942015,
2066,,ENVASES,E0800CT,,,1,FUENCARRAL-EL PARDO,PEÑAGRANDE,,,,438226.23,4481225.42,-372880711,40.47942015,
2067,,ENVASES,E0800CT,,,1,FUENCARRAL-EL PARDO,PEÑAGRANDE,,,,438573.73,4481793.85,-372476268,40.48456654,
2068,,ENVASES,E0800CT,,,1,FUENCARRAL-EL PARDO,PEÑAGRANDE,,,,438573.73,4481793.85,-372476268,40.48456654,
2069,,ENVASES,E0800CT,,,1,FUENCARRAL-EL PARDO,PEÑAGRANDE,,,,438573.73,4481793.85,-372476268,40.48456654,
2070,,ENVASES,E0800CT,,,1,FUENCARRAL-EL PARDO,PEÑAGRANDE,,,,438155.11,4481232.84,-372964684,40.4794817,
2071,,ENVASES,E0800CT,,,1,FUENCARRAL-EL PARDO,PEÑAGRANDE,,,,438434.48,4481385.15,-372636587,40.48087452,
2072,,ENVASES,E0800CT,,,1,FUENCARRAL-EL PARDO,PEÑAGRANDE,,,,438656.52,4481148.72,-372372351,40.47876111,
2073,,ENVASES,E0800CT,,,1,FUENCARRAL-EL PARDO,PEÑAGRANDE,,,,438656.52,4481148.72,-372372351,40.47876111,
2074,,ENVASES,E0800CT,,,1,FUENCARRAL-EL PARDO,PEÑAGRANDE,,,,438562.25,4481037.93,-372482488,40.47775611,
2075,,ENVASES,E0800CT,,,1,FUENCARRAL-EL PARDO,PEÑAGRANDE,,,,438111.07,4480921.82,-373013603,40.47667665,
2076,,ENVASES,E0800CT,,,1,FUENCARRAL-EL PARDO,PEÑAGRANDE,,,,438044.01,4481296.76,-373096374,40.48004923,
2077,,ENVASES,E0800CT,,,1,FUENCARRAL-EL PARDO,PEÑAGRANDE,,,,439062.47,4480545.76,-371887658,40.47335933,
2078,,ENVASES,E0800CT,,,1,FUENCARRAL-EL PARDO,PEÑAGRANDE,,,,439062.47,4480545.76,-371887658,40.47335933,
2079,,ENVASES,E0800CT,,,1,FUENCARRAL-EL PARDO,PEÑAGRANDE,,,,439062.47,4480545.76,-371887658,40.47335933,
2080,,ENVASES,E0800CT,,,1,FUENCARRAL-EL PARDO,PEÑAGRANDE,,,,438842.9,4481430.56,-372155197,40.48131377,
2081,,ENVASES,E0800CT,,,1,FUENCARRAL-EL PARDO,PEÑAGRANDE,,,,438506.3799,4480956.602,-372547608,40.47701935,
2082,,ENVASES,E0800CT,,,1,FUENCARRAL-EL PARDO,PEÑAGRANDE,,,,438511.07,4481456.83,-372546926,40.48152591,
2083,,ENVASES,E0800CT,,,1,FUENCARRAL-EL PARDO,PEÑAGRANDE,,,,438030.05,4480997.97,-373109923,40.47735659,
2084,,ENVASES,E0800CT,,,1,FUENCARRAL-EL PARDO,VALVERDE,,,,441576.93,4483291.11,-368946875,40.49827119,
2085,,ENVASES,E0800CT,,,1,FUENCARRAL-EL PARDO,PEÑAGRANDE,,,,438282.43,4481587.71,-372817937,40.48268796,
2086,,ENVASES,E0800CT,,,1,FUENCARRAL-EL PARDO,PEÑAGRANDE,,,,438282.43,4481587.71,-372817937,40.48268796,
2087,,ENVASES,E0800CT,,,1,FUENCARRAL-EL PARDO,PEÑAGRANDE,,,,438282.43,4481587.71,-372817937,40.48268796,
2088,,ENVASES,E0800CT,,,1,FUENCARRAL-EL PARDO,PEÑAGRANDE,,,,438285.24,4481101.34,-372809888,40.47830679,
2089,,ENVASES,E0800CT,,,1,FUENCARRAL-EL PARDO,PEÑAGRANDE,,,,438163.62,4481395.41,-372956230,40.48094682,
2090,,ENVASES,E0800CT,,,1,FUENCARRAL-EL PARDO,PEÑAGRANDE,,,,438285.24,4481101.34,-372809888,40.47830679,
2091,,ENVASES,E0800CT,,,1,FUENCARRAL-EL PARDO,PEÑAGRANDE,,,,438863.32,4481742.86,-372134118,40.48412858,
2092,,ENVASES,E0800CT,,,1,FUENCARRAL-EL PARDO,PEÑAGRANDE,,,,438863.32,4481742.86,-372134118,40.48412858,
2093,,ENVASES,E0800CT,,,1,FUENCARRAL-EL PARDO,PEÑAGRANDE,,,,438728.29,4481217.39,-372288347,40.47938501,
2094,,ENVASES,E0800CT,,,1,FUENCARRAL-EL PARDO,PEÑAGRANDE,,,,438728.29,4481217.39,-372288347,40.47938501,
2095,,ENVASES,E0800CT,,,1,FUENCARRAL-EL PARDO,PEÑAGRANDE,,,,438728.29,4481217.39,-372288347,40.47938501,
2096,,ENVASES,E0800CT,,,1,FUENCARRAL-EL PARDO,PEÑAGRANDE,,,,438675.35,4480858.94,-372347335,40.47615207,
2097,,ENVASES,E0800CT,,,1,FUENCARRAL-EL PARDO,PEÑAGRANDE,,,,438457.7554,4480657.645,-372602068,40.47432264,
2098,,ENVASES,E0800CT,,,1,FUENCARRAL-EL PARDO,PEÑAGRANDE,,,,438548.87,4481405.3,-372501832,40.48106451,
2099,,ENVASES,E0800CT,,,1,FUENCARRAL-EL PARDO,PEÑAGRANDE,,,,438548.87,4481405.3,-372501832,40.48106451,
2100,,ENVASES,E0800CT,,,1,FUENCARRAL-EL PARDO,PEÑAGRANDE,,,,437833.06,4480996.25,-373342290,40.47732638,
2101,,ENVASES,E0800CT,,,1,FUENCARRAL-EL PARDO,PEÑAGRANDE,,,,438753.34,4480859.8,-372255342,40.47616557,
2102,,ENVASES,E0800CT,,,1,FUENCARRAL-EL PARDO,PEÑAGRANDE,,,,438411.85,4481551.01,-372664895,40.48236696,
2103,,ENVASES,E0800CT,,,1,FUENCARRAL-EL PARDO,PEÑAGRANDE,,,,438411.85,4481551.01,-372664895,40.48236696,
2104,,ENVASES,E0800CT,,,1,FUENCARRAL-EL PARDO,PEÑAGRANDE,,,,437649.08,4480804.2,-373557438,40.47558254,
2105,,ENVASES,E0800CT,,,1,FUENCARRAL-EL PARDO,PEÑAGRANDE,,,,438280.6475,4480870.846,-372813063,40.47623008,
2106,,ENVASES,E0800CT,,,1,FUENCARRAL-EL PARDO,PEÑAGRANDE,,,,438916.06,4481467.7,-372069244,40.48165373,
2107,,ENVASES,E0800CT,,,1,FUENCARRAL-EL PARDO,PEÑAGRANDE,,,,438976.53,4481531.32,-371998517,40.48223128,
2108,,ENVASES,E0800CT,,,1,FUENCARRAL-EL PARDO,PEÑAGRANDE,,,,438899.59,4481544.22,-372089412,40.48234183,
2109,,ENVASES,E0800CT,,,1,FUENCARRAL-EL PARDO,PEÑAGRANDE,,,,438895.17,4481658.46,-372095728,40.48337062,
2110,,ENVASES,E0800CT,,,1,FUENCARRAL-EL PARDO,PEÑAGRANDE,,,,438899.59,4481544.22,-372089412,40.48234183,
2111,,ENVASES,E0800CT,,,1,FUENCARRAL-EL PARDO,PEÑAGRANDE,,,,438895.17,4481658.46,-372095728,40.48337062,
2112,,ENVASES,E0800CT,,,1,FUENCARRAL-EL PARDO,PEÑAGRANDE,,,,438419.45,4481497.42,-372655409,40.48188477,
