OBJECTID,Codigo_Interno_del_Situad,Tipo_Contenedor,Modelo,Descripcion_Modelo,Cantidad,Lote,Distrito,Barrio,Tipo_Via,Nombre,Numero,Coordenada_X,Coordenada_Y,Longitud,Latitud,Direccion
849,,VIDRIO,V2200CL,,,1,LATINA,PUERTA DEL ANGEL,,,,437215.59,4473269.22,-373994334,40.40767207,
850,,VIDRIO,V2200CL,,,1,LATINA,PUERTA DEL ANGEL,,,,437022.16,4472933.89,-374218964,40.40463667,
851,,VIDRIO,V2200CL,,,1,LATINA,PUERTA DEL ANGEL,,,,437502.89,4473034.38,-373653458,40.40557815,
852,,VIDRIO,V2200CL,,,1,LATINA,PUERTA DEL ANGEL,,,,437502.89,4473034.38,-373653458,40.40557815,
853,,VIDRIO,V2200CL,,,1,LATINA,PUERTA DEL ANGEL,,,,437626.46,4473776.13,-373515112,40.41226941,
854,,VIDRIO,V2200CL,,,1,LATINA,PUERTA DEL ANGEL,,,,437494.96,4473374.42,-373666143,40.40864078,
855,,VIDRIO,V2200CL,,,1,LATINA,PUERTA DEL ANGEL,,,,437623.11,4473284.47,-373514240,40.40784008,
856,,VIDRIO,V2200CL,,,1,LATINA,PUERTA DEL ANGEL,,,,437777.33,4473399.86,-373333626,40.40889111,
857,,VIDRIO,V2200CL,,,1,LATINA,PUERTA DEL ANGEL,,,,437468.89,4473591.72,-373699001,40.41059635,
858,,VIDRIO,V2200CL,,,1,LATINA,PUERTA DEL ANGEL,,,,437699.87,4473028.37,-373421274,40.40553877,
859,,VIDRIO,V2200CL,,,1,LATINA,PUERTA DEL ANGEL,,,,438051.91,4473420.44,-373010241,40.40909698,
860,,VIDRIO,V2200CL,,,1,LATINA,PUERTA DEL ANGEL,,,,437288.62,4473271.11,-373908290,40.4076946,
861,,VIDRIO,V2200CL,,,1,LATINA,PUERTA DEL ANGEL,,,,438098.52,4473334.01,-372954471,40.40832185,
862,,VIDRIO,V2200CL,,,1,LATINA,PUERTA DEL ANGEL,,,,438329.4936,4473783.752,-372686635,40.41239046,
863,,VIDRIO,V2200CL,,,1,LATINA,PUERTA DEL ANGEL,,,,438494.56,4473883.9,-372493066,40.41330485,
864,,VIDRIO,V2200CL,,,1,LATINA,PUERTA DEL ANGEL,,,,438332.9585,4473592.666,-372680699,40.41066933,
865,,VIDRIO,V2200CL,,,1,LATINA,PUERTA DEL ANGEL,,,,438351.15,4473675.41,-372660062,40.41141607,
866,,VIDRIO,V2200CL,,,1,LATINA,PUERTA DEL ANGEL,,,,438494.56,4473883.9,-372493066,40.41330485,
867,,VIDRIO,V2200CL,,,1,LATINA,PUERTA DEL ANGEL,,,,437923.42,4473805.58,-373165421,40.41255691,
868,,VIDRIO,V2200CL,,,1,LATINA,PUERTA DEL ANGEL,,,,437474.25,4473704.01,-373693788,40.41160831,
869,,VIDRIO,V2200CL,,,1,LATINA,PUERTA DEL ANGEL,,,,438286.78,4473982.66,-372738904,40.41417914,
870,,VIDRIO,V2200CL,,,1,LATINA,PUERTA DEL ANGEL,,,,438539.97,4473643.36,-372437224,40.41114132,
871,,VIDRIO,V2200CL,,,1,LATINA,PUERTA DEL ANGEL,,,,437226.89,4473541.6,-373983704,40.41012663,
872,,VIDRIO,V2200CL,,,1,LATINA,PUERTA DEL ANGEL,,,,437591.12,4473596.44,-373554998,40.41064804,
873,,VIDRIO,V2200CL,,,1,LATINA,PUERTA DEL ANGEL,,,,437136.17,4473218.37,-374087424,40.407208,
874,,VIDRIO,V2200CL,,,1,LATINA,PUERTA DEL ANGEL,,,,438524.5,4473728.86,-372456282,40.4119104,
875,,VIDRIO,V2200CL,,,1,LATINA,PUERTA DEL ANGEL,,,,437621.67,4473341.81,-373516499,40.40835652,
876,,VIDRIO,V2200CL,,,1,LATINA,PUERTA DEL ANGEL,,,,438311.71,4473912.1,-372708838,40.41354536,
877,,VIDRIO,V2200CL,,,1,LATINA,PUERTA DEL ANGEL,,,,438311.71,4473912.1,-372708838,40.41354536,
878,,VIDRIO,V2200CL,,,1,LATINA,PUERTA DEL ANGEL,,,,437731.54,4473792.34,-373391430,40.41242331,
879,,VIDRIO,V2200CL,,,1,LATINA,PUERTA DEL ANGEL,,,,437112.65,4472922.89,-374112222,40.40454442,
880,,VIDRIO,V2200CL,,,1,LATINA,PUERTA DEL ANGEL,,,,437278.52,4473359.44,-373921063,40.40848955,
881,,VIDRIO,V2200CL,,,1,LATINA,PUERTA DEL ANGEL,,,,437061.17,4473168.56,-374175315,40.40675362,
882,,VIDRIO,V2200CL,,,1,LATINA,PUERTA DEL ANGEL,,,,437982.29,4473574.98,-373093793,40.41048396,
883,,VIDRIO,V2200CL,,,1,LATINA,PUERTA DEL ANGEL,,,,437345.27,4473533.76,-373844117,40.41006493,
884,,VIDRIO,V2200CL,,,1,LATINA,PUERTA DEL ANGEL,,,,437892.0,4473426.92,-373198755,40.40914344,
885,,VIDRIO,V2200CL,,,1,LATINA,PUERTA DEL ANGEL,,,,437646.39,4472956.85,-373483596,40.40489049,
886,,VIDRIO,V2200CL,,,1,LATINA,PUERTA DEL ANGEL,,,,437359.53,4473277.07,-373824785,40.40775363,
887,,VIDRIO,V2200CL,,,1,LATINA,PUERTA DEL ANGEL,,,,437261.05,4473197.43,-373940054,40.40702878,
888,,VIDRIO,V2200CL,,,1,LATINA,PUERTA DEL ANGEL,,,,437614.04,4473484.39,-373526888,40.40964037,
889,,VIDRIO,V2200CL,,,1,LATINA,PUERTA DEL ANGEL,,,,438037.82,4473638.74,-373028971,40.41106247,
890,,VIDRIO,V2200CL,,,1,LATINA,PUERTA DEL ANGEL,,,,438436.59,4474021.67,-372562720,40.41454166,
891,,VIDRIO,V2200CL,,,1,LATINA,PUERTA DEL ANGEL,,,,437366.9831,4473198.285,-373815226,40.40704447,
892,,VIDRIO,V2200CL,,,1,LATINA,PUERTA DEL ANGEL,,,,437927.62,4473726.18,-373159697,40.41184196,
893,,VIDRIO,V2200CL,,,1,LATINA,PUERTA DEL ANGEL,,,,438266.39,4473540.35,-372758643,40.41019311,
894,,VIDRIO,V2200CL,,,1,LATINA,PUERTA DEL ANGEL,,,,438226.46,4473493.71,-372805248,40.40977,
895,,VIDRIO,V2200CL,,,1,LATINA,PUERTA DEL ANGEL,,,,437885.09,4473202.6,-373204708,40.40712215,
896,,VIDRIO,V2200CL,,,1,LATINA,PUERTA DEL ANGEL,,,,437368.07,4473083.13,-373812812,40.40600718,
897,,VIDRIO,V2200CL,,,1,LATINA,PUERTA DEL ANGEL,,,,438376.08,4474133.57,-372635120,40.41554522,
898,,VIDRIO,V2200CL,,,1,LATINA,PUERTA DEL ANGEL,,,,437580.12,4472974.29,-373561860,40.40504263,
899,,VIDRIO,V2200CL,,,1,LATINA,PUERTA DEL ANGEL,,,,437786.64,4473117.44,-373319894,40.40634764,
900,,VIDRIO,V2200CL,,,1,LATINA,PUERTA DEL ANGEL,,,,437859.8467,4473458.958,-373236960,40.40942965,
901,,VIDRIO,V2200CL,,,1,LATINA,PUERTA DEL ANGEL,,,,437893.19,4473495.37,-373198020,40.40976015,
902,,VIDRIO,V2200CL,,,1,LATINA,PUERTA DEL ANGEL,,,,437543.82,4473363.15,-373608452,40.40854292,
904,,VIDRIO,V2200CL,,,1,LATINA,PUERTA DEL ANGEL,,,,437467.28,4473355.24,-373698574,40.40846592,
905,,VIDRIO,V2200CL,,,1,LATINA,PUERTA DEL ANGEL,,,,437066.4385,4473100.232,-374168431,40.4061385,
907,,VIDRIO,V2200CL,,,1,LATINA,PUERTA DEL ANGEL,,,,437599.4,4473192.56,-373541280,40.40701034,
909,,VIDRIO,V2200CL,,,1,LATINA,PUERTA DEL ANGEL,,,,438160.57,4473684.57,-372884754,40.41148445,
911,,VIDRIO,V2200CL,,,1,LATINA,PUERTA DEL ANGEL,,,,437652.28,4473678.36,-373483724,40.4113906,
913,,VIDRIO,V2200CL,,,1,LATINA,PUERTA DEL ANGEL,,,,437808.0,4473862.71,-373302007,40.41306295,
914,,VIDRIO,V2200CL,,,1,LATINA,PUERTA DEL ANGEL,,,,437954.57,4473670.06,-373127388,40.41133841,
915,,VIDRIO,V2200CL,,,1,LATINA,PUERTA DEL ANGEL,,,,437047.48,4473056.39,-374190338,40.40574211,
916,,VIDRIO,V2200CL,,,1,LATINA,PUERTA DEL ANGEL,,,,437047.48,4473056.39,-374190338,40.40574211,
917,,VIDRIO,V2200CL,,,1,LATINA,PUERTA DEL ANGEL,,,,437997.3309,4473871.826,-373078960,40.41315919,
918,,VIDRIO,V2200CL,,,1,LATINA,PUERTA DEL ANGEL,,,,437577.42,4473076.85,-373566047,40.40596633,
919,,VIDRIO,V2200CL,,,1,LATINA,PUERTA DEL ANGEL,,,,438558.53,4474026.43,-372419050,40.41459355,
920,,VIDRIO,V2200CL,,,1,LATINA,PUERTA DEL ANGEL,,,,437072.96,4473251.09,-374162237,40.40749798,
921,,VIDRIO,V2200CL,,,1,LATINA,PUERTA DEL ANGEL,,,,437256.49,4472928.34,-373942775,40.40460436,
922,,VIDRIO,V2200CL,,,1,LATINA,PUERTA DEL ANGEL,,,,437412.31,4473037.67,-373760231,40.40560098,
923,,VIDRIO,V2200CL,,,1,LATINA,PUERTA DEL ANGEL,,,,437472.38,4473108.64,-373690141,40.40624482,
924,,VIDRIO,V2200CL,,,1,LATINA,PUERTA DEL ANGEL,,,,437200.48,4472974.75,-374009235,40.40501822,
925,,VIDRIO,V2200CL,,,1,LATINA,PUERTA DEL ANGEL,,,,437434.53,4472986.2,-373733541,40.40513899,
926,,VIDRIO,V2200CL,,,1,LATINA,PUERTA DEL ANGEL,,,,437766.75,4473274.69,-373344871,40.40776273,
927,,VIDRIO,V2200CL_vacri,,,1,LATINA,PUERTA DEL ANGEL,,,,438371.36,4473847.31,-372637909,40.41296612,
928,,VIDRIO,V2200CL,,,1,LATINA,PUERTA DEL ANGEL,,,,438145.32,4473972.45,-372905525,40.41407667,
929,,VIDRIO,V2200CL,,,1,LATINA,PUERTA DEL ANGEL,,,,438145.32,4473972.45,-372905525,40.41407667,
930,,VIDRIO,V2200CL,,,1,LATINA,PUERTA DEL ANGEL,,,,438584.29,4474232.3,-372390678,40.41645002,
931,,VIDRIO,V2200CL,,,1,LATINA,PUERTA DEL ANGEL,,,,438635.03,4473637.14,-372325134,40.4110923,
932,,VIDRIO,V2200CL,,,1,LATINA,PUERTA DEL ANGEL,,,,438500.37,4474029.01,-372487621,40.4146125,
933,,VIDRIO,V2200CL,,,1,LATINA,PUERTA DEL ANGEL,,,,437263.69,4473453.38,-373939466,40.40933469,
934,,VIDRIO,V2200CL,,,1,LATINA,PUERTA DEL ANGEL,,,,438492.69,4473474.03,-372491308,40.40961243,
935,,VIDRIO,V2200CL,,,1,LATINA,PUERTA DEL ANGEL,,,,438621.48,4473527.9,-372340049,40.41010722,
936,,VIDRIO,V2200CL,,,1,LATINA,PUERTA DEL ANGEL,,,,438621.48,4473527.9,-372340049,40.41010722,
937,,VIDRIO,V2200CL,,,1,LATINA,PUERTA DEL ANGEL,,,,438604.45,4473445.97,-372359329,40.4093679,
939,,VIDRIO,V2200CL,,,1,LATINA,PUERTA DEL ANGEL,,,,437962.58,4473146.54,-373112844,40.40662292,
940,,VIDRIO,V2200CL,,,1,LATINA,PUERTA DEL ANGEL,,,,437222.56,4473036.15,-373983821,40.405573,
11747,,VIDRIO,V3000CS_sot,,,2,SALAMANCA,CASTELLANA,,,,441776.0,4475902.0,-368644162,40.43172091,
11750,,VIDRIO,V3000CS_sot,,,2,SALAMANCA,CASTELLANA,,,,441844.0,4476155.0,-368566313,40.43400482,
11753,,VIDRIO,V3000CS_sot,,,2,SALAMANCA,CASTELLANA,,,,441769.0,4476517.0,-368658050,40.43726064,
11756,,VIDRIO,V3000CS_sot,,,2,SALAMANCA,CASTELLANA,,,,441837.0,4476156.0,-368574575,40.43401334,
11759,,VIDRIO,V3000CS_sot,,,2,SALAMANCA,CASTELLANA,,,,441767.0,4476516.0,-368660398,40.43725149,
11762,,VIDRIO,V3000CS_sot,,,2,SALAMANCA,RECOLETOS,,,,441611.0,4474732.0,-368827933,40.42116942,
11765,,VIDRIO,V3000CS_sot,,,2,SALAMANCA,RECOLETOS,,,,441744.0,4475049.0,-368674070,40.42403443,
11768,,VIDRIO,V3000CS_sot,,,2,SALAMANCA,RECOLETOS,,,,441541.0,4475485.0,-368917366,40.4279479,
11771,,VIDRIO,V3000CS_sot,,,2,SALAMANCA,RECOLETOS,,,,441719.0,4475474.0,-368707435,40.42786129,
11774,,VIDRIO,V3000CS_sot,,,2,SALAMANCA,RECOLETOS,,,,441580.0,4475640.0,-368872816,40.42934695,
11777,,VIDRIO,V3000CS_sot,,,2,SALAMANCA,CASTELLANA,,,,441764.0,4476412.0,-368662982,40.4363144,
11780,,VIDRIO,V3000CS_sot,,,2,SALAMANCA,RECOLETOS,,,,441619.0,4474731.0,-368818495,40.42116097,
11783,,VIDRIO,V3000CS_sot,,,2,SALAMANCA,RECOLETOS,,,,441849.0,4475059.0,-368550393,40.42413187,
11786,,VIDRIO,V3000CS_sot,,,2,SALAMANCA,CASTELLANA,,,,441816.0,4476410.0,-368601658,40.43630002,
11789,,VIDRIO,V3000CS_sot,,,2,SALAMANCA,CASTELLANA,,,,441813.0,4476410.0,-368605195,40.43629981,
11792,,VIDRIO,V3000CS_sot,,,2,SALAMANCA,RECOLETOS,,,,441739.0,4475014.0,-368679643,40.42371879,
11795,,VIDRIO,V3000CS_sot,,,2,SALAMANCA,RECOLETOS,,,,441328.0,4474729.0,-369161478,40.42112249,
11798,,VIDRIO,V3000CS_sot,,,2,SALAMANCA,RECOLETOS,,,,442175.0,4474978.0,-368165382,40.4234249,
11800,,VIDRIO,V3000CS_sot,,,2,SALAMANCA,RECOLETOS,,,,441845.0,4475003.0,-368554595,40.42362711,
11803,,VIDRIO,V3000CS_sot,,,2,SALAMANCA,RECOLETOS,,,,442178.0,4475022.0,-368162246,40.42382148,
11806,,VIDRIO,V3000CS_sot,,,2,SALAMANCA,RECOLETOS,,,,441732.0,4475625.0,-368693494,40.42922248,
11809,,VIDRIO,V3000CS_sot,,,2,SALAMANCA,RECOLETOS,,,,441699.0,4474796.0,-368724794,40.42175213,
11812,,VIDRIO,V3000CS_sot,,,2,SALAMANCA,RECOLETOS,,,,441692.0,4474796.0,-368733045,40.42175164,
12505,,VIDRIO,V2200CL,,,1,CENTRO,UNIVERSIDAD,,,,439815.62,4475552.07,-370951907,40.42842906,
12531,,VIDRIO,V2200CL,,,1,CHAMBERI,ARAPILES,,,,439656.8,4476054.13,-371143894,40.43294033,
13029,,VIDRIO,V2200CL,,,1,CHAMBERI,ARAPILES,,,,440215.19,4475999.87,-370485096,40.43249185,
13048,,VIDRIO,V2200CL,,,1,CENTRO,EMBAJADORES,,,,440288.63,4473777.27,-370377647,40.41247492,
13059,,VIDRIO,V2200CL,,,1,CENTRO,JUSTICIA,,,,440961.04,4475172.54,-369598132,40.42509215,
13060,,VIDRIO,V2200CL,,,1,CHAMBERI,ARAPILES,,,,440123.0886,4476079.226,-370594421,40.4332001,
13067,,VIDRIO,V2200CL,,,1,CENTRO,CORTES,,,,440800.04,4474140.09,-369778303,40.41577991,
13068,,VIDRIO,V2200CL,,,1,CHAMBERI,TRAFALGAR,,,,440534.0,4476605.29,-370114917,40.4379686,
13075,,VIDRIO,V2200CL,,,1,CENTRO,UNIVERSIDAD,,,,439991.51,4475039.73,-370739728,40.42382637,
13076,,VIDRIO,V2200CL,,,1,CHAMBERI,TRAFALGAR,,,,440704.86,4475751.62,-369905510,40.43029055,
13086,,VIDRIO,V2200CL,,,1,CENTRO,JUSTICIA,,,,440452.68,4475523.91,-370200661,40.42822122,
13090,,VIDRIO,V2200CL,,,1,CENTRO,UNIVERSIDAD,,,,440227.11,4474734.32,-370459145,40.42109206,
13094,,VIDRIO,V2200CL,,,1,CHAMBERI,TRAFALGAR,,,,440481.1,4475722.55,-370169019,40.4300127,
13100,,VIDRIO,V2200CL,,,1,CHAMBERI,TRAFALGAR,,,,440861.17,4475516.68,-369719057,40.42818523,
13103,,VIDRIO,V2200CL,,,1,CENTRO,PALACIO,,,,439475.69,4473490.7,-371333007,40.40983465,
13108,,VIDRIO,V2200CL,,,1,CHAMBERI,TRAFALGAR,,,,440274.98,4476395.01,-370418323,40.43605574,
13111,,VIDRIO,V2200CL,,,1,CENTRO,UNIVERSIDAD,,,,439961.3573,4475668.366,-370781207,40.42948724,
13116,,VIDRIO,V2200CL,,,1,CHAMBERI,TRAFALGAR,,,,440861.17,4475516.68,-369719057,40.42818523,
13120,,VIDRIO,V2200CL,,,1,CENTRO,EMBAJADORES,,,,440042.33,4473554.77,-370665827,40.41045283,
13121,,VIDRIO,V2200CL,,,1,CHAMBERI,ALMAGRO,,,,441075.04,4476622.95,-369477198,40.4381662,
13127,,VIDRIO,V2200CL,,,1,CHAMBERI,ALMAGRO,,,,440964.77,4475577.19,-369597493,40.42873769,
13128,,VIDRIO,V2200CL,,,1,CENTRO,EMBAJADORES,,,,440042.33,4473554.77,-370665827,40.41045283,
13133,,VIDRIO,V2200CL,,,1,CENTRO,UNIVERSIDAD,,,,440321.72,4474715.51,-370347452,40.4209294,
13134,,VIDRIO,V2200CL,,,1,CHAMBERI,ALMAGRO,,,,441075.04,4476622.95,-369477198,40.4381662,
13141,,VIDRIO,V2200CL,,,1,CENTRO,PALACIO,,,,439659.88,4473274.35,-371113888,40.40789904,
13142,,VIDRIO,V2200CL,,,1,CHAMBERI,ALMAGRO,,,,441302.7,4475576.79,-369199126,40.428758,
13149,,VIDRIO,V2200CL,,,1,CENTRO,UNIVERSIDAD,,,,440380.68,4474980.59,-370280441,40.42332159,
13150,,VIDRIO,V2200CL,,,1,CHAMBERI,ALMAGRO,,,,440706.41,4476374.29,-369909491,40.43589996,
13159,,VIDRIO,V2200CL,,,1,CHAMBERI,ALMAGRO,,,,440798.4,4476285.32,-369800210,40.43510503,
13160,,VIDRIO,V2200CL_vacri,,,1,CENTRO,JUSTICIA,,,,440649.68,4475370.24,-369966998,40.42685097,
13168,,VIDRIO,V2200CL,,,1,CHAMBERI,ALMAGRO,,,,441478.21,4475644.86,-368992855,40.42938358,
13170,,VIDRIO,V2200CL,,,1,CENTRO,EMBAJADORES,,,,440183.55,4473823.51,-370501924,40.41288393,
13176,,VIDRIO,V2200CL,,,1,CHAMBERI,ALMAGRO,,,,441077.98,4476361.59,-369471309,40.43581196,
13178,,VIDRIO,V2200CL,,,1,CENTRO,UNIVERSIDAD,,,,439741.8,4475195.9,-371035552,40.42521518,
13184,,VIDRIO,V2200CL,,,1,CHAMBERI,ALMAGRO,,,,440903.87,4475780.87,-369671177,40.43056821,
13186,,VIDRIO,V2200CL,,,1,CENTRO,UNIVERSIDAD,,,,439835.76,4475116.44,-370924043,40.42450616,
13199,,VIDRIO,V2200CL,,,1,CENTRO,UNIVERSIDAD,,,,440296.66,4474894.78,-370378673,40.42254255,
13200,,VIDRIO,V2200CL,,,1,CHAMBERI,ALMAGRO,,,,440818.64,4476595.64,-369779239,40.43790197,
13202,,VIDRIO,V2200CL,,,1,CENTRO,EMBAJADORES,,,,440861.63,4473489.21,-369699662,40.40992084,
13207,,VIDRIO,V2200CL,,,1,CHAMBERI,ALMAGRO,,,,441187.47,4476053.9,-369339377,40.4330479,
13210,,VIDRIO,V2200CL,,,1,CENTRO,SOL,,,,440149.85,4473945.3,-370542787,40.41397865,
13215,,VIDRIO,V2200CL,,,1,CHAMBERI,ALMAGRO,,,,441206.15,4475785.33,-369314871,40.43062981,
13218,,VIDRIO,V2200CL,,,1,CENTRO,EMBAJADORES,,,,440756.1,4473699.08,-369825984,40.41180395,
13223,,VIDRIO,V2200CL,,,1,CHAMBERI,ALMAGRO,,,,441112.9,4476153.34,-369428210,40.43393842,
13262,,VIDRIO,V2200CL,,,1,CENTRO,UNIVERSIDAD,,,,440367.41,4474719.58,-370293636,40.42096934,
13269,,VIDRIO,V2200CL,,,1,CENTRO,JUSTICIA,,,,440660.55,4474684.82,-369947789,40.42067716,
13271,,VIDRIO,V2200CL,,,1,CHAMBERI,ALMAGRO,,,,441045.6,4475916.24,-369505352,40.43179775,
13274,,VIDRIO,V2200CL,,,1,CENTRO,UNIVERSIDAD,,,,440346.69,4475594.04,-370326262,40.42884539,
13277,,VIDRIO,V2200CL,,,1,CHAMBERI,ALMAGRO,,,,441159.66,4475617.78,-369368126,40.42911716,
13281,,VIDRIO,V2200CL,,,1,CENTRO,UNIVERSIDAD,,,,440032.27,4475301.25,-370694149,40.4261852,
13285,,VIDRIO,V2200CL,,,1,CHAMBERI,ALMAGRO,,,,441045.6,4475916.24,-369505352,40.43179775,
13286,,VIDRIO,V2200CL,,,1,CENTRO,PALACIO,,,,439830.15,4474084.5,-370920893,40.41520957,
13289,,VIDRIO,V2200CL,,,1,CHAMBERI,ALMAGRO,,,,441309.67,4475671.02,-369191779,40.42960736,
13290,,VIDRIO,V2200CL,,,1,CENTRO,UNIVERSIDAD,,,,439628.14,4475110.74,-371168722,40.42443978,
13295,,VIDRIO,V2200CL,,,1,CHAMBERI,ALMAGRO,,,,440815.77,4476530.82,-369782019,40.43731784,
13298,,VIDRIO,V2200CL,,,1,CENTRO,PALACIO,,,,439830.15,4474084.5,-370920893,40.41520957,
13302,,VIDRIO,V2200CL,,,1,CHAMBERI,ALMAGRO,,,,440934.39,4476490.52,-369641793,40.43696323,
13305,,VIDRIO,V2200CL,,,1,CENTRO,EMBAJADORES,,,,440026.49,4473037.79,-370679622,40.40579448,
13309,,VIDRIO,V2200CL,,,1,CHAMBERI,ALMAGRO,,,,440934.39,4476490.52,-369641793,40.43696323,
13312,,VIDRIO,V2200CL,,,1,CENTRO,EMBAJADORES,,,,440969.56,4473186.05,-369569654,40.40719749,
13316,,VIDRIO,V2200CL,,,1,CHAMBERI,ALMAGRO,,,,441011.51,4476139.86,-369547616,40.4338098,
13319,,VIDRIO,V2200CL,,,1,CENTRO,PALACIO,,,,439158.64,4473444.62,-371706209,40.40939643,
13320,,VIDRIO,V2200CL_vacri,,,1,CENTRO,CORTES,,,,440486.71,4473966.25,-370145969,40.41419153,
13321,,VIDRIO,V2200CL,,,1,CENTRO,PALACIO,,,,439479.93,4473226.69,-371325500,40.40745663,
13322,,VIDRIO,V2200CL,,,1,CHAMBERI,ALMAGRO,,,,441182.87,4475944.64,-369343789,40.43206331,
13323,,VIDRIO,V2200CL,,,1,CENTRO,UNIVERSIDAD,,,,440475.35,4474851.82,-370167645,40.42216835,
13330,,VIDRIO,V2200CL,,,1,CHAMBERI,ALMAGRO,,,,441336.96,4475913.35,-369161845,40.43179231,
13334,,VIDRIO,V2200CL,,,1,CENTRO,PALACIO,,,,439080.51,4473662.15,-371800367,40.41135032,
13337,,VIDRIO,V2200CL,,,1,CHAMBERI,ALMAGRO,,,,441113.18,4475522.27,-369422033,40.42825347,
13341,,VIDRIO,V2200CL,,,1,CENTRO,PALACIO,,,,439145.56,4473845.09,-371725454,40.41300309,
13344,,VIDRIO,V2200CL,,,1,CHAMBERI,RIOS ROSAS,,,,441247.57,4476864.68,-369276021,40.44035602,
13348,,VIDRIO,V2200CL,,,1,CENTRO,PALACIO,,,,439671.71,4474962.49,-371115957,40.42310744,
13351,,VIDRIO,V2200CL,,,1,CHAMBERI,RIOS ROSAS,,,,441247.57,4476864.68,-369276021,40.44035602,
13355,,VIDRIO,V2200CL,,,1,CENTRO,PALACIO,,,,439832.52,4474690.16,-370923829,40.42066581,
13358,,VIDRIO,V2200CL,,,1,CHAMBERI,ALMAGRO,,,,441113.18,4475522.27,-369422033,40.42825347,
13363,,VIDRIO,V2200CL,,,1,CHAMBERI,RIOS ROSAS,,,,440537.4,4476901.16,-370113677,40.44063417,
13365,,VIDRIO,V2200CL,,,1,CENTRO,PALACIO,,,,439723.92,4474910.49,-371053923,40.42264278,
13367,,VIDRIO,V2200CL,,,1,CENTRO,EMBAJADORES,,,,440398.32,4473516.4,-370245929,40.41013274,
13370,,VIDRIO,V2200CL,,,1,CHAMBERI,RIOS ROSAS,,,,440346.04,4477318.01,-370343213,40.44437563,
13374,,VIDRIO,V2200CL,,,1,CENTRO,JUSTICIA,,,,440980.76,4474764.93,-369571103,40.42142161,
13377,,VIDRIO,V2200CL,,,1,CHAMBERI,RIOS ROSAS,,,,441035.08,4476767.76,-369525655,40.43946788,
13381,,VIDRIO,V2200CL,,,1,CENTRO,UNIVERSIDAD,,,,440224.11,4475644.86,-370471241,40.4292944,
13384,,VIDRIO,V2200CL,,,1,CHAMBERI,RIOS ROSAS,,,,441035.08,4476767.76,-369525655,40.43946788,
13388,,VIDRIO,V2200CL_vacri,,,1,CENTRO,SOL,,,,440115.06,4474278.2,-370586923,40.41697506,
13391,,VIDRIO,V2200CL,,,1,CHAMBERI,RIOS ROSAS,,,,440960.18,4476875.85,-369614968,40.44043629,
13395,,VIDRIO,V2200CL,,,1,CENTRO,JUSTICIA,,,,440980.34,4474675.11,-369570765,40.42061243,
13396,,VIDRIO,V2200CL,,,1,CHAMBERI,RIOS ROSAS,,,,441038.36,4477364.63,-369527327,40.44484499,
13405,,VIDRIO,V2200CL,,,1,CENTRO,PALACIO,,,,439758.34,4474512.96,-371009585,40.41906414,
13408,,VIDRIO,V2200CL,,,1,CHAMBERI,RIOS ROSAS,,,,440763.14,4477044.59,-369848859,40.44194236,
13412,,VIDRIO,V2200CL,,,1,CENTRO,EMBAJADORES,,,,440560.24,4473270.22,-370052806,40.40792661,
13415,,VIDRIO,V2200CL,,,1,CHAMBERI,RIOS ROSAS,,,,440606.69,4476685.24,-370029963,40.43869402,
13419,,VIDRIO,V2200CL,,,1,CENTRO,UNIVERSIDAD,,,,440449.71,4475425.89,-370203244,40.427338,
13422,,VIDRIO,V2200CL,,,1,CHAMBERI,RIOS ROSAS,,,,440778.67,4477155.75,-369831584,40.44294485,
13426,,VIDRIO,V2200CL,,,1,CENTRO,EMBAJADORES,,,,440636.71,4473096.93,-369961072,40.40637098,
13479,,VIDRIO,V2200CL,,,1,CENTRO,EMBAJADORES,,,,440705.99,4473249.19,-369880848,40.40774755,
13481,,VIDRIO,V2200CL,,,1,CENTRO,EMBAJADORES,,,,440767.2772,4473208.035,-369808240,40.40738117,
13484,,VIDRIO,V2200CL,,,1,CENTRO,JUSTICIA,,,,441140.0,4474880.21,-369384473,40.42247138,
13487,,VIDRIO,V2200CL,,,1,CENTRO,PALACIO,,,,439605.8319,4474317.596,-371187485,40.41729316,
13488,,VIDRIO,V2200CL,,,1,CHAMBERI,RIOS ROSAS,,,,440606.69,4476685.24,-370029963,40.43869402,
13490,,VIDRIO,V2200CL,,,1,CHAMBERI,RIOS ROSAS,,,,440576.22,4477059.57,-370069389,40.44206397,
13495,,VIDRIO,V2200CL_vacri,,,1,CHAMBERI,RIOS ROSAS,,,,440820.51,4476782.4,-369778773,40.43958452,
13500,,VIDRIO,V2200CL,,,1,CHAMBERI,RIOS ROSAS,,,,440883.09,4477335.2,-369710134,40.44456884,
13503,,VIDRIO,V2200CL,,,1,CHAMBERI,RIOS ROSAS,,,,440942.0,4476772.39,-369635441,40.43950299,
13506,,VIDRIO,V2200CL,,,1,CHAMBERI,RIOS ROSAS,,,,440551.64,4476853.63,-370096443,40.44020702,
13508,,VIDRIO,V2200CL,,,1,CHAMBERI,RIOS ROSAS,,,,440478.05,4477079.75,-370185327,40.44223874,
13510,,VIDRIO,V2200CL,,,1,CHAMBERI,VALLEHERMOSO,,,,439386.65,4477142.9,-371472760,40.44272878,
13513,,VIDRIO,V2200CL,,,1,CHAMBERI,RIOS ROSAS,,,,440399.15,4477341.08,-370280807,40.44458726,
13516,,VIDRIO,V2200CL,,,1,CHAMBERI,RIOS ROSAS,,,,440740.02,4477412.91,-369879554,40.4452587,
13519,,VIDRIO,V2200CL,,,1,CHAMBERI,VALLEHERMOSO,,,,439771.08,4477086.16,-371018951,40.44224558,
13522,,VIDRIO,V2200CL,,,1,CHAMBERI,VALLEHERMOSO,,,,439276.03,4476884.27,-371600716,40.44039086,
13525,,VIDRIO,V2200CL,,,1,CHAMBERI,VALLEHERMOSO,,,,439401.99,4477045.03,-371453739,40.44184824,
13526,,VIDRIO,V2200CL,,,1,CENTRO,PALACIO,,,,439665.7642,4474565.273,-371119197,40.41952869,
13528,,VIDRIO,V2200CL,,,1,CENTRO,EMBAJADORES,,,,440758.09,4473089.87,-369817967,40.40631603,
13530,,VIDRIO,V2200CL,,,1,CENTRO,JUSTICIA,,,,441053.9624,4475377.736,-369490500,40.42694724,
13532,,VIDRIO,V2200CL,,,1,CENTRO,JUSTICIA,,,,440660.55,4474684.82,-369947789,40.42067716,
13534,,VIDRIO,V2200CL,,,1,CENTRO,JUSTICIA,,,,440834.6079,4474844.598,-369744115,40.42212891,
13641,,VIDRIO,V2200CL,,,1,CENTRO,EMBAJADORES,,,,440584.56,4473665.33,-370027835,40.41148769,
13662,,VIDRIO,V2200CL,,,1,CENTRO,JUSTICIA,,,,441009.56,4475316.33,-369542272,40.42639092,
13817,,VIDRIO,V2200CL,,,1,CENTRO,JUSTICIA,,,,440466.05,4475476.36,-370184455,40.42779383,
13819,,VIDRIO,V2200CL,,,1,CENTRO,EMBAJADORES,,,,440529.08,4473488.76,-370091569,40.4098931,
13828,,VIDRIO,V2200CL,,,1,CENTRO,JUSTICIA,,,,440841.9637,4475296.405,-369739648,40.42619953,
13831,,VIDRIO,V2200CL,,,1,CENTRO,EMBAJADORES,,,,440560.38,4473600.35,-370055725,40.41090059,
13870,,VIDRIO,V2200CL,,,1,CENTRO,JUSTICIA,,,,440687.3575,4475495.353,-369923752,40.42798074,
13875,,VIDRIO,V2200CL_vacri,,,1,CENTRO,CORTES,,,,440996.47,4473987.93,-369545378,40.41442313,
13890,,VIDRIO,V2200CL,,,1,CENTRO,UNIVERSIDAD,,,,440184.56,4475591.01,-370517358,40.42880646,
13896,,VIDRIO,V2200CL,,,1,CENTRO,PALACIO,,,,439852.8,4474460.76,-370897755,40.41860073,
13914,,VIDRIO,V2200CL,,,1,CENTRO,UNIVERSIDAD,,,,439963.57,4475579.56,-370777759,40.42868739,
13931,,VIDRIO,V2200CL,,,1,CENTRO,UNIVERSIDAD,,,,440104.77,4475589.22,-370611400,40.42878459,
13940,,VIDRIO,V2200CL,,,1,CENTRO,UNIVERSIDAD,,,,440254.36,4474949.23,-370429045,40.42303003,
13952,,VIDRIO,V2200CL,,,1,CENTRO,UNIVERSIDAD,,,,439862.34,4475678.21,-370898025,40.42956876,
13955,,VIDRIO,V2200CL,,,1,CENTRO,JUSTICIA,,,,440485.89,4475406.65,-370160415,40.42716727,
13970,,VIDRIO,V2200CL,,,1,CENTRO,UNIVERSIDAD,,,,440075.07,4475430.21,-370644912,40.42735002,
13976,,VIDRIO,V2200CL,,,1,CENTRO,UNIVERSIDAD,,,,439435.257,4475515.267,-371399937,40.42806992,
13979,,VIDRIO,V2200CL,,,1,CENTRO,PALACIO,,,,439515.03,4473778.02,-371289377,40.41242582,
13999,,VIDRIO,V2200CL,,,1,CENTRO,UNIVERSIDAD,,,,439567.93,4475310.67,-371241595,40.42623646,
14031,,VIDRIO,V2200CL,,,1,CENTRO,CORTES,,,,440944.83,4474380.97,-369609889,40.41796016,
14362,,VIDRIO,V2200CL,,,1,CENTRO,UNIVERSIDAD,,,,439724.83,4475696.33,-371060300,40.42972204,
14366,,VIDRIO,V2200CL,,,1,CENTRO,UNIVERSIDAD,,,,440303.22,4475601.31,-370377574,40.42890777,
14372,,VIDRIO,V2200CL,,,1,CENTRO,UNIVERSIDAD,,,,440254.36,4474949.23,-370429045,40.42303003,
14378,,VIDRIO,V2200CL,,,1,CENTRO,UNIVERSIDAD,,,,439493.75,4475525.18,-371331078,40.42816347,
14388,,VIDRIO,V2200CL,,,1,CENTRO,CORTES,,,,440944.83,4474380.97,-369609889,40.41796016,
14390,,VIDRIO,V2200CL,,,1,CENTRO,UNIVERSIDAD,,,,440360.83,4475564.12,-370309313,40.42857687,
14404,,VIDRIO,V2200CL,,,1,CENTRO,UNIVERSIDAD,,,,440102.02,4475528.9,-370614073,40.428241,
14408,,VIDRIO,V2200CL,,,1,CENTRO,JUSTICIA,,,,441120.7751,4475007.841,-369408316,40.42361978,
14420,,VIDRIO,V2200CL,,,1,CENTRO,PALACIO,,,,439468.01,4473935.74,-371346292,40.41384322,
14422,,VIDRIO,V2200CL,,,1,CENTRO,CORTES,,,,440652.7403,4474287.278,-369953284,40.41709536,
14430,,VIDRIO,V2200CL,,,1,CENTRO,SOL,,,,439987.21,4474521.45,-370739905,40.41915716,
14432,,VIDRIO,V2200CL_vacri,,,1,CENTRO,CORTES,,,,441017.3269,4473909.354,-369520068,40.41371675,
14442,,VIDRIO,V2200CL,,,1,CENTRO,PALACIO,,,,439725.3193,4473896.574,-371042665,40.41350906,
14444,,VIDRIO,V2200CL,,,1,CENTRO,PALACIO,,,,439532.62,4473272.4,-371263841,40.40787224,
14458,,VIDRIO,V2200CL,,,1,CENTRO,JUSTICIA,,,,440856.9165,4475457.406,-369723519,40.42765097,
14476,,VIDRIO,V2200CL_vacri,,,1,CENTRO,SOL,,,,440324.3764,4474526.147,-370342544,40.41922372,
14478,,VIDRIO,V2200CL,,,1,CENTRO,PALACIO,,,,439455.94,4473535.68,-371356711,40.41023841,
14484,,VIDRIO,V2200CL,,,1,CENTRO,EMBAJADORES,,,,439943.98,4473750.14,-370783577,40.41220572,
14486,,VIDRIO,V2200CL,,,1,CHAMBERI,ALMAGRO,,,,441309.67,4475671.02,-369191779,40.42960736,
14494,,VIDRIO,V2200CL,,,1,CENTRO,EMBAJADORES,,,,440713.9,4473282.03,-369871832,40.40804395,
14500,,VIDRIO,V2200CL,,,1,CENTRO,PALACIO,,,,439637.5,4473920.79,-371146395,40.41372085,
14504,,VIDRIO,V2200CL,,,1,CENTRO,EMBAJADORES,,,,440085.4139,4473824.121,-370617588,40.41288237,
14512,,VIDRIO,V2200CL,,,1,CHAMBERI,GAZTAMBIDE,,,,439514.79,4476060.13,-371311366,40.43298406,
14514,,VIDRIO,V2200CL,,,1,CENTRO,PALACIO,,,,439695.94,4473776.46,-371076152,40.41242489,
14522,,VIDRIO,V2200CL,,,1,CHAMBERI,GAZTAMBIDE,,,,439225.0998,4476520.592,-371657286,40.43711098,
14530,,VIDRIO,V2200CL,,,1,CENTRO,EMBAJADORES,,,,439919.4031,4473062.238,-370806047,40.406007,
14538,,VIDRIO,V2200CL,,,1,CHAMBERI,GAZTAMBIDE,,,,439284.14,4475821.81,-371581004,40.43082037,
14540,,VIDRIO,V2200CL,,,1,CENTRO,PALACIO,,,,439496.27,4473380.94,-371307710,40.40884738,
14560,,VIDRIO,V2200CL,,,1,CENTRO,EMBAJADORES,,,,440502.36,4473159.56,-370119981,40.40692559,
14574,,VIDRIO,V2200CL,,,1,CENTRO,EMBAJADORES,,,,439933.33,4473717.17,-370795817,40.41190795,
14580,,VIDRIO,V2200CL,,,1,CENTRO,PALACIO,,,,439426.62,4473507.44,-371390996,40.40998188,
14588,,VIDRIO,V2200CL,,,1,CHAMBERI,GAZTAMBIDE,,,,439514.79,4476060.13,-371311366,40.43298406,
14596,,VIDRIO,V2200CL,,,1,CHAMBERI,GAZTAMBIDE,,,,439301.44,4476142.69,-371563674,40.43371225,
14600,,VIDRIO,V2200CL,,,1,CENTRO,EMBAJADORES,,,,440625.53,4473757.27,-369980408,40.41231885,
14612,,VIDRIO,V2200CL,,,1,CENTRO,EMBAJADORES,,,,440209.96,4473318.92,-370466057,40.40834024,
14626,,VIDRIO,V2200CL,,,1,CHAMBERI,GAZTAMBIDE,,,,439388.94,4475808.67,-371457333,40.43070964,
14634,,VIDRIO,V2200CL,,,1,CHAMBERI,GAZTAMBIDE,,,,439388.94,4475808.67,-371457333,40.43070964,
14636,,VIDRIO,V2200CL,,,1,CENTRO,PALACIO,,,,439828.36,4473648.86,-370918882,40.411285,
14644,,VIDRIO,V2200CL,,,1,CENTRO,EMBAJADORES,,,,440913.12,4473454.45,-369638658,40.40961136,
14646,,VIDRIO,V2200CL,,,1,CHAMBERI,GAZTAMBIDE,,,,439202.55,4476008.35,-371678971,40.43249484,
14652,,VIDRIO,V2200CL,,,1,CENTRO,EMBAJADORES,,,,440432.2,4473041.97,-370201560,40.40586127,
14656,,VIDRIO,V2200CL,,,1,CHAMBERI,GAZTAMBIDE,,,,439245.06,4476731.29,-371635768,40.43901049,
14664,,VIDRIO,V2200CL,,,1,CHAMBERI,GAZTAMBIDE,,,,439202.55,4476008.35,-371678971,40.43249484,
14668,,VIDRIO,V2200CL,,,1,CENTRO,EMBAJADORES,,,,440609.63,4473041.02,-369992462,40.40586538,
14680,,VIDRIO,V2200CL,,,1,CENTRO,PALACIO,,,,439594.47,4473634.8,-371194393,40.4111414,
14692,,VIDRIO,V2200CL,,,1,CHAMBERI,GAZTAMBIDE,,,,439407.46,4476101.28,-371438290,40.43334695,
14704,,VIDRIO,V2200CL,,,1,CHAMBERI,GAZTAMBIDE,,,,439314.22,4475944.77,-371546717,40.43193024,
14708,,VIDRIO,V2200CL,,,1,CENTRO,PALACIO,,,,439341.56,4473873.63,-371494730,40.41327449,
14720,,VIDRIO,V2200CL,,,1,CHAMBERI,ARAPILES,,,,439669.71,4476432.73,-371132268,40.43635185,
14724,,VIDRIO,V2200CL,,,1,CENTRO,PALACIO,,,,439462.36,4473722.57,-371350923,40.41192247,
14728,,VIDRIO,V2200CL,,,1,CHAMBERI,ARAPILES,,,,440036.36,4476173.73,-370697558,40.43404519,
14740,,VIDRIO,V2200CL,,,1,CENTRO,EMBAJADORES,,,,440941.22,4473305.27,-369604158,40.40826947,
14745,,VIDRIO,V2200CL,,,1,CHAMBERI,ARAPILES,,,,440266.23,4476501.82,-370429643,40.43701731,
14749,,VIDRIO,V2200CL,,,1,CENTRO,EMBAJADORES,,,,440452.25,4473074.95,-370178241,40.4061598,
14761,,VIDRIO,V2200CL,,,1,CHAMBERI,ARAPILES,,,,440005.86,4475952.89,-370731430,40.43205356,
14767,,VIDRIO,V2200CL,,,1,CENTRO,EMBAJADORES,,,,440161.26,4473774.69,-370527735,40.41244253,
14779,,VIDRIO,V2200CL,,,1,CHAMBERI,ARAPILES,,,,440005.86,4475952.89,-370731430,40.43205356,
14785,,VIDRIO,V2200CL,,,1,CENTRO,EMBAJADORES,,,,440204.2064,4473898.719,-370478286,40.41356293,
14797,,VIDRIO,V2200CL,,,1,CHAMBERI,ARAPILES,,,,440266.23,4476501.82,-370429643,40.43701731,
14803,,VIDRIO,V2200CL,,,1,CENTRO,CORTES,,,,441103.0423,4473495.059,-369415211,40.40999065,
14817,,VIDRIO,V2200CL,,,1,CHAMBERI,ARAPILES,,,,439810.36,4476707.19,-370969047,40.4388345,
14829,,VIDRIO,V2200CL,,,1,CENTRO,EMBAJADORES,,,,440274.27,4473217.11,-370389314,40.4074277,
14835,,VIDRIO,V2200CL,,,1,CHAMBERI,ARAPILES,,,,439810.36,4476707.19,-370969047,40.4388345,
14847,,VIDRIO,V2200CL,,,1,CENTRO,UNIVERSIDAD,,,,439861.0,4475096.18,-370894099,40.42432548,
14853,,VIDRIO,V2200CL,,,1,CHAMBERI,ARAPILES,,,,439664.81,4476324.6,-371137018,40.43537742,
14989,,VIDRIO,V2200CL,,,1,CHAMBERI,ARAPILES,,,,440157.71,4476344.97,-370556108,40.43559653,
14993,,VIDRIO,V2200CL,,,1,CENTRO,SOL,,,,440326.22,4474038.03,-370335792,40.41482667,
14998,,VIDRIO,V2200CL,,,1,CHAMBERI,ARAPILES,,,,439880.75,4476699.24,-370885982,40.43876797,
14999,,VIDRIO,V2200CL,,,1,CENTRO,UNIVERSIDAD,,,,439825.56,4475414.87,-370938891,40.42719382,
15001,,VIDRIO,V2200CL,,,1,LATINA,CAMPAMENTO,,,,434268.8051,4471790.642,-377451695,40.39412507,
15002,,VIDRIO,V2200CL,,,1,LATINA,CAMPAMENTO,,,,432436.68,4469751.65,-379588688,40.37561055,
15003,,VIDRIO,V2200CL,,,1,LATINA,CAMPAMENTO,,,,434311.7,4471855.53,-377401826,40.39471298,
15004,,VIDRIO,V2200CL,,,1,LATINA,CAMPAMENTO,,,,433782.73,4471864.49,-378025160,40.39475181,
15005,,VIDRIO,V2200CL,,,1,LATINA,CAMPAMENTO,,,,432565.22,4469879.25,-379438634,40.37677042,
15006,,VIDRIO,V2200CL,,,1,LATINA,CAMPAMENTO,,,,432938.71,4470479.49,-379005016,40.38220773,
15007,,VIDRIO,V2200CL,,,1,LATINA,CAMPAMENTO,,,,434725.42,4472106.77,-376916948,40.39700877,
15008,,VIDRIO,V2200CL,,,1,LATINA,CAMPAMENTO,,,,432992.91,4470321.15,-378939504,40.38078571,
15009,,VIDRIO,V2200CL,,,1,LATINA,CAMPAMENTO,,,,432853.47,4470189.11,-379102368,40.37958502,
15010,,VIDRIO,V2200CL,,,1,LATINA,CAMPAMENTO,,,,432685.9,4470362.25,-379301586,40.38113121,
15011,,VIDRIO,V2200CL,,,1,LATINA,CAMPAMENTO,,,,432813.04,4470535.75,-379153648,40.38270442,
15012,,VIDRIO,V2200CL,,,1,LATINA,CAMPAMENTO,,,,434568.99,4472172.77,-377101942,40.39759105,
15013,,VIDRIO,V2200CL,,,1,LATINA,CAMPAMENTO,,,,433849.03,4471754.55,-377945902,40.3937667,
15014,,VIDRIO,V2200CL,,,1,LATINA,CAMPAMENTO,,,,433955.61,4471818.61,-377820994,40.39435224,
15015,,VIDRIO,V2200CL_vacri,,,1,CENTRO,JUSTICIA,,,,440649.68,4475370.24,-369966998,40.42685097,
15016,,VIDRIO,V2200CL,,,1,LATINA,CAMPAMENTO,,,,432758.5,4470092.47,-379213219,40.3787068,
15017,,VIDRIO,V2200CL,,,1,LATINA,CAMPAMENTO,,,,432592.6,4470213.12,-379409914,40.37978025,
15018,,VIDRIO,V2200CL,,,1,LATINA,CAMPAMENTO,,,,432667.26,4470127.82,-379321067,40.37901788,
15019,,VIDRIO,V2200CL,,,1,LATINA,CAMPAMENTO,,,,434728.47,4472332.92,-376915673,40.39904626,
15020,,VIDRIO,V2200CL,,,1,LATINA,CUATRO VIENTOS,,,,434539.5,4469415.62,-377108360,40.37275127,
15021,,VIDRIO,V2200CL,,,1,LATINA,CAMPAMENTO,,,,434680.64,4472229.41,-376970969,40.39811005,
15022,,VIDRIO,V2200CL,,,1,LATINA,CUATRO VIENTOS,,,,434177.32,4469515.07,-377535975,40.37361863,
15023,,VIDRIO,V2200CL,,,1,LATINA,CUATRO VIENTOS,,,,434576.72,4469383.44,-377064190,40.3724643,
15024,,VIDRIO,V2200CL,,,1,LATINA,CUATRO VIENTOS,,,,434946.8,4469312.57,-376627575,40.37185484,
15025,,VIDRIO,V2200CL,,,1,LATINA,CUATRO VIENTOS,,,,434420.38,4469463.27,-377249154,40.37317116,
15026,,VIDRIO,V2200CL,,,1,LATINA,CUATRO VIENTOS,,,,434779.99,4469341.45,-376824343,40.37210197,
15027,,VIDRIO,V2200CL,,,1,LATINA,CUATRO VIENTOS,,,,434667.17,4469486.27,-376958709,40.37339773,
15028,,VIDRIO,V2200CL,,,1,LATINA,CUATRO VIENTOS,,,,434380.77,4469363.28,-377294779,40.37226729,
15029,,VIDRIO,V2200CL,,,1,LATINA,CUATRO VIENTOS,,,,434902.37,4469439.17,-376681198,40.37299184,
15030,,VIDRIO,V2200CL,,,1,LATINA,CUATRO VIENTOS,,,,435072.66,4469200.19,-376478190,40.37085229,
15031,,VIDRIO,V2200CL,,,1,LATINA,CUATRO VIENTOS,,,,434790.65,4469469.67,-376813099,40.37325786,
15032,,VIDRIO,V2200CL,,,1,LATINA,CUATRO VIENTOS,,,,435073.71,4469291.79,-376477886,40.37167754,
15033,,VIDRIO,V2200CL,,,1,LATINA,AGUILAS,,,,435014.91,4471039.03,-376564959,40.3874128,
15034,,VIDRIO,V2200CL,,,1,LATINA,AGUILAS,,,,434202.39,4470327.61,-377514835,40.38094029,
15035,,VIDRIO,V2200CL,,,1,LATINA,AGUILAS,,,,434880.13,4470129.64,-376714448,40.37921013,
15036,,VIDRIO,V2200CL,,,1,LATINA,AGUILAS,,,,433703.66,4469755.33,-378096374,40.37574544,
15037,,VIDRIO,V2200CL,,,1,LATINA,AGUILAS,,,,435005.18,4470991.52,-376575937,40.38698405,
15038,,VIDRIO,V2200CL,,,1,LATINA,AGUILAS,,,,434496.38,4471061.67,-377176068,40.38757614,
15039,,VIDRIO,V2200CL,,,1,LATINA,AGUILAS,,,,435232.9,4470133.08,-376298937,40.37926861,
15040,,VIDRIO,V2200CL,,,1,LATINA,AGUILAS,,,,433564.75,4470595.64,-378268754,40.3833042,
15041,,VIDRIO,V2200CL,,,1,LATINA,AGUILAS,,,,435066.46,4470167.02,-376495341,40.37956141,
15042,,VIDRIO,V2200CL,,,1,LATINA,AGUILAS,,,,433596.2567,4470689.571,-378232617,40.38415288,
15043,,VIDRIO,V2200CL,,,1,LATINA,AGUILAS,,,,434276.18,4469854.75,-377423035,40.3766864,
15044,,VIDRIO,V2200CL,,,1,LATINA,AGUILAS,,,,435141.27,4470418.33,-376409776,40.38183114,
15045,,VIDRIO,V2200CL,,,1,LATINA,AGUILAS,,,,434923.27,4471267.06,-376675249,40.38945983,
15046,,VIDRIO,V2200CL,,,1,LATINA,AGUILAS,,,,434656.1,4469851.78,-376975495,40.37668952,
15047,,VIDRIO,V2200CL,,,1,LATINA,AGUILAS,,,,435061.6524,4469538.301,-376494599,40.37389727,
15048,,VIDRIO,V2200CL,,,1,LATINA,AGUILAS,,,,434495.86,4470223.99,-377168068,40.38002996,
15049,,VIDRIO,V2200CL,,,1,LATINA,AGUILAS,,,,435015.74,4470584.43,-376559344,40.38331765,
15050,,VIDRIO,V2200CL,,,1,LATINA,AGUILAS,,,,433740.18,4470235.33,-378058348,40.38007237,
15051,,VIDRIO,V2200CL,,,1,LATINA,AGUILAS,,,,434430.84,4469812.41,-377240425,40.37631717,
15052,,VIDRIO,V2200CL,,,1,LATINA,AGUILAS,,,,434484.1307,4471206.493,-377191988,40.3888798,
15053,,VIDRIO,V2200CL,,,1,LATINA,AGUILAS,,,,435056.4,4469787.64,-376503326,40.37614301,
15054,,VIDRIO,V2200CL,,,1,LATINA,AGUILAS,,,,435024.1993,4470024.237,-376543667,40.37827187,
15055,,VIDRIO,V2200CL,,,1,LATINA,AGUILAS,,,,435024.1993,4470024.237,-376543667,40.37827187,
15056,,VIDRIO,V2200CL,,,1,LATINA,AGUILAS,,,,434053.46,4470405.28,-377691075,40.38162819,
15057,,VIDRIO,V2200CL,,,1,LATINA,AGUILAS,,,,435176.32,4470549.35,-376369820,40.38301414,
15058,,VIDRIO,V2200CL,,,1,LATINA,AGUILAS,,,,434558.29,4469749.93,-377089660,40.37576434,
15059,,VIDRIO,V2200CL,,,1,LATINA,AGUILAS,,,,434640.67,4470574.9,-377001087,40.38320246,
15060,,VIDRIO,V2200CL,,,1,LATINA,AGUILAS,,,,433856.71,4470529.62,-377924134,40.3827327,
15061,,VIDRIO,V2200CL,,,1,LATINA,AGUILAS,,,,435069.48,4469682.28,-376486846,40.37519491,
15062,,VIDRIO,V2200CL,,,1,LATINA,AGUILAS,,,,434408.42,4470000.76,-377268772,40.37801214,
15063,,VIDRIO,V2200CL,,,1,LATINA,AGUILAS,,,,434974.88,4471186.91,-376613628,40.38874184,
15064,,VIDRIO,V2200CL,,,1,LATINA,AGUILAS,,,,434974.88,4471186.91,-376613628,40.38874184,
15065,,VIDRIO,V2200CL,,,1,LATINA,AGUILAS,,,,433672.56,4470674.55,-378142573,40.38402364,
15066,,VIDRIO,V2200CL,,,1,LATINA,AGUILAS,,,,434212.4,4469750.95,-377497090,40.3757463,
15067,,VIDRIO,V2200CL,,,1,LATINA,AGUILAS,,,,434095.84,4470257.12,-377639619,40.38029686,
15068,,VIDRIO,V2200CL,,,1,LATINA,AGUILAS,,,,434622.64,4469687.76,-377013225,40.37520934,
15069,,VIDRIO,V2200CL,,,1,LATINA,AGUILAS,,,,434107.91,4470069.96,-377623466,40.37861181,
15070,,VIDRIO,V2200CL,,,1,LATINA,AGUILAS,,,,434195.2,4469871.8,-377518598,40.37683361,
15071,,VIDRIO,V2200CL,,,1,LATINA,AGUILAS,,,,434982.55,4470292.51,-376595464,40.38068533,
15072,,VIDRIO,V2200CL,,,1,LATINA,AGUILAS,,,,434488.21,4469936.42,-377174123,40.37743881,
15073,,VIDRIO,V2200CL,,,1,LATINA,AGUILAS,,,,434544.4,4470553.3,-377114273,40.38300032,
15074,,VIDRIO,V2200CL,,,1,LATINA,AGUILAS,,,,434766.3,4471295.07,-376860467,40.38969988,
15075,,VIDRIO,V2200CL,,,1,TETUAN,ALMENARA,,,,440965.43,4480195.7,-369639649,40.47034329,
15076,,VIDRIO,V2200CL,,,1,LATINA,AGUILAS,,,,433587.87,4470289.24,-378238325,40.38054588,
15077,,VIDRIO,V2200CL,,,1,LATINA,AGUILAS,,,,435007.7,4469720.81,-376560008,40.37553719,
15078,,VIDRIO,V2200CL,,,1,LATINA,AGUILAS,,,,433625.41,4469910.62,-378190160,40.37713813,
15079,,VIDRIO,V2200CL,,,1,LATINA,AGUILAS,,,,433625.41,4469910.62,-378190160,40.37713813,
15080,,VIDRIO,V2200CL,,,1,LATINA,AGUILAS,,,,435273.72,4470272.52,-376252270,40.38052792,
15081,,VIDRIO,V2200CL,,,1,LATINA,AGUILAS,,,,433895.89,4469712.9,-377869509,40.37537849,
15082,,VIDRIO,V2200CL,,,1,LATINA,AGUILAS,,,,433727.88,4470220.25,-378072680,40.37993554,
15083,,VIDRIO,V2200CL,,,1,LATINA,AGUILAS,,,,434091.99,4470373.63,-377645359,40.38134613,
15084,,VIDRIO,V2200CL,,,1,LATINA,AGUILAS,,,,434898.25,4470928.28,-376701263,40.38640601,
15085,,VIDRIO,V2200CL,,,1,LATINA,AGUILAS,,,,435061.24,4470830.79,-376508255,40.38554051,
15086,,VIDRIO,V2200CL,,,1,LATINA,AGUILAS,,,,433684.83,4470816.52,-378129597,40.38530354,
15087,,VIDRIO,V2200CL,,,1,LATINA,AGUILAS,,,,434966.99,4469557.03,-376606289,40.37405861,
15088,,VIDRIO,V2200CL,,,1,LATINA,AGUILAS,,,,434292.43,4469965.24,-377405033,40.37768302,
15089,,VIDRIO,V2200CL,,,1,LATINA,AGUILAS,,,,434799.72,4469702.49,-376804797,40.37535591,
15090,,VIDRIO,V2200CL,,,1,LATINA,AGUILAS,,,,434799.72,4469702.49,-376804797,40.37535591,
15091,,VIDRIO,V2200CL,,,1,LATINA,AGUILAS,,,,434976.05,4469820.93,-376598309,40.37643664,
15092,,VIDRIO,V2200CL,,,1,LATINA,AGUILAS,,,,433477.16,4470054.13,-378366283,40.3784191,
15093,,VIDRIO,V2200CL,,,1,LATINA,AGUILAS,,,,433457.44,4470133.38,-378390340,40.37913144,
15094,,VIDRIO,V2200CL,,,1,LATINA,AGUILAS,,,,433838.8184,4470414.934,-377944020,40.38169814,
15095,,VIDRIO,V2200CL,,,1,LATINA,AGUILAS,,,,433751.68,4470002.23,-378042378,40.37797343,
15096,,VIDRIO,V2200CL,,,1,LATINA,AGUILAS,,,,433780.14,4470333.44,-378012296,40.38095936,
15097,,VIDRIO,V2200CL,,,1,LATINA,AGUILAS,,,,434929.7,4469967.2,-376654398,40.37775068,
15098,,VIDRIO,V2200CL,,,1,LATINA,AGUILAS,,,,435041.19,4470353.6,-376527010,40.38124023,
15099,,VIDRIO,V2200CL,,,1,LATINA,AGUILAS,,,,434929.7,4469967.2,-376654398,40.37775068,
15100,,VIDRIO,V2200CL,,,1,LATINA,AGUILAS,,,,435091.54,4471093.72,-376475239,40.38791145,
15101,,VIDRIO,V2200CL,,,1,LATINA,AGUILAS,,,,434087.15,4469865.58,-377645806,40.37676904,
15102,,VIDRIO,V2200CL,,,1,LATINA,AGUILAS,,,,434882.46,4470432.96,-376714803,40.38194274,
15103,,VIDRIO,V2200CL,,,1,CHAMBERI,VALLEHERMOSO,,,,439759.98,4477566.97,-371036598,40.44657611,
15104,,VIDRIO,V2200CL,,,1,FUENCARRAL-EL PARDO,PEÑAGRANDE,,,,439529.65,4481480.35,-371345481,40.48181259,
15105,,VIDRIO,V2200CL,,,1,LATINA,LUCERO,,,,436404.83,4473222.17,-374949305,40.40718668,
15106,,VIDRIO,V2200CL,,,1,CHAMBERI,RIOS ROSAS,,,,440847.47,4476989.26,-369748913,40.44144993,
15107,,VIDRIO,V2200CL,,,1,FUENCARRAL-EL PARDO,PEÑAGRANDE,,,,439529.65,4481480.35,-371345481,40.48181259,
15108,,VIDRIO,V2200CL,,,1,CHAMBERI,RIOS ROSAS,,,,440490.03,4477422.26,-370174410,40.44532508,
15109,,VIDRIO,V2200CL,,,1,LATINA,LUCERO,,,,436261.0799,4472070.195,-375107171,40.39679824,
15110,,VIDRIO,V2200CL,,,1,FUENCARRAL-EL PARDO,EL GOLOSO,,,,441099.266,4484568.075,-369522418,40.50974077,
15111,,VIDRIO,V2200CL,,,1,LATINA,LUCERO,,,,436853.47,4472131.12,-374409785,40.39739221,
15112,,VIDRIO,V2200CL,,,1,CHAMBERI,VALLEHERMOSO,,,,439822.9,4477157.57,-370958528,40.44289262,
15113,,VIDRIO,V2200CL,,,1,CHAMBERI,RIOS ROSAS,,,,440883.98,4477524.28,-369710845,40.44627222,
15114,,VIDRIO,V2200CL,,,1,CHAMBERI,ARAPILES,,,,439931.28,4475903.04,-370818881,40.43159911,
15115,,VIDRIO,V2200CL,,,1,FUENCARRAL-EL PARDO,EL PARDO,,,,434108.86,4485533.75,-377782786,40.51791392,
15116,,VIDRIO,V2200CL,,,1,CHAMBERI,VALLEHERMOSO,,,,440289.12,4477277.07,-370409942,40.44400274,
15117,,VIDRIO,V2200CL,,,1,CHAMBERI,VALLEHERMOSO,,,,439345.5,4477110.95,-371520973,40.44243796,
15118,,VIDRIO,V2200CL,,,1,LATINA,LUCERO,,,,436536.32,4473253.87,-374794668,40.40748229,
15119,,VIDRIO,V2200CL,,,1,FUENCARRAL-EL PARDO,VALVERDE,,,,443528.655,4485328.355,-366661903,40.51675862,
15120,,VIDRIO,V2200CL,,,1,CHAMBERI,VALLEHERMOSO,,,,439835.13,4477371.3,-370946132,40.44481887,
15121,,VIDRIO,V2200CL,,,1,CHAMBERI,RIOS ROSAS,,,,440883.98,4477524.28,-369710845,40.44627222,
15122,,VIDRIO,V2200CL,,,1,LATINA,LUCERO,,,,436183.14,4472389.12,-375202202,40.39966528,
15123,,VIDRIO,V2200CL,,,1,FUENCARRAL-EL PARDO,PEÑAGRANDE,,,,439124.9973,4481910.045,-371826998,40.48565386,
15124,,VIDRIO,V2200CL,,,1,CHAMBERI,VALLEHERMOSO,,,,440023.42,4477508.44,-370725413,40.44606789,
15125,,VIDRIO,V2200CL,,,1,CHAMBERI,GAZTAMBIDE,,,,439313.33,4476316.99,-371551321,40.43528329,
15126,,VIDRIO,V2200CL,,,1,LATINA,LUCERO,,,,436183.14,4472389.12,-375202202,40.39966528,
15127,,VIDRIO,V2200CL,,,1,FUENCARRAL-EL PARDO,VALVERDE,,,,441544.1061,4481973.496,-368973454,40.48639931,
15128,,VIDRIO,V2200CL,,,1,CHAMBERI,VALLEHERMOSO,,,,440085.34,4476729.87,-370645058,40.43905867,
15129,,VIDRIO,V2200CL,,,1,CHAMBERI,ARAPILES,,,,439740.8,4475907.87,-371043479,40.43162884,
15130,,VIDRIO,V2200CL,,,1,LATINA,LUCERO,,,,436813.35,4472312.84,-374458861,40.39902617,
15131,,VIDRIO,V2200CL,,,1,FUENCARRAL-EL PARDO,VALVERDE,,,,443528.655,4485328.355,-366661903,40.51675862,
15132,,VIDRIO,V2200CL,,,1,CHAMBERI,VALLEHERMOSO,,,,439540.41,4476837.3,-371288557,40.439987,
15133,,VIDRIO,V2200CL,,,1,CHAMBERI,RIOS ROSAS,,,,440996.43,4477418.8,-369577271,40.44533,
15134,,VIDRIO,V2200CL,,,1,LATINA,LUCERO,,,,435976.72,4472952.05,-375451090,40.40472053,
15135,,VIDRIO,V2200CL,,,1,FUENCARRAL-EL PARDO,MIRASIERRA,,,,438178.4471,4482360.387,-372948149,40.48964074,
15136,,VIDRIO,V2200CL,,,1,CHAMBERI,VALLEHERMOSO,,,,439324.59,4476928.26,-371543883,40.44079069,
15137,,VIDRIO,V2200CL,,,1,CHAMBERI,RIOS ROSAS,,,,441122.43,4476874.16,-369423654,40.44043257,
15138,,VIDRIO,V2200CL,,,1,LATINA,LUCERO,,,,436086.51,4473056.59,-375322764,40.4056707,
15139,,VIDRIO,V2200CL,,,1,FUENCARRAL-EL PARDO,VALVERDE,,,,442930.22,4483098.0,-367348182,40.49662575,
15140,,VIDRIO,V2200CL,,,1,CHAMBERI,VALLEHERMOSO,,,,439540.41,4476837.3,-371288557,40.439987,
15141,,VIDRIO,V2200CL,,,1,CHAMBERI,GAZTAMBIDE,,,,439308.09,4476225.3,-371556623,40.43445693,
15142,,VIDRIO,V2200CL,,,1,LATINA,ALUCHE,,,,435744.67,4472079.12,-375715726,40.39683896,
15143,,VIDRIO,V2200CL,,,1,FUENCARRAL-EL PARDO,PILAR,,,,439921.54,4480809.26,-370876788,40.47579562,
15144,,VIDRIO,V2200CL,,,1,CHAMBERI,VALLEHERMOSO,,,,440071.31,4476831.49,-370662558,40.43997309,
15145,,VIDRIO,V2200CL,,,1,FUENCARRAL-EL PARDO,PILAR,,,,439921.54,4480809.26,-370876788,40.47579562,
15146,,VIDRIO,V2200CL,,,1,LATINA,ALUCHE,,,,435866.31,4471395.7,-375565520,40.39069181,
15147,,VIDRIO,V2200CL,,,1,CHAMBERI,TRAFALGAR,,,,440523.85,4475854.85,-370119861,40.43120757,
15148,,VIDRIO,V2200CL,,,1,FUENCARRAL-EL PARDO,EL GOLOSO,,,,441430.2,4484974.56,-369135594,40.51342596,
15149,,VIDRIO,V2200CL,,,1,CHAMBERI,RIOS ROSAS,,,,440878.4806,4477413.481,-369716298,40.44527371,
15150,,VIDRIO,V2200CL,,,1,FUENCARRAL-EL PARDO,VALVERDE,,,,441828.01,4481797.12,-368636873,40.48483039,
15151,,VIDRIO,V2200CL,,,1,CHAMBERI,ARAPILES,,,,439897.7,4476235.75,-370861614,40.43459388,
15152,,VIDRIO,V2200CL,,,1,LATINA,ALUCHE,,,,435648.03,4471530.9,-375824053,40.39189291,
15153,,VIDRIO,V2200CL,,,1,FUENCARRAL-EL PARDO,VALVERDE,,,,443531.63,4484314.09,-366649344,40.50762192,
15154,,VIDRIO,V2200CL,,,1,CHAMBERI,VALLEHERMOSO,,,,439194.14,4477416.91,-371702366,40.44518311,
15155,,VIDRIO,V2200CL,,,1,CHAMBERI,GAZTAMBIDE,,,,439489.62,4476576.32,-371345954,40.43763229,
15156,,VIDRIO,V2200CL,,,1,LATINA,ALUCHE,,,,435788.72,4472163.5,-375664675,40.39760248,
15157,,VIDRIO,V2200CL,,,1,FUENCARRAL-EL PARDO,EL GOLOSO,,,,440857.62,4488647.75,-369845765,40.54647455,
15158,,VIDRIO,V2200CL,,,1,CHAMBERI,VALLEHERMOSO,,,,439567.45,4476975.81,-371257994,40.44123672,
15159,,VIDRIO,V2200CL,,,1,CHAMBERI,ARAPILES,,,,439897.89,4476550.57,-370864367,40.43742993,
15160,,VIDRIO,V2200CL,,,1,LATINA,ALUCHE,,,,435696.91,4470848.53,-375759576,40.38574962,
15161,,VIDRIO,V2200CL,,,1,FUENCARRAL-EL PARDO,MIRASIERRA,,,,439308.0146,4482396.932,-371615732,40.49005331,
15162,,VIDRIO,V2200CL,,,1,CHAMBERI,VALLEHERMOSO,,,,439470.19,4477138.14,-371374215,40.44269198,
15163,,VIDRIO,V2200CL,,,1,CHAMBERI,GAZTAMBIDE,,,,439182.6,4476598.38,-371708137,40.43780862,
15164,,VIDRIO,V2200CL,,,1,LATINA,ALUCHE,,,,435788.72,4472163.5,-375664675,40.39760248,
15165,,VIDRIO,V2200CL,,,1,FUENCARRAL-EL PARDO,MIRASIERRA,,,,439285.36,4482686.81,-371645240,40.49266296,
15166,,VIDRIO,V2200CL,,,1,CHAMBERI,VALLEHERMOSO,,,,439755.35,4477436.5,-371040820,40.44540044,
15167,,VIDRIO,V2200CL,,,1,CHAMBERI,GAZTAMBIDE,,,,439489.62,4476576.32,-371345954,40.43763229,
15168,,VIDRIO,V2200CL,,,1,LATINA,ALUCHE,,,,435696.91,4470848.53,-375759576,40.38574962,
15169,,VIDRIO,V2200CL,,,1,FUENCARRAL-EL PARDO,VALVERDE,,,,443296.53,4484174.16,-366925561,40.50634534,
15170,,VIDRIO,V2200CL,,,1,CHAMBERI,VALLEHERMOSO,,,,439755.35,4477436.5,-371040820,40.44540044,
15171,,VIDRIO,V2200CL,,,1,CHAMBERI,GAZTAMBIDE,,,,439182.6,4476598.38,-371708137,40.43780862,
15172,,VIDRIO,V2200CL,,,1,LATINA,ALUCHE,,,,434967.42,4471294.57,-376623515,40.3897111,
15173,,VIDRIO,V2200CL,,,1,FUENCARRAL-EL PARDO,VALVERDE,,,,443005.75,4484002.17,-367267190,40.50477606,
15174,,VIDRIO,V2200CL,,,1,CHAMBERI,VALLEHERMOSO,,,,439344.22,4477273.64,-371524036,40.44390344,
15175,,VIDRIO,V2200CL,,,1,CHAMBERI,RIOS ROSAS,,,,441029.92,4476883.65,-369532814,40.44051151,
15176,,VIDRIO,V2200CL,,,1,LATINA,ALUCHE,,,,436190.8,4470932.2,-375178578,40.38654133,
15177,,VIDRIO,V2200CL,,,1,FUENCARRAL-EL PARDO,MIRASIERRA,,,,439578.8752,4483065.464,-371302519,40.49609542,
15178,,VIDRIO,V2200CL,,,1,LATINA,ALUCHE,,,,434967.42,4471294.57,-376623515,40.3897111,
15179,,VIDRIO,V2200CL,,,1,CHAMBERI,VALLEHERMOSO,,,,439482.07,4477251.74,-371361290,40.4437162,
15180,,VIDRIO,V2200CL,,,1,CHAMBERI,VALLEHERMOSO,,,,440262.92,4477095.82,-370439130,40.44236808,
15181,,VIDRIO,V2200CL,,,1,CHAMBERI,VALLEHERMOSO,,,,439162.61,4477233.79,-371737789,40.44353119,
15182,,VIDRIO,V2200CL,,,1,CHAMBERI,VALLEHERMOSO,,,,440192.84,4477160.58,-370522369,40.44294643,
15183,,VIDRIO,V2200CL,,,1,LATINA,ALUCHE,,,,435682.8,4471877.16,-375786585,40.39501485,
15184,,VIDRIO,V2200CL,,,1,CHAMBERI,VALLEHERMOSO,,,,440073.67,4477411.35,-370665245,40.44519689,
15185,,VIDRIO,V2200CL,,,1,FUENCARRAL-EL PARDO,VALVERDE,,,,443173.06,4484216.02,-367071655,40.50671399,
15186,,VIDRIO,V2200CL_vacri,,,1,CHAMBERI,GAZTAMBIDE,,,,439655.97,4476564.48,-371149718,40.43753772,
15187,,VIDRIO,V2200CL,,,1,LATINA,ALUCHE,,,,435826.33,4471100.15,-375609645,40.3880263,
15188,,VIDRIO,V2200CL,,,1,CHAMBERI,VALLEHERMOSO,,,,440073.67,4477411.35,-370665245,40.44519689,
15189,,VIDRIO,V2200CL,,,1,FUENCARRAL-EL PARDO,MIRASIERRA,,,,439552.46,4482843.29,-371331569,40.49409208,
15190,,VIDRIO,V2200CL,,,1,CHAMBERI,VALLEHERMOSO,,,,440192.84,4477160.58,-370522369,40.44294643,
15191,,VIDRIO,V2200CL,,,1,LATINA,ALUCHE,,,,435826.33,4471100.15,-375609645,40.3880263,
15192,,VIDRIO,V2200CL,,,1,CHAMBERI,VALLEHERMOSO,,,,440097.13,4476953.9,-370633270,40.44107767,
15193,,VIDRIO,V2200CL,,,1,FUENCARRAL-EL PARDO,MIRASIERRA,,,,438571.67,4482277.02,-372483381,40.48891893,
15194,,VIDRIO,V2200CL,,,1,CHAMBERI,VALLEHERMOSO,,,,439375.02,4477396.94,-371488897,40.44501642,
15195,,VIDRIO,V2200CL,,,1,LATINA,ALUCHE,,,,435283.581,4471380.039,-376251904,40.39050566,
15196,,VIDRIO,V2200CL,,,1,CHAMBERI,VALLEHERMOSO,,,,439791.15,4476832.91,-370992887,40.43996565,
15197,,VIDRIO,V2200CL,,,1,FUENCARRAL-EL PARDO,EL GOLOSO,,,,440413.68,4483974.14,-370325990,40.50434145,
15198,,VIDRIO,V2200CL,,,1,CHAMBERI,RIOS ROSAS,,,,440576.22,4477059.57,-370069389,40.44206397,
15199,,VIDRIO,V2200CL,,,1,LATINA,ALUCHE,,,,435283.5425,4471379.939,-376251948,40.39050476,
15200,,VIDRIO,V2200CL,,,1,CHAMBERI,VALLEHERMOSO,,,,439970.82,4477507.79,-370787429,40.44605824,
15201,,VIDRIO,V2200CL,,,1,FUENCARRAL-EL PARDO,VALVERDE,,,,441599.75,4482063.64,-368908633,40.48721528,
15202,,VIDRIO,V2200CL,,,1,CHAMBERI,RIOS ROSAS,,,,440611.73,4477547.91,-370032086,40.44646569,
15203,,VIDRIO,V2200CL,,,1,LATINA,ALUCHE,,,,435395.27,4471367.26,-376120188,40.39039921,
15204,,VIDRIO,V2200CL,,,1,CHAMBERI,VALLEHERMOSO,,,,439963.61,4476939.07,-370790555,40.44093445,
15205,,VIDRIO,V2200CL,,,1,FUENCARRAL-EL PARDO,EL GOLOSO,,,,440413.68,4483974.14,-370325990,40.50434145,
15206,,VIDRIO,V2200CL,,,1,CHAMBERI,ALMAGRO,,,,441371.97,4476098.98,-369122285,40.43346702,
15207,,VIDRIO,V2200CL,,,1,LATINA,ALUCHE,,,,435383.23,4471665.18,-376137396,40.39308206,
15208,,VIDRIO,V2200CL,,,1,CHAMBERI,VALLEHERMOSO,,,,439963.61,4476939.07,-370790555,40.44093445,
15209,,VIDRIO,V2200CL,,,1,FUENCARRAL-EL PARDO,VALVERDE,,,,442977.93,4483833.25,-367298501,40.50325245,
15210,,VIDRIO,V2200CL,,,1,CHAMBERI,ALMAGRO,,,,441374.97,4476223.33,-369119895,40.43458744,
15211,,VIDRIO,V2200CL,,,1,CHAMBERI,GAZTAMBIDE,,,,439432.36,4476562.2,-371413328,40.43750092,
15212,,VIDRIO,V2200CL,,,1,CHAMBERI,ARAPILES,,,,439764.39,4476358.83,-371019944,40.43569299,
15213,,VIDRIO,V2200CL,,,1,CHAMBERI,ARAPILES,,,,439764.39,4476358.83,-371019944,40.43569299,
15214,,VIDRIO,V2200CL,,,1,CHAMBERI,TRAFALGAR,,,,440473.67,4476663.91,-370186595,40.43849236,
15215,,VIDRIO,V2200CL,,,1,CHAMBERI,RIOS ROSAS,,,,441040.05,4477260.13,-369524365,40.44390373,
15216,,VIDRIO,V2200CL,,,1,CHAMBERI,GAZTAMBIDE,,,,439439.34,4476711.77,-371406525,40.43884882,
15217,,VIDRIO,V2200CL,,,1,CHAMBERI,RIOS ROSAS,,,,441040.05,4477260.13,-369524365,40.44390373,
15218,,VIDRIO,V2200CL,,,1,CHAMBERI,RIOS ROSAS,,,,440726.87,4477237.53,-369893423,40.44367787,
15219,,VIDRIO,V2200CL,,,1,CHAMBERI,RIOS ROSAS,,,,441075.82,4477147.81,-369481147,40.44289443,
15220,,VIDRIO,V2200CL,,,1,CHAMBERI,RIOS ROSAS,,,,441075.82,4477147.81,-369481147,40.44289443,
15221,,VIDRIO,V2200CL,,,1,CHAMBERI,VALLEHERMOSO,,,,439435.23,4477173.64,-371415773,40.44300924,
15222,,VIDRIO,V2200CL,,,1,CHAMBERI,VALLEHERMOSO,,,,439449.24,4477343.36,-371400872,40.44453916,
15223,,VIDRIO,V2200CL,,,1,CHAMBERI,ALMAGRO,,,,441371.97,4476098.98,-369122285,40.43346702,
15224,,VIDRIO,V2200CL,,,1,CHAMBERI,TRAFALGAR,,,,440665.55,4475995.41,-369954126,40.43248392,
15225,,VIDRIO,V2200CL,,,1,CHAMBERI,ALMAGRO,,,,441137.99,4476454.62,-369401421,40.43665427,
15226,,VIDRIO,V2200CL,,,1,CHAMBERI,TRAFALGAR,,,,440607.66,4475851.79,-370021031,40.431186,
15227,,VIDRIO,V2200CL,,,1,CHAMBERI,VALLEHERMOSO,,,,440294.32,4477510.44,-370406005,40.44610541,
15228,,VIDRIO,V2200CL,,,1,CHAMBERI,RIOS ROSAS,,,,440588.06,4477412.4,-370058729,40.44524326,
15229,,VIDRIO,V2200CL,,,1,CHAMBERI,TRAFALGAR,,,,440616.61,4475796.07,-370009959,40.43068468,
15230,,VIDRIO,V2200CL,,,1,CHAMBERI,ALMAGRO,,,,441055.27,4476039.07,-369495091,40.43290494,
15231,,VIDRIO,V2200CL,,,1,CHAMBERI,ARAPILES,,,,439755.78,4476221.47,-371028792,40.43445497,
15232,,VIDRIO,V2200CL,,,1,CHAMBERI,ALMAGRO,,,,441055.27,4476039.07,-369495091,40.43290494,
15233,,VIDRIO,V2200CL,,,1,CHAMBERI,VALLEHERMOSO,,,,439629.71,4477257.91,-371187267,40.44378252,
15234,,VIDRIO,V2200CL,,,1,CHAMBERI,GAZTAMBIDE,,,,439247.06,4476073.6,-371627122,40.43308589,
15235,,VIDRIO,V2200CL,,,1,CHAMBERI,TRAFALGAR,,,,440400.97,4476143.38,-370267426,40.43379799,
15236,,VIDRIO,V2200CL,,,1,CHAMBERI,TRAFALGAR,,,,440439.7,4475936.44,-370219827,40.43193655,
15237,,VIDRIO,V2200CL,,,1,FUENCARRAL-EL PARDO,EL PARDO,,,,434090.74,4485912.2,-377808116,40.52132162,
15238,,VIDRIO,V2200CL,,,1,FUENCARRAL-EL PARDO,EL PARDO,,,,433921.58,4487251.6,-378021789,40.53337366,
15239,,VIDRIO,V2200CL,,,1,CHAMBERI,TRAFALGAR,,,,440439.7,4475936.44,-370219827,40.43193655,
15240,,VIDRIO,V2200CL,,,1,FUENCARRAL-EL PARDO,EL PARDO,,,,433913.96,4486893.07,-378027039,40.53014337,
15241,,VIDRIO,V2200CL,,,1,CHAMBERI,TRAFALGAR,,,,440523.85,4475854.85,-370119861,40.43120757,
15242,,VIDRIO,V2200CL,,,1,FUENCARRAL-EL PARDO,EL PARDO,,,,433986.38,4486240.73,-377934733,40.52427277,
15243,,VIDRIO,V2200CL,,,1,FUENCARRAL-EL PARDO,EL PARDO,,,,434270.6435,4485391.725,-377590346,40.51664738,
15244,,VIDRIO,V2200CL,,,1,FUENCARRAL-EL PARDO,EL PARDO,,,,434277.37,4485554.86,-377584101,40.51811746,
15245,,VIDRIO,V2200CL,,,1,FUENCARRAL-EL PARDO,EL PARDO,,,,433865.64,4487367.11,-378089042,40.53440973,
15246,,VIDRIO,V2200CL,,,1,FUENCARRAL-EL PARDO,EL PARDO,,,,434179.09,4485504.93,-377699589,40.51765988,
15247,,VIDRIO,V2200CL,,,1,FUENCARRAL-EL PARDO,EL PARDO,,,,434214.95,4485543.48,-377657661,40.51800999,
15248,,VIDRIO,V2200CL,,,1,FUENCARRAL-EL PARDO,EL PARDO,,,,433708.2,4487337.86,-378274618,40.53413366,
15249,,VIDRIO,V2200CL,,,1,FUENCARRAL-EL PARDO,EL PARDO,,,,434447.08,4485415.19,-377382333,40.51687272,
15250,,VIDRIO,V2200CL,,,1,FUENCARRAL-EL PARDO,EL PARDO,,,,433940.28,4487063.8,-377997749,40.53168343,
15251,,VIDRIO,V2200CL,,,1,FUENCARRAL-EL PARDO,EL PARDO,,,,433908.87,4487110.23,-378035317,40.53209917,
15252,,VIDRIO,V2200CL,,,1,FUENCARRAL-EL PARDO,EL PARDO,,,,434022.05,4485764.53,-377887660,40.51998592,
15253,,VIDRIO,V2200CL,,,1,FUENCARRAL-EL PARDO,PEÑAGRANDE,,,,437590.72,4481558.63,-373633707,40.48237429,
15254,,VIDRIO,V2200CL,,,1,FUENCARRAL-EL PARDO,FUENTELAREINA,,,,437292.9,4480871.68,-373978269,40.4761636,
15255,,VIDRIO,V2200CL,,,1,FUENCARRAL-EL PARDO,FUENTELAREINA,,,,437014.9876,4480868.86,-374306080,40.47611717,
15256,,VIDRIO,V2200CL,,,1,FUENCARRAL-EL PARDO,FUENTELAREINA,,,,437020.7,4480715.2,-374297816,40.47473339,
15257,,VIDRIO,V2200CL,,,1,FUENCARRAL-EL PARDO,FUENTELAREINA,,,,437353.7,4481542.86,-373913177,40.48221438,
15258,,VIDRIO,V2200CL,,,1,FUENCARRAL-EL PARDO,FUENTELAREINA,,,,437020.7,4480715.2,-374297816,40.47473339,
15259,,VIDRIO,V2200CL,,,1,FUENCARRAL-EL PARDO,FUENTELAREINA,,,,436592.08,4481067.44,-374806948,40.47787385,
15260,,VIDRIO,V2200CL,,,1,FUENCARRAL-EL PARDO,FUENTELAREINA,,,,437357.97,4481032.62,-373903099,40.47761831,
15261,,VIDRIO,V2200CL,,,1,FUENCARRAL-EL PARDO,PEÑAGRANDE,,,,438464.88,4481756.55,-372604328,40.48422247,
15262,,VIDRIO,V2200CL,,,1,FUENCARRAL-EL PARDO,PEÑAGRANDE,,,,439348.94,4480646.98,-371550704,40.47429212,
15263,,VIDRIO,V2200CL,,,1,FUENCARRAL-EL PARDO,PEÑAGRANDE,,,,437866.95,4481438.37,-373306643,40.48131167,
15264,,VIDRIO,V2200CL,,,1,FUENCARRAL-EL PARDO,PEÑAGRANDE,,,,438464.88,4481756.55,-372604328,40.48422247,
15265,,VIDRIO,V2200CL,,,1,FUENCARRAL-EL PARDO,PEÑAGRANDE,,,,438717.33,4481779.2,-372306707,40.48444518,
15266,,VIDRIO,V2200CL,,,1,FUENCARRAL-EL PARDO,PEÑAGRANDE,,,,439004.1327,4480449.972,-371955552,40.47249216,
15267,,VIDRIO,V2200CL,,,1,FUENCARRAL-EL PARDO,PEÑAGRANDE,,,,439362.91,4481422.51,-371541640,40.48127939,
15268,,VIDRIO,V2200CL,,,1,FUENCARRAL-EL PARDO,PEÑAGRANDE,,,,438276.3299,4480870.655,-372818154,40.47622804,
15269,,VIDRIO,V2200CL,,,1,FUENCARRAL-EL PARDO,PEÑAGRANDE,,,,438183.57,4481320.58,-372931965,40.48027421,
15270,,VIDRIO,V2200CL,,,1,FUENCARRAL-EL PARDO,PEÑAGRANDE,,,,438192.1119,4481723.118,-372925812,40.48390103,
15271,,VIDRIO,V2200CL,,,1,FUENCARRAL-EL PARDO,PEÑAGRANDE,,,,439044.88,4481188.61,-371914586,40.47914905,
15272,,VIDRIO,V2200CL,,,1,FUENCARRAL-EL PARDO,PEÑAGRANDE,,,,439030.48,4480842.73,-371928248,40.47603219,
15273,,VIDRIO,V2200CL,,,1,FUENCARRAL-EL PARDO,PEÑAGRANDE,,,,438122.1207,4480868.289,-373000045,40.47619526,
15274,,VIDRIO,V2200CL,,,1,FUENCARRAL-EL PARDO,PEÑAGRANDE,,,,437758.329,4480785.776,-373428382,40.47542477,
15275,,VIDRIO,V2200CL,,,1,FUENCARRAL-EL PARDO,PEÑAGRANDE,,,,438987.28,4481309.65,-371983702,40.48023519,
15276,,VIDRIO,V2200CL,,,1,FUENCARRAL-EL PARDO,PEÑAGRANDE,,,,437672.7138,4481212.978,-373533576,40.47926671,
15277,,VIDRIO,V2200CL,,,1,FUENCARRAL-EL PARDO,PEÑAGRANDE,,,,439155.95,4480765.41,-371779495,40.47534487,
15278,,VIDRIO,V2200CL,,,1,FUENCARRAL-EL PARDO,PEÑAGRANDE,,,,438848.61,4481900.74,-372152996,40.48554973,
15279,,VIDRIO,V2200CL,,,1,FUENCARRAL-EL PARDO,PEÑAGRANDE,,,,437560.11,4481442.54,-373668676,40.48132622,
15280,,VIDRIO,V2200CL,,,1,FUENCARRAL-EL PARDO,PEÑAGRANDE,,,,439178.01,4480516.21,-371751083,40.4731016,
15281,,VIDRIO,V2200CL,,,1,FUENCARRAL-EL PARDO,PEÑAGRANDE,,,,438772.31,4481543.28,-372239564,40.48232399,
15282,,VIDRIO,V2200CL,,,1,FUENCARRAL-EL PARDO,VALVERDE,,,,443725.2102,4484412.365,-366421751,40.50852037,
15283,,VIDRIO,V2200CL,,,1,FUENCARRAL-EL PARDO,VALVERDE,,,,442977.93,4483833.25,-367298501,40.50325245,
15284,,VIDRIO,V2200CL,,,1,LATINA,ALUCHE,,,,435395.27,4471367.26,-376120188,40.39039921,
15285,,VIDRIO,V2200CL,,,1,FUENCARRAL-EL PARDO,VALVERDE,,,,442997.66,4483278.03,-367270221,40.49825217,
15286,,VIDRIO,V2200CL,,,1,FUENCARRAL-EL PARDO,PEÑAGRANDE,,,,439220.85,4480363.57,-371699086,40.4717297,
15287,,VIDRIO,V2200CL,,,1,LATINA,ALUCHE,,,,435383.23,4471665.18,-376137396,40.39308206,
15288,,VIDRIO,V2200CL,,,1,FUENCARRAL-EL PARDO,VALVERDE,,,,441282.78,4481982.83,-369281864,40.48646495,
15289,,VIDRIO,V2200CL,,,1,CHAMBERI,VALLEHERMOSO,,,,439488.65,4477065.05,-371351753,40.4420349,
15290,,VIDRIO,V2200CL,,,1,LATINA,ALUCHE,,,,435469.14,4471620.96,-376035729,40.39269037,
15291,,VIDRIO,V2200CL,,,1,CHAMBERI,VALLEHERMOSO,,,,439430.9,4477005.27,-371419274,40.44149217,
15292,,VIDRIO,V2200CL,,,1,FUENCARRAL-EL PARDO,PEÑAGRANDE,,,,439317.22,4480804.64,-371589630,40.47571006,
15293,,VIDRIO,V2200CL,,,1,LATINA,ALUCHE,,,,435634.44,4471405.68,-375838799,40.39076383,
15294,,VIDRIO,V2200CL,,,1,CHAMBERI,VALLEHERMOSO,,,,440116.93,4477527.54,-370615332,40.44624669,
15295,,VIDRIO,V2200CL,,,1,FUENCARRAL-EL PARDO,PEÑAGRANDE,,,,438797.3,4480558.0,-372200572,40.47345009,
15296,,VIDRIO,V2200CL,,,1,LATINA,ALUCHE,,,,435249.35,4471816.59,-376296672,40.39443562,
15297,,VIDRIO,V2200CL,,,1,CHAMBERI,RIOS ROSAS,,,,440441.42,4477192.47,-370229573,40.44325155,
15298,,VIDRIO,V2200CL,,,1,FUENCARRAL-EL PARDO,PEÑAGRANDE,,,,438417.48,4481499.09,-372657749,40.48189967,
15299,,VIDRIO,V2200CL,,,1,LATINA,ALUCHE,,,,435780.34,4471008.46,-375662902,40.38719677,
15300,,VIDRIO,V2200CL,,,1,CHAMBERI,RIOS ROSAS,,,,440358.22,4477452.38,-370330113,40.44558697,
15301,,VIDRIO,V2200CL,,,1,FUENCARRAL-EL PARDO,VALVERDE,,,,441322.7,4481882.09,-369233832,40.48556027,
15302,,VIDRIO,V2200CL,,,1,LATINA,ALUCHE,,,,435780.34,4471008.46,-375662902,40.38719677,
15303,,VIDRIO,V2200CL,,,1,CHAMBERI,RIOS ROSAS,,,,440358.22,4477452.38,-370330113,40.44558697,
15304,,VIDRIO,V2200CL,,,1,FUENCARRAL-EL PARDO,MIRASIERRA,,,,439514.31,4482682.76,-371375053,40.4926432,
15305,,VIDRIO,V2200CL,,,1,LATINA,ALUCHE,,,,435249.35,4471816.59,-376296672,40.39443562,
15306,,VIDRIO,V2200CL,,,1,CHAMBERI,ALMAGRO,,,,440888.09,4475814.42,-369690091,40.43086933,
15307,,VIDRIO,V2200CL,,,1,FUENCARRAL-EL PARDO,MIRASIERRA,,,,438294.0,4482698.03,-372815097,40.49269093,
15308,,VIDRIO,V2200CL,,,1,LATINA,ALUCHE,,,,435388.72,4471282.89,-376127049,40.38963867,
15309,,VIDRIO,V2200CL,,,1,CHAMBERI,VALLEHERMOSO,,,,439128.92,4476883.57,-371774157,40.4403738,
15310,,VIDRIO,V2200CL,,,1,FUENCARRAL-EL PARDO,EL PARDO,,,,434145.95,4486291.72,-377746894,40.52474478,
15311,,VIDRIO,V2200CL,,,1,LATINA,ALUCHE,,,,435332.94,4471210.23,-376192028,40.38897979,
15312,,VIDRIO,V2200CL,,,1,CHAMBERI,VALLEHERMOSO,,,,439128.92,4476883.57,-371774157,40.4403738,
15313,,VIDRIO,V2200CL,,,1,FUENCARRAL-EL PARDO,PILAR,,,,439340.79,4480932.77,-371563051,40.47686603,
15314,,VIDRIO,V2200CL,,,1,FUENCARRAL-EL PARDO,MIRASIERRA,,,,438079.0347,4482219.453,-373064067,40.48836375,
15315,,VIDRIO,V2200CL,,,1,LATINA,ALUCHE,,,,435173.26,4471509.33,-376383194,40.39166179,
15316,,VIDRIO,V2200CL,,,1,FUENCARRAL-EL PARDO,MIRASIERRA,,,,438380.45,4482508.09,-372711244,40.49098631,
15317,,VIDRIO,V2200CL,,,1,CHAMBERI,VALLEHERMOSO,,,,438999.79,4477205.46,-371929496,40.44326405,
15318,,VIDRIO,V2200CL,,,1,LATINA,ALUCHE,,,,435677.19,4471813.68,-375792554,40.39444256,
15319,,VIDRIO,V2200CL,,,1,FUENCARRAL-EL PARDO,MIRASIERRA,,,,440760.45,4483751.29,-369914664,40.50235877,
15320,,VIDRIO,V2200CL,,,1,CHAMBERI,ALMAGRO,,,,441096.21,4476599.64,-369452023,40.43795771,
15321,,VIDRIO,V2200CL,,,1,LATINA,ALUCHE,,,,436780.74,4471341.36,-374487640,40.39027219,
15322,,VIDRIO,V2200CL,,,1,FUENCARRAL-EL PARDO,VALVERDE,,,,442922.09,4483493.26,-367361337,40.50018585,
15323,,VIDRIO,V2200CL,,,1,CHAMBERI,ALMAGRO,,,,441096.21,4476599.64,-369452023,40.43795771,
15324,,VIDRIO,V2200CL,,,1,LATINA,ALUCHE,,,,435568.98,4470919.47,-375911003,40.38637879,
15325,,VIDRIO,V2200CL,,,1,FUENCARRAL-EL PARDO,MIRASIERRA,,,,440760.45,4483751.29,-369914664,40.50235877,
15326,,VIDRIO,V2200CL,,,1,CHAMBERI,ALMAGRO,,,,441460.71,4476216.66,-369018751,40.43453339,
15327,,VIDRIO,V2200CL,,,1,LATINA,ALUCHE,,,,435128.41,4471947.82,-376440502,40.39560838,
15328,,VIDRIO,V2200CL,,,1,FUENCARRAL-EL PARDO,PEÑAGRANDE,,,,438138.43,4480693.49,-372979100,40.47462182,
15329,,VIDRIO,V2200CL,,,1,CHAMBERI,TRAFALGAR,,,,440216.85,4475946.08,-370482633,40.43200741,
15330,,VIDRIO,V2200CL,,,1,LATINA,ALUCHE,,,,436978.52,4471729.54,-374258467,40.39378407,
15331,,VIDRIO,V2200CL,,,1,FUENCARRAL-EL PARDO,VALVERDE,,,,442734.83,4483352.79,-367581050,40.49890754,
15332,,VIDRIO,V2200CL,,,1,CHAMBERI,ALMAGRO,,,,441460.71,4476216.66,-369018751,40.43453339,
15333,,VIDRIO,V2200CL,,,1,LATINA,ALUCHE,,,,435064.49,4472125.39,-376517626,40.39720302,
15334,,VIDRIO,V2200CL,,,1,FUENCARRAL-EL PARDO,MIRASIERRA,,,,438283.8245,4482462.287,-372824808,40.49056652,
15335,,VIDRIO,V2200CL,,,1,CHAMBERI,RIOS ROSAS,,,,440750.58,4477546.96,-369868353,40.44646704,
15336,,VIDRIO,V2200CL,,,1,LATINA,ALUCHE,,,,435064.49,4472125.39,-376517626,40.39720302,
15337,,VIDRIO,V2200CL,,,1,FUENCARRAL-EL PARDO,EL PARDO,,,,434050.2254,4485705.777,-377853789,40.51945891,
15338,,VIDRIO,V2200CL,,,1,CHAMBERI,ALMAGRO,,,,440871.99,4475843.31,-369709340,40.43112844,
15339,,VIDRIO,V2200CL,,,1,LATINA,ALUCHE,,,,435128.41,4471947.82,-376440502,40.39560838,
15340,,VIDRIO,V2200CL,,,1,FUENCARRAL-EL PARDO,EL PARDO,,,,434050.2254,4485705.777,-377853789,40.51945891,
15341,,VIDRIO,V2200CL,,,1,CHAMBERI,ALMAGRO,,,,441390.85,4476442.08,-369103191,40.43655916,
15342,,VIDRIO,V2200CL,,,1,LATINA,ALUCHE,,,,435304.64,4472255.51,-376235988,40.39839388,
15343,,VIDRIO,V2200CL,,,1,FUENCARRAL-EL PARDO,PEÑAGRANDE,,,,438729.36,4481528.63,-372290093,40.48218885,
15344,,VIDRIO,V2200CL,,,1,CHAMBERI,ALMAGRO,,,,441390.85,4476442.08,-369103191,40.43655916,
15345,,VIDRIO,V2200CL,,,1,LATINA,ALUCHE,,,,435304.64,4472255.51,-376235988,40.39839388,
15346,,VIDRIO,V2200CL,,,1,FUENCARRAL-EL PARDO,MIRASIERRA,,,,438605.71,4482755.35,-372447852,40.4932304,
15347,,VIDRIO,V2200CL,,,1,LATINA,ALUCHE,,,,435927.57,4471500.56,-375494401,40.39164115,
15348,,VIDRIO,V2200CL,,,1,CHAMBERI,TRAFALGAR,,,,440731.12,4475681.69,-369873901,40.42966246,
15349,,VIDRIO,V2200CL,,,1,LATINA,ALUCHE,,,,435927.57,4471500.56,-375494401,40.39164115,
15350,,VIDRIO,V2200CL,,,1,CHAMBERI,ALMAGRO,,,,440924.27,4476630.13,-369655022,40.43822019,
15351,,VIDRIO,V2200CL,,,1,FUENCARRAL-EL PARDO,LA PAZ,,,,441202.05,4481727.49,-369374744,40.48415904,
15352,,VIDRIO,V2200CL,,,1,LATINA,ALUCHE,,,,436069.61,4471754.02,-375329598,40.39393533,
15353,,VIDRIO,V2200CL,,,1,CHAMBERI,ARAPILES,,,,440267.09,4476561.98,-370429194,40.43755932,
15354,,VIDRIO,V2200CL,,,1,FUENCARRAL-EL PARDO,PEÑAGRANDE,,,,437826.62,4481359.33,-373353447,40.48059663,
15355,,VIDRIO,V2200CL,,,1,LATINA,ALUCHE,,,,436947.39,4471808.46,-374295926,40.39449266,
15356,,VIDRIO,V2200CL,,,1,CHAMBERI,VALLEHERMOSO,,,,439033.35,4477500.17,-371892754,40.44592138,
15357,,VIDRIO,V2200CL,,,1,FUENCARRAL-EL PARDO,EL PARDO,,,,434189.85,4485615.64,-377688039,40.51865803,
15358,,VIDRIO,V2200CL,,,1,LATINA,ALUCHE,,,,434868.19,4471556.25,-376743098,40.39206066,
15359,,VIDRIO,V2200CL,,,1,CHAMBERI,GAZTAMBIDE,,,,439079.93,4476244.18,-371825788,40.43461032,
15360,,VIDRIO,V2200CL,,,1,FUENCARRAL-EL PARDO,EL GOLOSO,,,,441302.16,4484442.14,-369281785,40.50862069,
15361,,VIDRIO,V2200CL,,,1,LATINA,ALUCHE,,,,434868.19,4471556.25,-376743098,40.39206066,
15362,,VIDRIO,V2200CL,,,1,CHAMBERI,GAZTAMBIDE,,,,439085.96,4476361.35,-371819802,40.43566628,
15363,,VIDRIO,V2200CL,,,1,FUENCARRAL-EL PARDO,EL PARDO,,,,434350.38,4485335.3,-377495644,40.51614541,
15364,,VIDRIO,V2200CL,,,1,LATINA,ALUCHE,,,,435042.9,4472057.12,-376542368,40.39658633,
15365,,VIDRIO,V2200CL,,,1,CHAMBERI,RIOS ROSAS,,,,441004.2569,4477515.298,-369568938,40.44619985,
15366,,VIDRIO,V2200CL,,,1,FUENCARRAL-EL PARDO,VALVERDE,,,,442451.36,4484728.89,-367928068,40.51128436,
15367,,VIDRIO,V2200CL,,,1,LATINA,ALUCHE,,,,436927.69,4471428.94,-374315379,40.39107229,
15368,,VIDRIO,V2200CL,,,1,CHAMBERI,RIOS ROSAS,,,,440988.09,4477027.82,-369583473,40.44180729,
15369,,VIDRIO,V2200CL,,,1,FUENCARRAL-EL PARDO,VALVERDE,,,,442479.6,4484632.79,-367893864,40.51042061,
15370,,VIDRIO,V2200CL,,,1,LATINA,ALUCHE,,,,435042.9,4472057.12,-376542368,40.39658633,
15371,,VIDRIO,V2200CL,,,1,CHAMBERI,RIOS ROSAS,,,,441233.07,4476639.21,-369291032,40.43832386,
15372,,VIDRIO,V2200CL,,,1,FUENCARRAL-EL PARDO,EL GOLOSO,,,,439939.7,4483931.1,-370884951,40.50391955,
15373,,VIDRIO,V2200CL,,,1,LATINA,ALUCHE,,,,435615.46,4470766.08,-375854696,40.38500059,
15374,,VIDRIO,V2200CL,,,1,CHAMBERI,ARAPILES,,,,439892.06,4476085.37,-370866841,40.43323878,
15375,,VIDRIO,V2200CL,,,1,FUENCARRAL-EL PARDO,MIRASIERRA,,,,440542.3,4483729.04,-370171898,40.50214273,
15376,,VIDRIO,V2200CL,,,1,LATINA,ALUCHE,,,,435615.46,4470766.08,-375854696,40.38500059,
15377,,VIDRIO,V2200CL,,,1,CHAMBERI,RIOS ROSAS,,,,440666.7544,4477167.125,-369963648,40.44303934,
15378,,VIDRIO,V2200CL,,,1,FUENCARRAL-EL PARDO,LA PAZ,,,,441236.0687,4480789.233,-369325913,40.47570926,
15379,,VIDRIO,V2200CL,,,1,LATINA,ALUCHE,,,,434821.13,4471699.82,-376800012,40.39335031,
15380,,VIDRIO,V2200CL,,,1,CHAMBERI,VALLEHERMOSO,,,,439252.7,4476959.97,-371628947,40.44107109,
15381,,VIDRIO,V2200CL,,,1,LATINA,ALUCHE,,,,434821.13,4471699.82,-376800012,40.39335031,
15382,,VIDRIO,V2200CL,,,1,FUENCARRAL-EL PARDO,LA PAZ,,,,440863.44,4481824.19,-369775138,40.4850061,
15383,,VIDRIO,V2200CL,,,1,LATINA,ALUCHE,,,,435187.49,4471962.3,-376371039,40.39574342,
15384,,VIDRIO,V2200CL,,,1,FUENCARRAL-EL PARDO,LA PAZ,,,,440728.9,4481757.84,-369933250,40.4843988,
15385,,VIDRIO,V2200CL,,,1,CHAMBERI,TRAFALGAR,,,,440148.28,4475730.6,-370561440,40.43006134,
15386,,VIDRIO,V2200CL,,,1,LATINA,ALUCHE,,,,435747.19,4471739.9,-375709334,40.39378332,
15387,,VIDRIO,V2200CL,,,1,FUENCARRAL-EL PARDO,PILAR,,,,439693.12,4480507.5,-371143375,40.4730607,
15388,,VIDRIO,V2200CL,,,1,CHAMBERI,TRAFALGAR,,,,440313.96,4475949.77,-370368186,40.43204762,
15389,,VIDRIO,V2200CL,,,1,LATINA,ALUCHE,,,,435398.32,4471448.79,-376117422,40.3911339,
15390,,VIDRIO,V2200CL,,,1,FUENCARRAL-EL PARDO,PILAR,,,,439544.85,4480321.66,-371316503,40.4713758,
15391,,VIDRIO,V2200CL,,,1,CHAMBERI,TRAFALGAR,,,,440313.96,4475949.77,-370368186,40.43204762,
15392,,VIDRIO,V2200CL,,,1,LATINA,ALUCHE,,,,436821.06,4471585.87,-374442563,40.39247791,
15393,,VIDRIO,V2200CL,,,1,FUENCARRAL-EL PARDO,PEÑAGRANDE,,,,437789.52,4481611.42,-373399689,40.48286476,
15394,,VIDRIO,V2200CL,,,1,CHAMBERI,VALLEHERMOSO,,,,439964.08,4476838.24,-370789049,40.44002616,
15395,,VIDRIO,V2200CL,,,1,LATINA,ALUCHE,,,,434963.27,4471996.39,-376635572,40.39603304,
15396,,VIDRIO,V2200CL,,,1,FUENCARRAL-EL PARDO,PILAR,,,,439598.88,4480846.91,-371257773,40.47611138,
15397,,VIDRIO,V2200CL,,,1,CHAMBERI,VALLEHERMOSO,,,,439964.08,4476838.24,-370789049,40.44002616,
15398,,VIDRIO,V2200CL,,,1,LATINA,ALUCHE,,,,435654.63,4471614.58,-375817123,40.39264724,
15399,,VIDRIO,V2200CL,,,1,FUENCARRAL-EL PARDO,MIRASIERRA,,,,440441.4977,4483550.326,-370289176,40.50052558,
15400,,VIDRIO,V2200CL,,,1,CHAMBERI,ARAPILES,,,,440112.05,4476685.52,-370613149,40.43866107,
15401,,VIDRIO,V2200CL,,,1,LATINA,ALUCHE,,,,435485.33,4472282.71,-376023359,40.39865292,
15402,,VIDRIO,V2200CL,,,1,FUENCARRAL-EL PARDO,FUENTELAREINA,,,,437797.64,4482122.61,-373395125,40.48747032,
15403,,VIDRIO,V2200CL,,,1,CHAMBERI,GAZTAMBIDE,,,,439421.93,4476433.04,-371424394,40.43633663,
15404,,VIDRIO,V2200CL,,,1,LATINA,ALUCHE,,,,435338.77,4472065.84,-376193847,40.39668791,
15405,,VIDRIO,V2200CL,,,1,FUENCARRAL-EL PARDO,EL PARDO,,,,433725.59,4487250.24,-378253168,40.53334576,
15406,,VIDRIO,V2200CL,,,1,CHAMBERI,TRAFALGAR,,,,440350.67,4475833.15,-370323814,40.43099969,
15407,,VIDRIO,V2200CL,,,1,LATINA,ALUCHE,,,,435654.63,4471614.58,-375817123,40.39264724,
15408,,VIDRIO,V2200CL,,,1,FUENCARRAL-EL PARDO,VALVERDE,,,,441816.96,4484252.38,-368672458,40.50694753,
15409,,VIDRIO,V2200CL,,,1,CHAMBERI,TRAFALGAR,,,,440485.35,4476210.6,-370168579,40.43440958,
15410,,VIDRIO,V2200CL,,,1,LATINA,ALUCHE,,,,434908.9253,4471943.369,-376699061,40.39555116,
15411,,VIDRIO,V2200CL,,,1,FUENCARRAL-EL PARDO,PILAR,,,,439727.54,4481043.75,-371107869,40.47789393,
15412,,VIDRIO,V2200CL,,,1,CHAMBERI,TRAFALGAR,,,,440435.34,4476366.41,-370228997,40.4358096,
15413,,VIDRIO,V2200CL,,,1,LATINA,ALUCHE,,,,435074.67,4471810.36,-376502419,40.3943659,
15414,,VIDRIO,V2200CL,,,1,FUENCARRAL-EL PARDO,MIRASIERRA,,,,438042.2,4482070.49,-373106071,40.4870191,
15415,,VIDRIO,V2200CL,,,1,LATINA,ALUCHE,,,,435129.29,4471705.13,-376436993,40.39342221,
15416,,VIDRIO,V2200CL,,,1,FUENCARRAL-EL PARDO,LA PAZ,,,,440753.85,4481903.42,-369905175,40.48571202,
15417,,VIDRIO,V2200CL,,,1,CHAMBERI,TRAFALGAR,,,,440450.24,4476282.78,-370210647,40.43505729,
15418,,VIDRIO,V2200CL,,,1,CHAMBERI,TRAFALGAR,,,,440410.1,4476416.44,-370259223,40.43625849,
15419,,VIDRIO,V2200CL,,,1,LATINA,ALUCHE,,,,435074.67,4471810.36,-376502419,40.3943659,
15420,,VIDRIO,V2200CL,,,1,CHAMBERI,TRAFALGAR,,,,440410.1,4476416.44,-370259223,40.43625849,
15421,,VIDRIO,V2200CL,,,1,FUENCARRAL-EL PARDO,PILAR,,,,439922.96,4481560.35,-370882229,40.48256181,
15422,,VIDRIO,V2200CL,,,1,LATINA,ALUCHE,,,,436722.71,4471510.03,-374557684,40.39178724,
15423,,VIDRIO,V2200CL,,,1,CHAMBERI,TRAFALGAR,,,,440435.34,4476366.41,-370228997,40.4358096,
15424,,VIDRIO,V2200CL,,,1,FUENCARRAL-EL PARDO,EL GOLOSO,,,,437508.48,4485081.78,-373765484,40.51410562,
15425,,VIDRIO,V2200CL,,,1,LATINA,ALUCHE,,,,435779.62,4471974.21,-375673488,40.39589658,
15426,,VIDRIO,V2200CL,,,1,CHAMBERI,TRAFALGAR,,,,440810.66,4475747.11,-369780744,40.43025746,
15427,,VIDRIO,V2200CL,,,1,FUENCARRAL-EL PARDO,FUENTELAREINA,,,,437592.8662,4481884.484,-373634383,40.48530985,
15428,,VIDRIO,V2200CL,,,1,LATINA,ALUCHE,,,,435359.83,4472223.07,-376170629,40.39810593,
15429,,VIDRIO,V2200CL,,,1,CHAMBERI,TRAFALGAR,,,,440609.59,4476218.3,-370022180,40.43448782,
15430,,VIDRIO,V2200CL,,,1,FUENCARRAL-EL PARDO,MIRASIERRA,,,,439998.34,4483067.3,-370807565,40.4961424,
15431,,VIDRIO,V2200CL,,,1,LATINA,ALUCHE,,,,437079.75,4471608.49,-374138001,40.39270126,
15432,,VIDRIO,V2200CL,,,1,CHAMBERI,GAZTAMBIDE,,,,439215.02,4476232.98,-371666419,40.43451931,
15433,,VIDRIO,V2200CL,,,1,FUENCARRAL-EL PARDO,MIRASIERRA,,,,439137.1578,4482446.26,-371817800,40.49048516,
15434,,VIDRIO,V2200CL,,,1,LATINA,ALUCHE,,,,435368.56,4470839.55,-376146302,40.38564332,
15435,,VIDRIO,V2200CL,,,1,CHAMBERI,TRAFALGAR,,,,440666.49,4476067.27,-369953689,40.43313134,
15436,,VIDRIO,V2200CL,,,1,FUENCARRAL-EL PARDO,PILAR,,,,440214.46,4481166.52,-370534612,40.47903509,
15437,,VIDRIO,V2200CL,,,1,LATINA,ALUCHE,,,,435594.4,4472093.93,-375892933,40.39696076,
15438,,VIDRIO,V2200CL,,,1,CHAMBERI,RIOS ROSAS,,,,441133.26,4476964.49,-369411722,40.44124707,
15439,,VIDRIO,V2200CL,,,1,FUENCARRAL-EL PARDO,PILAR,,,,439473.66,4480585.8,-371402997,40.47375009,
15440,,VIDRIO,V2200CL,,,1,LATINA,ALUCHE,,,,435594.4,4472093.93,-375892933,40.39696076,
15441,,VIDRIO,V2200CL,,,1,CHAMBERI,ALMAGRO,,,,441061.6,4475674.3,-369484247,40.42961937,
15442,,VIDRIO,V2200CL,,,1,FUENCARRAL-EL PARDO,PEÑAGRANDE,,,,438893.76,4481736.14,-372098140,40.48407028,
15443,,VIDRIO,V2200CL,,,1,LATINA,ALUCHE,,,,435237.87,4471447.6,-376306445,40.39111072,
15444,,VIDRIO,V2200CL,,,1,CHAMBERI,ARAPILES,,,,439872.25,4475857.93,-370888043,40.43118847,
15445,,VIDRIO,V2200CL,,,1,FUENCARRAL-EL PARDO,PEÑAGRANDE,,,,439016.32,4481511.04,-371951380,40.48205152,
15446,,VIDRIO,V2200CL,,,1,LATINA,ALUCHE,,,,435308.26,4471747.71,-376226563,40.3938197,
15447,,VIDRIO,V2200CL,,,1,CHAMBERI,VALLEHERMOSO,,,,439516.68,4476744.76,-371315655,40.43915164,
15448,,VIDRIO,V2200CL,,,1,FUENCARRAL-EL PARDO,PEÑAGRANDE,,,,438842.82,4481679.8,-372157695,40.483559,
15449,,VIDRIO,V2200CL,,,1,LATINA,ALUCHE,,,,436618.56,4471407.52,-374679371,40.39085587,
15450,,VIDRIO,V2200CL,,,1,FUENCARRAL-EL PARDO,VALVERDE,,,,441213.6889,4482832.249,-369371259,40.49411195,
15451,,VIDRIO,V2200CL,,,1,CHAMBERI,VALLEHERMOSO,,,,439242.86,4476759.87,-371638635,40.43926779,
15452,,VIDRIO,V2200CL,,,1,CHAMBERI,GAZTAMBIDE,,,,439473.88,4476444.34,-371363255,40.43644221,
15453,,VIDRIO,V2200CL,,,1,LATINA,CAMPAMENTO,,,,433005.3,4470411.2,-378925855,40.38159791,
15454,,VIDRIO,V2200CL,,,1,CHAMBERI,VALLEHERMOSO,,,,439242.86,4476759.87,-371638635,40.43926779,
15455,,VIDRIO,V2200CL,,,1,FUENCARRAL-EL PARDO,PILAR,,,,440093.23,4481142.14,-370677398,40.47880673,
15456,,VIDRIO,V2200CL,,,1,LATINA,CAMPAMENTO,,,,434429.5,4472316.8,-377267782,40.39887755,
15457,,VIDRIO,V2200CL,,,1,CHAMBERI,TRAFALGAR,,,,440647.14,4475663.58,-369972731,40.42949333,
15458,,VIDRIO,V2200CL,,,1,FUENCARRAL-EL PARDO,PILAR,,,,439856.12,4481078.38,-370956513,40.47821521,
15459,,VIDRIO,V2200CL,,,1,LATINA,CAMPAMENTO,,,,434625.84,4472149.4,-377034717,40.39738499,
15460,,VIDRIO,V2200CL,,,1,CHAMBERI,GAZTAMBIDE,,,,439350.87,4476587.71,-371509647,40.43772479,
15461,,VIDRIO,V2200CL,,,1,FUENCARRAL-EL PARDO,PEÑAGRANDE,,,,438907.38,4481468.39,-372079491,40.4816593,
15462,,VIDRIO,V2200CL,,,1,LATINA,CAMPAMENTO,,,,432700.07,4470425.28,-379285560,40.38170015,
15463,,VIDRIO,V2200CL,,,1,CHAMBERI,GAZTAMBIDE,,,,439350.87,4476587.71,-371509647,40.43772479,
15464,,VIDRIO,V2200CL,,,1,FUENCARRAL-EL PARDO,VALVERDE,,,,441397.3652,4482906.822,-369155215,40.49479672,
15465,,VIDRIO,V2200CL,,,1,LATINA,CAMPAMENTO,,,,432898.23,4470229.72,-379050071,40.37995446,
15466,,VIDRIO,V2200CL,,,1,CHAMBERI,TRAFALGAR,,,,440647.14,4475663.58,-369972731,40.42949333,
15467,,VIDRIO,V2200CL,,,1,FUENCARRAL-EL PARDO,VALVERDE,,,,441535.6183,4482715.15,-368990310,40.49307982,
15468,,VIDRIO,V2200CL,,,1,LATINA,CAMPAMENTO,,,,434123.18,4471901.63,-377624420,40.39511338,
15469,,VIDRIO,V2200CL,,,1,CHAMBERI,ALMAGRO,,,,440786.44,4476113.55,-369812710,40.4335568,
15470,,VIDRIO,V2200CL,,,1,FUENCARRAL-EL PARDO,VALVERDE,,,,441808.83,4483296.63,-368673272,40.49833721,
15471,,VIDRIO,V2200CL,,,1,LATINA,CAMPAMENTO,,,,434169.22,4471955.99,-377570737,40.39560671,
15472,,VIDRIO,V2200CL,,,1,CHAMBERI,GAZTAMBIDE,,,,439411.43,4476262.42,-371435146,40.43479885,
15473,,VIDRIO,V2200CL,,,1,FUENCARRAL-EL PARDO,VALVERDE,,,,441424.49,4482755.52,-369121810,40.49343565,
15474,,VIDRIO,V2200CL,,,1,LATINA,CAMPAMENTO,,,,432654.89,4469970.12,-379333971,40.37759626,
15475,,VIDRIO,V2200CL,,,1,CHAMBERI,RIOS ROSAS,,,,440945.3266,4476656.832,-369630445,40.43846222,
15476,,VIDRIO,V2200CL,,,1,FUENCARRAL-EL PARDO,MIRASIERRA,,,,439481.43,4482090.97,-371408198,40.48730976,
15477,,VIDRIO,V2200CL,,,1,LATINA,CAMPAMENTO,,,,434219.96,4471912.9,-377510508,40.39522255,
15478,,VIDRIO,V2200CL,,,1,CHAMBERI,ALMAGRO,,,,440786.44,4476113.55,-369812710,40.4335568,
15479,,VIDRIO,V2200CL,,,1,FUENCARRAL-EL PARDO,VALVERDE,,,,441409.5,4482992.72,-369141691,40.49557138,
15480,,VIDRIO,V2200CL,,,1,LATINA,CAMPAMENTO,,,,433740.39,4471776.41,-378074129,40.39395499,
15481,,VIDRIO,V2200CL,,,1,CHAMBERI,VALLEHERMOSO,,,,439145.15,4477156.29,-371757634,40.44283176,
15482,,VIDRIO,V2200CL,,,1,FUENCARRAL-EL PARDO,MIRASIERRA,,,,439469.61,4482350.87,-371424626,40.48965016,
15483,,VIDRIO,V2200CL,,,1,LATINA,CAMPAMENTO,,,,434638.59,4472332.38,-377021573,40.39903434,
15484,,VIDRIO,V2200CL,,,1,FUENCARRAL-EL PARDO,MIRASIERRA,,,,439941.07,4482926.44,-370873809,40.49486934,
15485,,VIDRIO,V2200CL,,,1,CHAMBERI,ARAPILES,,,,439685.73,4476656.4,-371115504,40.43836793,
15486,,VIDRIO,V2200CL,,,1,CHAMBERI,ALMAGRO,,,,441271.2,4475415.19,-369234766,40.42730001,
15487,,VIDRIO,V2200CL,,,1,LATINA,CAMPAMENTO,,,,434356.77,4472272.66,-377353024,40.3984742,
15488,,VIDRIO,V2200CL,,,1,CHAMBERI,RIOS ROSAS,,,,440442.13,4477064.32,-370227534,40.44209717,
15489,,VIDRIO,V2200CL,,,1,FUENCARRAL-EL PARDO,MIRASIERRA,,,,439690.64,4482687.97,-371167042,40.49270296,
15490,,VIDRIO,V2200CL,,,1,LATINA,CAMPAMENTO,,,,434239.13,4472230.22,-377491199,40.3980826,
15491,,VIDRIO,V2200CL,,,1,CHAMBERI,ARAPILES,,,,440035.84,4475810.11,-370694740,40.4307695,
15492,,VIDRIO,V2200CL_vacri,,,1,FUENCARRAL-EL PARDO,VALVERDE,,,,441862.37,4484038.41,-368616901,40.50502319,
15493,,VIDRIO,V2200CL,,,1,LATINA,CAMPAMENTO,,,,433955.47,4472050.95,-377823569,40.39644522,
15494,,VIDRIO,V2200CL,,,1,CHAMBERI,ARAPILES,,,,440035.84,4475810.11,-370694740,40.4307695,
15495,,VIDRIO,V2200CL,,,1,LATINA,CAMPAMENTO,,,,433925.84,4471882.86,-377856736,40.39492866,
15496,,VIDRIO,V2200CL,,,1,CHAMBERI,ARAPILES,,,,439747.73,4476045.42,-371036614,40.43286845,
15497,,VIDRIO,V2200CL,,,1,LATINA,CAMPAMENTO,,,,433761.28,4471732.46,-378049059,40.39356073,
15498,,VIDRIO,V2200CL,,,1,CHAMBERI,ARAPILES,,,,440151.98,4476209.42,-370561587,40.43437502,
15499,,VIDRIO,V2200CL,,,1,LATINA,CAMPAMENTO,,,,434330.08,4472182.43,-377383541,40.39765927,
15500,,VIDRIO,V2200CL,,,1,CHAMBERI,ALMAGRO,,,,441207.51,4476306.42,-369318088,40.43532413,
15501,,VIDRIO,V2200CL,,,1,CHAMBERI,ALMAGRO,,,,441207.51,4476306.42,-369318088,40.43532413,
15502,,VIDRIO,V2200CL,,,1,CHAMBERI,ALMAGRO,,,,441224.44,4476527.18,-369300170,40.43731403,
15503,,VIDRIO,V2200CL,,,1,TETUAN,ALMENARA,,,,440947.65,4480144.78,-369660147,40.46988331,
15504,,VIDRIO,V2200CL,,,1,TETUAN,ALMENARA,,,,441672.22,4480401.5,-368807840,40.47224715,
15505,,VIDRIO,V2200CL,,,1,TETUAN,ALMENARA,,,,440965.88,4479958.65,-369636912,40.46820788,
15506,,VIDRIO,V2200CL,,,1,TETUAN,ALMENARA,,,,441295.03,4479816.27,-369247355,40.46694858,
15507,,VIDRIO,V2200CL,,,1,TETUAN,ALMENARA,,,,440599.89,4480256.61,-370071395,40.47086593,
15508,,VIDRIO,V2200CL,,,1,TETUAN,ALMENARA,,,,441228.06,4479955.76,-369327638,40.46820043,
15509,,VIDRIO,V2200CL,,,1,TETUAN,ALMENARA,,,,441375.98,4480002.16,-369153592,40.46862887,
15510,,VIDRIO,V2200CL,,,1,TETUAN,ALMENARA,,,,441354.33,4480533.69,-369184043,40.47341559,
15511,,VIDRIO,V2200CL,,,1,TETUAN,ALMENARA,,,,441073.16,4480465.12,-369515078,40.47277798,
15512,,VIDRIO,V2200CL,,,1,TETUAN,ALMENARA,,,,440794.45,4480361.81,-369842880,40.4718275,
15513,,VIDRIO,V2200CL,,,1,TETUAN,ALMENARA,,,,440707.93,4480342.26,-369944755,40.47164522,
15514,,VIDRIO,V2200CL,,,1,TETUAN,ALMENARA,,,,441550.38,4479949.77,-368947399,40.46816921,
15515,,VIDRIO,V2200CL,,,1,TETUAN,ALMENARA,,,,441353.53,4479759.08,-369177826,40.46643752,
15516,,VIDRIO,V2200CL,,,1,TETUAN,ALMENARA,,,,441247.6,4479718.88,-369302397,40.4660679,
15517,,VIDRIO,V2200CL,,,1,TETUAN,ALMENARA,,,,441457.36,4480521.33,-369062393,40.47331151,
15518,,VIDRIO,V2200CL,,,1,TETUAN,ALMENARA,,,,441202.74,4480032.64,-369358216,40.46889121,
15519,,VIDRIO,V2200CL,,,1,TETUAN,ALMENARA,,,,441087.45,4480078.51,-369494631,40.46929625,
15520,,VIDRIO,V2200CL,,,1,TETUAN,ALMENARA,,,,441056.32,4480249.22,-369532936,40.47083187,
15521,,VIDRIO,V2200CL,,,1,TETUAN,ALMENARA,,,,441151.46,4479923.83,-369417694,40.46790737,
15522,,VIDRIO,V2200CL,,,1,TETUAN,ALMENARA,,,,441038.1,4479649.54,-369548855,40.46542842,
15523,,VIDRIO,V2200CL,,,1,TETUAN,ALMENARA,,,,441207.45,4480551.26,-369357467,40.47356348,
15524,,VIDRIO,V2200CL,,,1,TETUAN,ALMENARA,,,,441711.07,4480585.48,-368763703,40.47390724,
15525,,VIDRIO,V2200CL,,,1,TETUAN,ALMENARA,,,,440879.94,4480366.67,-369742083,40.47187737,
15526,,VIDRIO,V2200CL,,,1,TETUAN,ALMENARA,,,,441028.34,4480137.13,-369564898,40.46982013,
15527,,VIDRIO,V2200CL,,,1,TETUAN,ALMENARA,,,,441653.52,4480308.03,-368829038,40.47140382,
15528,,VIDRIO,V2200CL,,,1,TETUAN,ALMENARA,,,,441036.81,4480341.07,-369556803,40.47165791,
15529,,VIDRIO,V2200CL,,,1,TETUAN,ALMENARA,,,,441087.45,4480078.51,-369494631,40.46929625,
15531,,VIDRIO,V2200CL,,,1,TETUAN,ALMENARA,,,,440892.83,4480135.06,-369724720,40.46979185,
15532,,VIDRIO,V2200CL,,,1,TETUAN,ALMENARA,,,,440892.49,4480036.01,-369724198,40.46889955,
15533,,VIDRIO,V2200CL,,,1,TETUAN,ALMENARA,,,,440747.01,4480045.53,-369895886,40.46897494,
15534,,VIDRIO,V2200CL,,,1,TETUAN,ALMENARA,,,,441538.13,4480384.61,-368965856,40.47208557,
15535,,VIDRIO,V2200CL,,,1,TETUAN,ALMENARA,,,,441028.34,4480137.13,-369564898,40.46982013,
15536,,VIDRIO,V2200CL,,,1,TETUAN,ALMENARA,,,,441057.72,4479976.86,-369528754,40.46837844,
15537,,VIDRIO,V2200CL,,,1,TETUAN,ALMENARA,,,,441228.06,4479955.76,-369327638,40.46820043,
15538,,VIDRIO,V2200CL,,,1,TETUAN,ALMENARA,,,,441274.04,4480543.29,-369278843,40.47349639,
15539,,VIDRIO,V2200CL,,,1,TETUAN,ALMENARA,,,,441353.53,4479759.08,-369177826,40.46643752,
15540,,VIDRIO,V2200CL,,,1,TETUAN,ALMENARA,,,,440962.35,4480068.05,-369642094,40.46919314,
15541,,VIDRIO,V2200CL,,,1,TETUAN,VALDEACEDERAS,,,,440025.33,4479938.94,-370746123,40.46796295,
15542,,VIDRIO,V2200CL,,,1,TETUAN,ALMENARA,,,,440892.83,4480135.06,-369724720,40.46979185,
15543,,VIDRIO,V2200CL,,,1,TETUAN,VALDEACEDERAS,,,,440239.69,4479604.08,-370490129,40.46496185,
15544,,VIDRIO,V2200CL,,,1,TETUAN,VALDEACEDERAS,,,,440335.52,4479452.6,-370375676,40.46360414,
15545,,VIDRIO,V2200CL,,,1,TETUAN,VALDEACEDERAS,,,,440745.82,4479445.17,-369891683,40.46356657,
15546,,VIDRIO,V2200CL,,,1,TETUAN,VALDEACEDERAS,,,,440829.1,4479743.01,-369796236,40.46625557,
15547,,VIDRIO,V2200CL,,,1,TETUAN,VALDEACEDERAS,,,,440338.3,4480020.97,-370377742,40.46872444,
15548,,VIDRIO,V2200CL,,,1,TETUAN,VALDEACEDERAS,,,,439999.96,4480014.97,-370776767,40.46864602,
15549,,VIDRIO,V2200CL,,,1,TETUAN,VALDEACEDERAS,,,,440492.46,4479326.78,-370189395,40.46248196,
15550,,VIDRIO,V2200CL,,,1,TETUAN,VALDEACEDERAS,,,,440641.04,4479220.8,-370013166,40.46153788,
15551,,VIDRIO,V2200CL,,,1,TETUAN,VALDEACEDERAS,,,,440768.51,4479585.81,-369866234,40.46483513,
15552,,VIDRIO,V2200CL,,,1,TETUAN,VALDEACEDERAS,,,,440657.26,4479547.92,-369997095,40.46448587,
15553,,VIDRIO,V2200CL,,,1,TETUAN,VALDEACEDERAS,,,,440025.33,4479938.94,-370746123,40.46796295,
15554,,VIDRIO,V2200CL,,,1,TETUAN,VALDEACEDERAS,,,,440492.46,4479326.78,-370189395,40.46248196,
15555,,VIDRIO,V2200CL,,,1,TETUAN,VALDEACEDERAS,,,,440247.72,4479686.96,-370481438,40.46570904,
15556,,VIDRIO,V2200CL,,,1,TETUAN,VALDEACEDERAS,,,,440288.96,4480163.68,-370437283,40.47000649,
15557,,VIDRIO,V2200CL,,,1,TETUAN,VALDEACEDERAS,,,,440237.65,4479898.11,-370495304,40.46761044,
15558,,VIDRIO,V2200CL,,,1,TETUAN,VALDEACEDERAS,,,,440448.99,4479620.97,-370243425,40.46512903,
15559,,VIDRIO,V2200CL,,,1,TETUAN,VALDEACEDERAS,,,,440108.36,4479588.53,-370644881,40.46481231,
15560,,VIDRIO,V2200CL,,,1,TETUAN,VALDEACEDERAS,,,,440406.71,4480142.9,-370298196,40.46982775,
15561,,VIDRIO,V2200CL,,,1,TETUAN,VALDEACEDERAS,,,,440288.96,4480163.68,-370437283,40.47000649,
15562,,VIDRIO,V2200CL,,,1,TETUAN,VALDEACEDERAS,,,,440864.93,4479398.67,-369750766,40.46315617,
15563,,VIDRIO,V2200CL,,,1,TETUAN,VALDEACEDERAS,,,,440742.26,4479267.54,-369894223,40.46196616,
15564,,VIDRIO,V2200CL,,,1,TETUAN,VALDEACEDERAS,,,,440251.05,4479559.37,-370476309,40.4645599,
15565,,VIDRIO,V2200CL,,,1,TETUAN,VALDEACEDERAS,,,,440183.8,4480131.27,-370561019,40.46970696,
15566,,VIDRIO,V2200CL,,,1,TETUAN,VALDEACEDERAS,,,,440533.12,4480077.51,-370148476,40.46924775,
15567,,VIDRIO,V2200CL,,,1,TETUAN,VALDEACEDERAS,,,,440907.5,4479604.22,-369702472,40.46501088,
15568,,VIDRIO,V2200CL,,,1,TETUAN,BERRUGUETE,,,,440049.86,4478686.15,-370705356,40.45667909,
15569,,VIDRIO,V2200CL,,,1,TETUAN,BERRUGUETE,,,,440313.24,4479443.24,-370401866,40.46351822,
15570,,VIDRIO,V2200CL,,,1,TETUAN,BERRUGUETE,,,,439893.11,4478888.21,-370892127,40.45848801,
15571,,VIDRIO,V2200CL,,,1,TETUAN,BERRUGUETE,,,,440165.23,4478779.26,-370570175,40.45752618,
15572,,VIDRIO,V2200CL,,,1,TETUAN,BERRUGUETE,,,,439922.83,4479096.76,-370859050,40.46036886,
15573,,VIDRIO,V2200CL,,,1,TETUAN,BERRUGUETE,,,,439919.64,4478730.6,-370859347,40.45707011,
15574,,VIDRIO,V2200CL,,,1,TETUAN,BERRUGUETE,,,,440144.29,4478681.3,-370593947,40.45664221,
15575,,VIDRIO,V2200CL,,,1,TETUAN,BERRUGUETE,,,,440458.13,4478977.55,-370226609,40.4593335,
15576,,VIDRIO,V2200CL,,,1,TETUAN,BERRUGUETE,,,,440309.11,4478916.22,-370401781,40.45877032,
15577,,VIDRIO,V2200CL,,,1,TETUAN,BERRUGUETE,,,,440112.94,4479083.59,-370634714,40.46026394,
15578,,VIDRIO,V2200CL,,,1,TETUAN,BERRUGUETE,,,,440596.39,4479087.17,-370064575,40.46033089,
15579,,VIDRIO,V2200CL,,,1,TETUAN,BERRUGUETE,,,,440130.85,4478908.4,-370611939,40.45868705,
15580,,VIDRIO,V2200CL,,,1,TETUAN,BERRUGUETE,,,,440471.76,4478874.78,-370209570,40.45840868,
15581,,VIDRIO,V2200CL,,,1,TETUAN,BERRUGUETE,,,,440313.24,4479443.24,-370401866,40.46351822,
15582,,VIDRIO,V2200CL,,,1,TETUAN,BERRUGUETE,,,,440580.25,4479256.21,-370085193,40.46185252,
15583,,VIDRIO,V2200CL,,,1,TETUAN,BERRUGUETE,,,,440343.11,4479160.56,-370363979,40.46097387,
15584,,VIDRIO,V2200CL,,,1,TETUAN,BERRUGUETE,,,,440130.85,4478908.4,-370611939,40.45868705,
15585,,VIDRIO,V2200CL,,,1,TETUAN,BERRUGUETE,,,,440001.06,4479207.59,-370767835,40.46137291,
15586,,VIDRIO,V2200CL,,,1,TETUAN,BERRUGUETE,,,,440088.56,4479303.88,-370665547,40.46224664,
15587,,VIDRIO,V2200CL,,,1,TETUAN,BELLAS VISTAS,,,,439770.55,4478408.8,-371032119,40.45416042,
15588,,VIDRIO,V2200CL,,,1,TETUAN,BELLAS VISTAS,,,,439969.37,4478249.55,-370796151,40.45274021,
15589,,VIDRIO,V2200CL,,,1,TETUAN,BELLAS VISTAS,,,,439920.09,4478266.28,-370854422,40.45288736,
15590,,VIDRIO,V2200CL,,,1,TETUAN,CUATRO CAMINOS,,,,440981.54,4478214.24,-369602220,40.45249461,
15591,,VIDRIO,V2200CL,,,1,TETUAN,CUATRO CAMINOS,,,,441091.84,4478187.93,-369471905,40.45226543,
15592,,VIDRIO,V2200CL,,,1,TETUAN,CUATRO CAMINOS,,,,440981.54,4478214.24,-369602220,40.45249461,
15593,,VIDRIO,V2200CL,,,1,TETUAN,CUATRO CAMINOS,,,,440559.07,4478303.81,-370101255,40.45327139,
15594,,VIDRIO,V2200CL,,,1,TETUAN,CASTILLEJOS,,,,441172.33,4478977.54,-369384305,40.45938427,
15595,,VIDRIO,V2200CL,,,1,TETUAN,CASTILLEJOS,,,,441167.12,4479301.85,-369393456,40.46230543,
15596,,VIDRIO,V2200CL,,,1,TETUAN,ALMENARA,,,,441207.23,4479656.44,-369349434,40.46550256,
15597,,VIDRIO,V2200CL,,,1,TETUAN,ALMENARA,,,,441096.68,4479745.2,-369480649,40.46629432,
15598,,VIDRIO,V2200CL,,,1,TETUAN,ALMENARA,,,,441598.92,4480386.74,-368894168,40.47210903,
15599,,VIDRIO,V2200CL,,,1,TETUAN,ALMENARA,,,,440775.16,4480129.78,-369863468,40.46973591,
15600,,VIDRIO,V2200CL,,,1,TETUAN,ALMENARA,,,,441141.95,4479803.53,-369427795,40.46682298,
15601,,VIDRIO,V2200CL,,,1,TETUAN,CUATRO CAMINOS,,,,441044.84,4477779.26,-369523536,40.44858062,
15603,,VIDRIO,V2200CL,,,1,TETUAN,CASTILLEJOS,,,,441056.21,4478913.43,-369520658,40.45879851,
15604,,VIDRIO,V2200CL,,,1,LATINA,LUCERO,,,,436477.13,4472535.76,-374857253,40.40100875,
15605,,VIDRIO,V2200CL,,,1,LATINA,AGUILAS,,,,434866.58,4470636.97,-376735595,40.3837793,
15606,,VIDRIO,V2200CL,,,1,LATINA,AGUILAS,,,,434866.58,4470636.97,-376735595,40.3837793,
15607,,VIDRIO,V2200CL,,,1,LATINA,AGUILAS,,,,434779.81,4469868.4,-376829946,40.37684893,
15609,,VIDRIO,V2200CL,,,1,LATINA,AGUILAS,,,,434428.94,4470149.68,-377246133,40.37935528,
15610,,VIDRIO,V2200CL,,,1,TETUAN,BELLAS VISTAS,,,,439818.54,4478460.37,-370976015,40.45462846,
15612,,VIDRIO,V2200CL,,,1,LATINA,AGUILAS,,,,433965.87,4469900.16,-377789021,40.37707094,
15613,,VIDRIO,V2200CL,,,1,TETUAN,BELLAS VISTAS,,,,440298.96,4478159.05,-370406631,40.45194869,
15615,,VIDRIO,V2200CL,,,1,LATINA,AGUILAS,,,,434727.35,4471132.88,-376904693,40.38823576,
15616,,VIDRIO,V2200CL,,,1,TETUAN,BELLAS VISTAS,,,,439846.35,4477935.61,-370938248,40.44990322,
15618,,VIDRIO,V2200CL,,,1,LATINA,AGUILAS,,,,433959.91,4470378.78,-377801001,40.38138206,
15619,,VIDRIO,V2200CL_vacri,,,1,FUENCARRAL-EL PARDO,EL GOLOSO,,,,441289.205,4486707.845,-369318094,40.52902999,
15620,,VIDRIO,V2200CL,,,1,TETUAN,BELLAS VISTAS,,,,440036.03,4477740.62,-370712736,40.44816038,
15624,,VIDRIO,V2200CL,,,1,LATINA,AGUILAS,,,,434406.26,4470514.36,-377276603,40.38263868,
15626,,VIDRIO,V2200CL,,,1,TETUAN,BELLAS VISTAS,,,,439630.35,4478495.37,-371198276,40.4549301,
15627,,VIDRIO,V2200CL,,,1,FUENCARRAL-EL PARDO,MIRASIERRA,,,,439668.2012,4483501.156,-371201263,40.50002678,
15629,,VIDRIO,V2200CL,,,1,LATINA,AGUILAS,,,,435257.35,4469807.72,-376266831,40.37633954,
15631,,VIDRIO,V2200CL,,,1,TETUAN,BELLAS VISTAS,,,,439936.77,4477768.68,-370830046,40.44840599,
15632,,VIDRIO,V2200CL,,,1,FUENCARRAL-EL PARDO,EL PARDO,,,,434141.2266,4485798.642,-377747338,40.52030268,
15634,,VIDRIO,V2200CL,,,1,LATINA,AGUILAS,,,,434567.87,4470070.8,-377081670,40.37865562,
15636,,VIDRIO,V2200CL,,,1,TETUAN,BELLAS VISTAS,,,,440051.26,4478444.19,-370701420,40.45449952,
15637,,VIDRIO,V2200CL,,,1,FUENCARRAL-EL PARDO,VALVERDE,,,,441819.7208,4484252.721,-368669203,40.50695079,
15639,,VIDRIO,V2200CL,,,1,LATINA,AGUILAS,,,,434373.2,4469688.96,-377307048,40.37520055,
15640,,VIDRIO,V2200CL,,,1,LATINA,AGUILAS,,,,434847.66,4470554.57,-376757041,40.38303553,
15641,,VIDRIO,V2200CL,,,1,LATINA,AGUILAS,,,,434057.24,4469716.09,-377679491,40.37542001,
15642,,VIDRIO,V2200CL,,,1,LATINA,AGUILAS,,,,433785.21,4469737.44,-378000131,40.37559077,
15643,,VIDRIO,V2200CL,,,1,LATINA,AGUILAS,,,,435197.31,4470210.37,-376341647,40.37996211,
15644,,VIDRIO,V2200CL,,,1,LATINA,AGUILAS,,,,434334.37,4470948.74,-377365767,40.38654607,
15645,,VIDRIO,V2200CL,,,1,LATINA,AGUILAS,,,,434374.63,4470073.31,-377309321,40.37866304,
15646,,VIDRIO,V2200CL,,,1,LATINA,AGUILAS,,,,435228.33,4470409.98,-376307135,40.38176269,
15647,,VIDRIO,V2200CL,,,1,LATINA,AGUILAS,,,,434885.54,4470767.4,-376714592,40.38495575,
15648,,VIDRIO,V2200CL,,,1,LATINA,AGUILAS,,,,434961.56,4470495.25,-376622259,40.38251005,
15649,,VIDRIO,V2200CL,,,1,LATINA,AGUILAS,,,,434356.04,4469837.08,-377328786,40.37653352,
15650,,VIDRIO,V2200CL,,,1,LATINA,AGUILAS,,,,433667.43,4469800.66,-378139520,40.37615091,
15651,,VIDRIO,V2200CL,,,1,LATINA,AGUILAS,,,,433990.24,4469829.95,-377759588,40.3764404,
15652,,VIDRIO,V2200CL,,,1,LATINA,AGUILAS,,,,435000.15,4471092.86,-376582897,40.38789657,
15653,,VIDRIO,V2200CL,,,1,LATINA,AGUILAS,,,,435000.15,4471092.86,-376582897,40.38789657,
15654,,VIDRIO,V2200CL,,,1,LATINA,AGUILAS,,,,433690.78,4470539.78,-378119707,40.38281104,
15655,,VIDRIO,V2200CL,,,1,LATINA,AGUILAS,,,,434098.42,4469943.92,-377633341,40.37747564,
15656,,VIDRIO,V2200CL,,,1,LATINA,AGUILAS,,,,434393.82,4470519.18,-377291307,40.38268112,
15657,,VIDRIO,V2200CL,,,1,LATINA,AGUILAS,,,,433707.58,4470762.4,-378102233,40.38481782,
15658,,VIDRIO,V2200CL,,,1,LATINA,AGUILAS,,,,434354.7805,4470500.037,-377337098,40.3825056,
15659,,VIDRIO,V2200CL,,,1,LATINA,ALUCHE,,,,436109.04,4470753.9,-375273110,40.38492886,
15660,,VIDRIO,V2200CL,,,1,LATINA,CAMPAMENTO,,,,434207.54,4471997.78,-377526018,40.3959862,
15661,,VIDRIO,V2200CL,,,1,LATINA,CAMPAMENTO,,,,434561.49,4471896.31,-377107937,40.39510001,
15662,,VIDRIO,V2200CL,,,1,LATINA,LUCERO,,,,436519.99,4472601.84,-374807409,40.40160729,
15663,,VIDRIO,V2200CL,,,1,LATINA,CAMPAMENTO,,,,434452.3162,4472359.558,-377241338,40.39926453,
15664,,VIDRIO,V2200CL,,,1,LATINA,ALUCHE,,,,436865.86,4471898.56,-374392880,40.39529815,
15665,,VIDRIO,V2200CL,,,1,LATINA,CARMENES,,,,437145.37,4472547.72,-374069960,40.4011672,
15666,,VIDRIO,V2200CL,,,1,LATINA,AGUILAS,,,,433997.29,4470418.03,-377757374,40.3817386,
15667,,VIDRIO,V2200CL,,,1,LATINA,CAMPAMENTO,,,,434852.31,4472219.53,-376768593,40.39803449,
15668,,VIDRIO,V2200CL,,,1,LATINA,AGUILAS,,,,433824.74,4469889.98,-377955153,40.37696804,
15669,,VIDRIO,V2200CL,,,1,LATINA,AGUILAS,,,,434854.03,4471167.24,-376755802,40.3885552,
15670,,VIDRIO,V2200CL,,,1,LATINA,AGUILAS,,,,435123.2,4470658.98,-376433513,40.3839976,
15671,,VIDRIO,V2200CL,,,1,LATINA,CARMENES,,,,437363.39,4472860.14,-373816133,40.40399804,
15672,,VIDRIO,V2200CL,,,1,LATINA,LUCERO,,,,435784.04,4472953.05,-375678154,40.4047147,
15673,,VIDRIO,V2200CL,,,1,LATINA,ALUCHE,,,,435147.7,4471613.36,-376414368,40.39259694,
15674,,VIDRIO,V2200CL,,,1,LATINA,CARMENES,,,,437095.55,4471961.48,-374122873,40.39588234,
15676,,VIDRIO,V2200CL,,,1,LATINA,LUCERO,,,,436757.81,4473364.0,-374534748,40.40849124,
15677,,VIDRIO,V2200CL,,,1,LATINA,ALUCHE,,,,435147.7,4471613.36,-376414368,40.39259694,
15678,,VIDRIO,V2200CL,,,1,LATINA,ALUCHE,,,,435943.0,4472113.24,-375482385,40.3971616,
15679,,VIDRIO,V2200CL,,,1,LATINA,ALUCHE,,,,435943.0,4472113.24,-375482385,40.3971616,
15680,,VIDRIO,V2200CL,,,1,LATINA,LUCERO,,,,436744.27,4472898.85,-374546081,40.40429995,
15681,,VIDRIO,V2200CL,,,1,LATINA,ALUCHE,,,,435290.5,4471551.07,-376245490,40.39204691,
15682,,VIDRIO,V2200CL,,,1,LATINA,CUATRO VIENTOS,,,,434102.11,4468329.94,-377612313,40.36293656,
15683,,VIDRIO,V2200CL,,,1,LATINA,CARMENES,,,,436973.1,4472916.42,-374276603,40.40447558,
15684,,VIDRIO,V2200CL,,,1,LATINA,CARMENES,,,,437096.31,4472741.27,-374129682,40.40290707,
15685,,VIDRIO,V2200CL,,,1,LATINA,AGUILAS,,,,433708.76,4470374.57,-378096808,40.38132419,
15686,,VIDRIO,V2200CL,,,1,LATINA,CUATRO VIENTOS,,,,435237.16,4469269.73,-376285147,40.37149153,
15687,,VIDRIO,V2200CL,,,1,LATINA,LUCERO,,,,436713.7249,4473289.663,-374585961,40.40781823,
15688,,VIDRIO,V2200CL,,,1,LATINA,ALUCHE,,,,434662.79,4471733.71,-376986915,40.3936432,
15689,,VIDRIO,V2200CL,,,1,LATINA,ALUCHE,,,,435408.68,4471588.01,-376106628,40.39238886,
15690,,VIDRIO,V2200CL,,,1,LATINA,LUCERO,,,,436582.32,4473244.91,-374740370,40.40740508,
15691,,VIDRIO,V2200CL,,,1,LATINA,PUERTA DEL ANGEL,,,,437353.38,4473139.79,-373830681,40.40651649,
15692,,VIDRIO,V2200CL,,,1,LATINA,CARMENES,,,,437260.82,4472859.89,-373936997,40.40398806,
15693,,VIDRIO,V2200CL,,,1,LATINA,CUATRO VIENTOS,,,,433680.8,4468914.96,-378114558,40.36817325,
15694,,VIDRIO,V2200CL,,,1,LATINA,ALUCHE,,,,435866.61,4471232.32,-375563522,40.38922004,
15695,,VIDRIO,V2200CL,,,1,LATINA,CARMENES,,,,438622.7866,4472944.178,-372332880,40.40484888,
15696,,VIDRIO,V2200CL,,,1,LATINA,LUCERO,,,,436825.0927,4471975.849,-374441681,40.39599131,
15697,,VIDRIO,V2200CL,,,1,LATINA,ALUCHE,,,,436126.88,4471301.3,-375257582,40.38986144,
15698,,VIDRIO,V2200CL,,,1,LATINA,AGUILAS,,,,433668.8,4470364.37,-378143774,40.38122913,
15699,,VIDRIO,V2200CL,,,1,LATINA,LUCERO,,,,436029.5005,4472685.704,-375386217,40.40232523,
15700,,VIDRIO,V2200CL,,,1,LATINA,LUCERO,,,,436649.33,4472517.36,-374654161,40.40085611,
15701,,VIDRIO,V2200CL,,,1,LATINA,CAMPAMENTO,,,,434430.73,4471833.9,-377261360,40.39452751,
15702,,VIDRIO,V2200CL,,,1,LATINA,AGUILAS,,,,434583.08,4470262.29,-377065719,40.38038183,
15703,,VIDRIO,V2200CL,,,1,LATINA,LUCERO,,,,435931.56,4472571.51,-375500476,40.401289,
15704,,VIDRIO,V2200CL,,,1,LATINA,AGUILAS,,,,434734.95,4470251.93,-376886715,40.38030041,
15705,,VIDRIO,V2200CL,,,1,LATINA,ALUCHE,,,,434997.92,4471902.17,-376593784,40.39518697,
15706,,VIDRIO,V2200CL,,,1,LATINA,ALUCHE,,,,434997.92,4471902.17,-376593784,40.39518697,
15707,,VIDRIO,V2200CL,,,1,LATINA,ALUCHE,,,,436990.35,4471562.79,-374242879,40.39228281,
15708,,VIDRIO,V2200CL,,,1,LATINA,CARMENES,,,,436932.82,4472558.29,-374320521,40.40124635,
15709,,VIDRIO,V2200CL,,,1,LATINA,ALUCHE,,,,434611.76,4471727.0,-377046970,40.39357875,
15710,,VIDRIO,V2200CL,,,1,LATINA,ALUCHE,,,,436260.02,4471697.2,-375104687,40.39343807,
15711,,VIDRIO,V2200CL,,,1,LATINA,LUCERO,,,,436013.88,4472777.52,-375405546,40.40315115,
15712,,VIDRIO,V2200CL,,,1,LATINA,CAMPAMENTO,,,,434040.42,4471953.92,-377722472,40.39557788,
15713,,VIDRIO,V2200CL,,,1,LATINA,CAMPAMENTO,,,,434291.29,4471952.67,-377426875,40.39558645,
15714,,VIDRIO,V2200CL,,,1,LATINA,AGUILAS,,,,434816.09,4471005.05,-376798840,40.38709116,
15715,,VIDRIO,V2200CL,,,1,LATINA,AGUILAS,,,,435291.6646,4469698.876,-376225307,40.37536169,
15716,,VIDRIO,V2200CL,,,1,LATINA,AGUILAS,,,,434676.01,4470335.08,-376956997,40.38104484,
15717,,VIDRIO,V2200CL,,,1,LATINA,ALUCHE,,,,435244.31,4472094.49,-376305436,40.39693866,
15718,,VIDRIO,V2200CL,,,1,LATINA,ALUCHE,,,,435743.6,4471569.14,-375711841,40.39224477,
15719,,VIDRIO,V2200CL,,,1,LATINA,ALUCHE,,,,435743.6,4471569.14,-375711841,40.39224477,
15720,,VIDRIO,V2200CL,,,1,LATINA,CARMENES,,,,437040.17,4471733.45,-374185869,40.39382396,
15721,,VIDRIO,V2200CL,,,1,LATINA,ALUCHE,,,,436912.17,4471574.22,-374335103,40.39237986,
15722,,VIDRIO,V2200CL,,,1,LATINA,CUATRO VIENTOS,,,,431988.99,4468877.58,-380106688,40.36770021,
15723,,VIDRIO,V2200CL,,,1,LATINA,CUATRO VIENTOS,,,,434034.34,4468792.39,-377696907,40.36709714,
15724,,VIDRIO,V2200CL,,,1,LATINA,AGUILAS,,,,434788.69,4469574.08,-376816476,40.37419827,
15725,,VIDRIO,V2200CL,,,1,LATINA,LUCERO,,,,436812.29,4472096.19,-374457960,40.39707442,
15726,,VIDRIO,V2200CL,,,1,LATINA,ALUCHE,,,,434772.42,4471898.16,-376859433,40.39513322,
15727,,VIDRIO,V2200CL,,,1,LATINA,ALUCHE,,,,435345.47,4471069.26,-376175835,40.38771085,
15728,,VIDRIO,V2200CL,,,1,LATINA,AGUILAS,,,,434818.4,4470348.45,-376789401,40.38117643,
15729,,VIDRIO,V2200CL,,,1,LATINA,AGUILAS,,,,434818.4,4470348.45,-376789401,40.38117643,
15730,,VIDRIO,V2200CL,,,1,LATINA,CARMENES,,,,437963.08,4472750.77,-373108397,40.40305769,
15731,,VIDRIO,V2200CL_vacri,,,1,TETUAN,ALMENARA,,,,441686.37,4480619.99,-368793157,40.47421639,
15732,,VIDRIO,V2200CL,,,1,TETUAN,VALDEACEDERAS,,,,439700.74,4480170.89,-371131186,40.47002894,
15733,,VIDRIO,V2200CL,,,1,FUENCARRAL-EL PARDO,MIRASIERRA,,,,440016.9827,4482330.313,-370778590,40.48950471,
15734,,VIDRIO,V2200CL_vacri,,,1,TETUAN,CASTILLEJOS,,,,441030.85,4479229.46,-369553502,40.46164365,
15735,,VIDRIO,V2200CL,,,1,TETUAN,BERRUGUETE,,,,440049.86,4478686.15,-370705356,40.45667909,
15738,,VIDRIO,V2200CL,,,1,TETUAN,CUATRO CAMINOS,,,,441244.48,4478629.16,-369295989,40.45625102,
15739,,VIDRIO,V2200CL,,,1,LATINA,ALUCHE,,,,435612.83,4471228.43,-375862467,40.38916542,
15740,,VIDRIO,V2200CL,,,1,FUENCARRAL-EL PARDO,FUENTELAREINA,,,,437592.8662,4481884.484,-373634383,40.48530985,
15742,,VIDRIO,V2200CL,,,1,TETUAN,ALMENARA,,,,441139.78,4480553.93,-369437317,40.47358274,
15743,,VIDRIO,V2200CL_vacri,,,1,TETUAN,CUATRO CAMINOS,,,,441380.48,4478001.49,-369129807,40.4506063,
15747,,VIDRIO,V2200CL,,,1,TETUAN,CUATRO CAMINOS,,,,441166.75,4478476.98,-369386247,40.45487462,
15748,,VIDRIO,V2200CL_vacri,,,1,TETUAN,BELLAS VISTAS,,,,440292.15,4477684.13,-370410196,40.44766993,
15749,,VIDRIO,V2200CL,,,1,TETUAN,CUATRO CAMINOS,,,,441380.48,4478001.49,-369129807,40.4506063,
15750,,VIDRIO,V2200CL,,,1,LATINA,CARMENES,,,,436798.32,4472673.05,-374480147,40.40226995,
15753,,VIDRIO,V2200CL,,,1,FUENCARRAL-EL PARDO,PEÑAGRANDE,,,,439335.6257,4480199.321,-371562128,40.47025847,
15755,,VIDRIO,V2200CL,,,1,TETUAN,BELLAS VISTAS,,,,439847.46,4478129.59,-370938776,40.45165075,
15756,,VIDRIO,V2200CL,,,1,TETUAN,CUATRO CAMINOS,,,,440984.99,4477854.28,-369594807,40.44925218,
15757,,VIDRIO,V2200CL,,,1,TETUAN,CUATRO CAMINOS,,,,440735.83,4478418.14,-369893876,40.45431395,
15758,,VIDRIO,V2200CL,,,1,TETUAN,CUATRO CAMINOS,,,,440809.63,4477858.76,-369801631,40.44928007,
15759,,VIDRIO,V2200CL,,,1,TETUAN,CUATRO CAMINOS,,,,440910.81,4478498.02,-369688269,40.455046,
15760,,VIDRIO,V2200CL,,,1,TETUAN,CUATRO CAMINOS,,,,441166.75,4478476.98,-369386247,40.45487462,
15761,,VIDRIO,V2200CL,,,1,TETUAN,CUATRO CAMINOS,,,,440538.79,4478094.49,-370123210,40.4513843,
15762,,VIDRIO,V2200CL,,,1,TETUAN,CUATRO CAMINOS,,,,441083.68,4478338.93,-369482929,40.45362512,
15763,,VIDRIO,V2200CL,,,1,TETUAN,CUATRO CAMINOS,,,,440761.73,4478054.49,-369859940,40.45103988,
15764,,VIDRIO,V2200CL,,,1,TETUAN,CUATRO CAMINOS,,,,440920.93,4477936.71,-369671112,40.4499902,
15765,,VIDRIO,V2200CL,,,1,TETUAN,CUATRO CAMINOS,,,,440852.37,4477727.93,-369750014,40.44810454,
15766,,VIDRIO,V2200CL,,,1,TETUAN,CUATRO CAMINOS,,,,441172.89,4478341.82,-369377753,40.45365748,
15767,,VIDRIO,V2200CL,,,1,TETUAN,CUATRO CAMINOS,,,,440824.86,4478050.58,-369785459,40.45100915,
15768,,VIDRIO,V2200CL,,,1,TETUAN,CUATRO CAMINOS,,,,440767.5,4477730.7,-369850116,40.44812345,
15769,,VIDRIO,V2200CL,,,1,TETUAN,CUATRO CAMINOS,,,,440984.99,4477854.28,-369594807,40.44925218,
15770,,VIDRIO,V2200CL,,,1,TETUAN,CUATRO CAMINOS,,,,440542.76,4478547.04,-370122767,40.45546134,
15771,,VIDRIO,V2200CL,,,1,TETUAN,CUATRO CAMINOS,,,,441225.98,4478503.12,-369316639,40.45511429,
15772,,VIDRIO,V2200CL,,,1,TETUAN,CUATRO CAMINOS,,,,440969.25,4477718.26,-369612103,40.44802574,
15773,,VIDRIO,V2200CL,,,1,TETUAN,CUATRO CAMINOS,,,,441018.38,4477649.27,-369553529,40.44740773,
15774,,VIDRIO,V2200CL,,,1,TETUAN,CUATRO CAMINOS,,,,440479.52,4477822.24,-370190551,40.44892751,
15775,,VIDRIO,V2200CL,,,1,TETUAN,CUATRO CAMINOS,,,,441117.03,4478511.7,-369445203,40.45518387,
15776,,VIDRIO,V2200CL,,,1,TETUAN,CUATRO CAMINOS,,,,441073.6,4478092.57,-369492530,40.45140509,
15777,,VIDRIO,V2200CL,,,1,TETUAN,CUATRO CAMINOS,,,,440488.24,4478487.4,-370186503,40.45492018,
15778,,VIDRIO,V2200CL,,,1,TETUAN,CUATRO CAMINOS,,,,440931.6,4478087.98,-369659937,40.45135366,
15779,,VIDRIO,V2200CL,,,1,TETUAN,CUATRO CAMINOS,,,,440781.76,4477953.0,-369835374,40.45012704,
15780,,VIDRIO,V2200CL,,,1,TETUAN,CUATRO CAMINOS,,,,440747.76,4478256.23,-369878296,40.45285625,
15781,,VIDRIO,V2200CL,,,1,TETUAN,CUATRO CAMINOS,,,,441358.24,4477737.64,-369153596,40.44822785,
15782,,VIDRIO,V2200CL,,,1,TETUAN,CUATRO CAMINOS,,,,440775.32,4477876.37,-369842253,40.44943627,
15783,,VIDRIO,V2200CL,,,1,TETUAN,CUATRO CAMINOS,,,,441057.15,4477928.9,-369510409,40.44992951,
15784,,VIDRIO,V2200CL,,,1,TETUAN,CUATRO CAMINOS,,,,441035.1,4477887.36,-369536024,40.44955374,
15785,,VIDRIO,V2200CL,,,1,TETUAN,CUATRO CAMINOS,,,,441073.6,4478092.57,-369492530,40.45140509,
15786,,VIDRIO,V2200CL,,,1,TETUAN,CUATRO CAMINOS,,,,441244.48,4478629.16,-369295989,40.45625102,
15787,,VIDRIO,V2200CL,,,1,TETUAN,CUATRO CAMINOS,,,,441172.89,4478341.82,-369377753,40.45365748,
15788,,VIDRIO,V2200CL,,,1,TETUAN,CUATRO CAMINOS,,,,441057.15,4477928.9,-369510409,40.44992951,
15789,,VIDRIO,V2200CL,,,1,TETUAN,CUATRO CAMINOS,,,,440695.2,4478169.18,-369939465,40.45206831,
15790,,VIDRIO,V2200CL,,,1,TETUAN,CUATRO CAMINOS,,,,440542.76,4478547.04,-370122767,40.45546134,
15791,,VIDRIO,V2200CL,,,1,TETUAN,CUATRO CAMINOS,,,,440774.21,4478539.17,-369849745,40.45540697,
15792,,VIDRIO,V2200CL,,,1,TETUAN,CUATRO CAMINOS,,,,440947.56,4478030.09,-369640579,40.4508333,
15793,,VIDRIO,V2200CL,,,1,TETUAN,CUATRO CAMINOS,,,,440755.97,4477612.17,-369862606,40.44705486,
15794,,VIDRIO,V2200CL,,,1,TETUAN,CUATRO CAMINOS,,,,440595.56,4477900.89,-370054454,40.44964433,
15795,,VIDRIO,V2200CL,,,1,TETUAN,CUATRO CAMINOS,,,,440907.27,4477786.14,-369685819,40.44863283,
15796,,VIDRIO,V2200CL,,,1,TETUAN,CASTILLEJOS,,,,441310.2,4478639.3,-369218578,40.45634701,
15797,,VIDRIO,V2200CL,,,1,TETUAN,CUATRO CAMINOS,,,,440492.05,4478245.25,-370179740,40.45273906,
15798,,VIDRIO,V2200CL,,,1,TETUAN,CUATRO CAMINOS,,,,441018.38,4477649.27,-369553529,40.44740773,
15799,,VIDRIO,V2200CL,,,1,TETUAN,CASTILLEJOS,,,,441116.16,4479318.86,-369453717,40.46245505,
15800,,VIDRIO,V2200CL,,,1,TETUAN,CASTILLEJOS,,,,441261.46,4479514.76,-369284160,40.46423008,
15801,,VIDRIO,V2200CL,,,1,TETUAN,CASTILLEJOS,,,,440890.84,4478895.74,-369715523,40.45862741,
15802,,VIDRIO,V2200CL,,,1,TETUAN,CASTILLEJOS,,,,440736.05,4478769.21,-369896894,40.45747655,
15803,,VIDRIO,V2200CL,,,1,TETUAN,CASTILLEJOS,,,,441330.08,4478894.34,-369197490,40.45864592,
15804,,VIDRIO,V2200CL,,,1,TETUAN,CASTILLEJOS,,,,441116.16,4479318.86,-369453717,40.46245505,
15805,,VIDRIO,V2200CL,,,1,TETUAN,CASTILLEJOS,,,,440562.06,4478764.76,-370102045,40.45742404,
15806,,VIDRIO,V2200CL,,,1,TETUAN,CASTILLEJOS,,,,441141.23,4479351.74,-369424453,40.46275302,
15807,,VIDRIO,V2200CL,,,1,TETUAN,CASTILLEJOS,,,,441440.7,4478765.28,-369065839,40.4574911,
15808,,VIDRIO,V2200CL,,,1,TETUAN,CASTILLEJOS,,,,441378.13,4479440.97,-369145871,40.46357359,
15809,,VIDRIO,V2200CL,,,1,TETUAN,CASTILLEJOS,,,,441025.31,4478816.17,-369556196,40.45792016,
15810,,VIDRIO,V2200CL,,,1,TETUAN,CASTILLEJOS,,,,441167.12,4479301.85,-369393456,40.46230543,
15811,,VIDRIO,V2200CL,,,1,TETUAN,CASTILLEJOS,,,,441469.43,4479156.65,-369035566,40.46101875,
15812,,VIDRIO,V2200CL,,,1,TETUAN,CASTILLEJOS,,,,441315.93,4478734.07,-369212697,40.45720114,
15813,,VIDRIO,V2200CL,,,1,TETUAN,CASTILLEJOS,,,,441134.28,4479067.6,-369430015,40.46019288,
15814,,VIDRIO,V2200CL,,,1,TETUAN,CASTILLEJOS,,,,441404.11,4478958.13,-369110772,40.4592258,
15815,,VIDRIO,V2200CL,,,1,TETUAN,CASTILLEJOS,,,,441328.97,4479519.77,-369204581,40.46427998,
15816,,VIDRIO,V2200CL,,,1,TETUAN,CASTILLEJOS,,,,441469.38,4479155.49,-369035614,40.4610083,
15817,,VIDRIO,V2200CL,,,1,TETUAN,CASTILLEJOS,,,,441056.51,4478913.79,-369520307,40.45880178,
15818,,VIDRIO,V2200CL,,,1,TETUAN,CASTILLEJOS,,,,441051.07,4479167.0,-369529075,40.46108242,
15819,,VIDRIO,V2200CL,,,1,TETUAN,CASTILLEJOS,,,,441051.07,4479167.0,-369529075,40.46108242,
15820,,VIDRIO,V2200CL,,,1,TETUAN,CASTILLEJOS,,,,441261.46,4479514.76,-369284160,40.46423008,
15821,,VIDRIO,V2200CL,,,1,TETUAN,CASTILLEJOS,,,,441486.43,4479302.6,-369016862,40.46233473,
15822,,VIDRIO,V2200CL,,,1,TETUAN,CASTILLEJOS,,,,441310.2,4478639.3,-369218578,40.45634701,
15823,,VIDRIO,V2200CL,,,1,TETUAN,CASTILLEJOS,,,,441066.4,4479010.96,-369509546,40.45967783,
15824,,VIDRIO,V2200CL,,,1,TETUAN,CASTILLEJOS,,,,440562.06,4478764.76,-370102045,40.45742404,
15825,,VIDRIO,V2200CL,,,1,TETUAN,CASTILLEJOS,,,,440948.11,4479092.13,-369649809,40.46040064,
15826,,VIDRIO,V2200CL,,,1,TETUAN,CASTILLEJOS,,,,440741.93,4479019.53,-369892296,40.45973196,
15827,,VIDRIO,V2200CL,,,1,TETUAN,CASTILLEJOS,,,,440682.9182,4478843.027,-369960244,40.45813774,
15828,,VIDRIO,V2200CL,,,1,TETUAN,CASTILLEJOS,,,,441330.35,4479288.13,-369200812,40.46219337,
15829,,VIDRIO,V2200CL,,,1,TETUAN,CASTILLEJOS,,,,440948.11,4479092.13,-369649809,40.46040064,
15830,,VIDRIO,V2200CL,,,1,TETUAN,CASTILLEJOS,,,,441304.83,4478966.92,-369227940,40.45929797,
15831,,VIDRIO,V2200CL,,,1,TETUAN,CASTILLEJOS,,,,441209.53,4479438.51,-369344702,40.46353952,
15832,,VIDRIO,V2200CL,,,1,TETUAN,CASTILLEJOS,,,,440907.89,4478961.62,-369696029,40.4592221,
15833,,VIDRIO,V2200CL,,,1,TETUAN,CASTILLEJOS,,,,440890.84,4478895.74,-369715523,40.45862741,
15834,,VIDRIO,V2200CL,,,1,TETUAN,CASTILLEJOS,,,,441328.97,4479519.77,-369204581,40.46427998,
15835,,VIDRIO,V2200CL,,,1,TETUAN,ALMENARA,,,,441049.23,4479863.15,-369537712,40.46735349,
15836,,VIDRIO,V2200CL,,,1,TETUAN,ALMENARA,,,,441686.37,4480619.99,-368793157,40.47421639,
15837,,VIDRIO,V2200CL,,,1,TETUAN,ALMENARA,,,,440794.45,4480361.81,-369842880,40.4718275,
15838,,VIDRIO,V2200CL,,,1,TETUAN,ALMENARA,,,,440962.35,4480068.05,-369642094,40.46919314,
15839,,VIDRIO,V2200CL,,,1,TETUAN,ALMENARA,,,,441297.89,4480280.15,-369248274,40.47112761,
15840,,VIDRIO,V2200CL,,,1,TETUAN,ALMENARA,,,,440960.41,4480345.57,-369646965,40.47169302,
15841,,VIDRIO,V2200CL,,,1,TETUAN,ALMENARA,,,,441486.65,4479917.02,-369022268,40.4678697,
15842,,VIDRIO,V2200CL,,,1,TETUAN,ALMENARA,,,,440947.65,4480144.78,-369660147,40.46988331,
15843,,VIDRIO,V2200CL,,,1,TETUAN,ALMENARA,,,,440530.13,4480346.95,-370154529,40.47167475,
15844,,VIDRIO,V2200CL,,,1,TETUAN,ALMENARA,,,,440799.62,4480425.76,-369837379,40.47240396,
15845,,VIDRIO,V2200CL,,,1,FUENCARRAL-EL PARDO,PEÑAGRANDE,,,,437840.3011,4480668.202,-373330533,40.47437176,
15847,,VIDRIO,V2200CL,,,1,LATINA,ALUCHE,,,,435555.39,4471007.86,-375927907,40.387174,
15852,,VIDRIO,V2200CL,,,1,TETUAN,CUATRO CAMINOS,,,,440491.69,4478638.47,-370183850,40.45628133,
15860,,VIDRIO,V2200CL,,,1,FUENCARRAL-EL PARDO,PEÑAGRANDE,,,,437938.5809,4481800.049,-373225678,40.48457514,
15863,,VIDRIO,V2200CL,,,1,LATINA,LUCERO,,,,436764.9479,4472852.939,-374521258,40.40388794,
15864,,VIDRIO,V2200CL,,,1,LATINA,LUCERO,,,,436595.74,4473062.7,-374722740,40.40576468,
15873,,VIDRIO,V2200CL,,,1,LATINA,ALUCHE,,,,435583.13,4471076.26,-375895919,40.38779232,
15876,,VIDRIO,V2200CL_vacri,,,1,CENTRO,JUSTICIA,,,,440906.63,4474831.2,-369659096,40.42201334,
15878,,VIDRIO,V2200CL_vacri,,,1,CENTRO,CORTES,,,,440585.64,4474013.4,-370029812,40.41462335,
15881,,VIDRIO,V2200CL,,,1,TETUAN,CASTILLEJOS,,,,441162.56,4479276.35,-369398597,40.46207539,
15882,,VIDRIO,V2200CL_vacri,,,1,TETUAN,VALDEACEDERAS,,,,440700.44,4479640.9,-369947035,40.46532655,
15884,,VIDRIO,V2200CL,,,1,LATINA,CAMPAMENTO,,,,432443.14,4469929.47,-379582964,40.37721293,
15885,,VIDRIO,V2200CL,,,1,TETUAN,CUATRO CAMINOS,,,,441190.9,4478176.05,-369354979,40.45216542,
15891,,VIDRIO,V2200CL_vacri,,,1,CENTRO,CORTES,,,,440505.0,4473997.86,-370124708,40.41447759,
15893,,VIDRIO,V2200CL,,,1,LATINA,CAMPAMENTO,,,,432283.47,4469904.4,-379770774,40.37697414,
15896,,VIDRIO,V2200CL_vacri,,,1,CENTRO,CORTES,,,,440585.64,4474013.4,-370029812,40.41462335,
15900,,VIDRIO,V2200CL,,,1,LATINA,LUCERO,,,,435843.11,4472624.74,-375605237,40.40176171,
15903,,VIDRIO,V2200CL,,,1,TETUAN,CUATRO CAMINOS,,,,441295.66,4478431.46,-369233803,40.45447367,
15905,,VIDRIO,V2200CL,,,1,TETUAN,VALDEACEDERAS,,,,440666.68,4479201.89,-369982749,40.46136936,
15906,,VIDRIO,V2200CL_vacri,,,1,CENTRO,JUSTICIA,,,,440906.63,4474831.2,-369659096,40.42201334,
15911,,VIDRIO,V2200CL_vacri,,,1,CENTRO,JUSTICIA,,,,440649.68,4475370.24,-369966998,40.42685097,
15918,,VIDRIO,V2200CL,,,1,LATINA,CAMPAMENTO,,,,434581.32,4472249.33,-377088200,40.3982817,
15920,,VIDRIO,V2200CL,,,1,TETUAN,ALMENARA,,,,441553.53,4480523.44,-368948969,40.47333729,
15923,,VIDRIO,V2200CL,,,1,LATINA,CAMPAMENTO,,,,432310.57,4470028.03,-379740166,40.37809004,
15924,,VIDRIO,V2200CL,,,1,TETUAN,CUATRO CAMINOS,,,,441295.66,4478431.46,-369233803,40.45447367,
15930,,VIDRIO,V2200CL_vacri,,,1,CENTRO,CORTES,,,,440505.0,4473997.86,-370124708,40.41447759,
15932,,VIDRIO,V2200CL_vacri,,,1,CENTRO,JUSTICIA,,,,441023.6,4475084.5,-369523571,40.42430348,
15936,,VIDRIO,V2200CL_vacri,,,1,TETUAN,CASTILLEJOS,,,,441321.94,4478813.06,-369206339,40.45791314,
15941,,VIDRIO,V2200CL,,,1,TETUAN,ALMENARA,,,,440646.38,4480371.92,-370017636,40.47190801,
15944,,VIDRIO,V2200CL,,,1,LATINA,CAMPAMENTO,,,,432424.51,4470142.71,-379607169,40.37913236,
15948,,VIDRIO,V2200CL,,,1,LATINA,CUATRO VIENTOS,,,,435201.3488,4468913.514,-376323706,40.3682798,
15951,,VIDRIO,V2200CL_vacri,,,1,TETUAN,CUATRO CAMINOS,,,,441366.82,4477816.12,-369144204,40.44893544,
15953,,VIDRIO,V2200CL_vacri,,,1,CENTRO,JUSTICIA,,,,440676.4672,4474660.716,-369928802,40.42046116,
15954,,VIDRIO,V2200CL_vacri,,,1,CENTRO,JUSTICIA,,,,440741.39,4474882.27,-369854343,40.42246165,
15957,,VIDRIO,V2200CL,,,1,FUENCARRAL-EL PARDO,LA PAZ,,,,440523.65,4481771.72,-370175535,40.48450916,
15959,,VIDRIO,V2200CL_vacri,,,1,TETUAN,CASTILLEJOS,,,,441330.35,4479288.13,-369200812,40.46219337,
15961,,VIDRIO,V2200CL,,,1,FUENCARRAL-EL PARDO,LA PAZ,,,,440523.65,4481771.72,-370175535,40.48450916,
15962,,VIDRIO,V2200CL,,,1,TETUAN,CASTILLEJOS,,,,441030.85,4479229.46,-369553502,40.46164365,
15963,,VIDRIO,V2200CL,,,1,TETUAN,ALMENARA,,,,441164.63,4480410.45,-369406672,40.47229197,
15965,,VIDRIO,V2200CL,,,1,FUENCARRAL-EL PARDO,LA PAZ,,,,440698.23,4480738.29,-369959900,40.47521212,
15967,,VIDRIO,V2200CL,,,1,LATINA,CAMPAMENTO,,,,432355.28,4470076.01,-379688010,40.37852589,
15969,,VIDRIO,V2200CL,,,1,FUENCARRAL-EL PARDO,LA PAZ,,,,440681.99,4480804.24,-369979674,40.47580506,
15970,,VIDRIO,V2200CL,,,1,LATINA,CUATRO VIENTOS,,,,435068.34,4468881.12,-376480029,40.36797763,
15973,,VIDRIO,V2200CL,,,1,FUENCARRAL-EL PARDO,VALVERDE,,,,441679.54,4482084.88,-368814688,40.48741223,
15974,,VIDRIO,V2200CL_vacri,,,1,CENTRO,JUSTICIA,,,,440951.33,4475273.27,-369610513,40.42599889,
15977,,VIDRIO,V2200CL,,,1,FUENCARRAL-EL PARDO,VALVERDE,,,,442198.66,4482228.51,-368203508,40.48874241,
15978,,VIDRIO,V2200CL,,,1,TETUAN,ALMENARA,,,,440814.89,4480272.24,-369817934,40.47102208,
15979,,VIDRIO,V2200CL_vacri,,,1,CENTRO,JUSTICIA,,,,440676.4672,4474660.716,-369928802,40.42046116,
15981,,VIDRIO,V2200CL,,,1,FUENCARRAL-EL PARDO,VALVERDE,,,,441800.55,4482258.23,-368673505,40.48898232,
15985,,VIDRIO,V2200CL,,,1,FUENCARRAL-EL PARDO,VALVERDE,,,,441829.5081,4481909.999,-368636142,40.48584735,
15989,,VIDRIO,V2200CL,,,1,FUENCARRAL-EL PARDO,VALVERDE,,,,441777.41,4482114.79,-368699490,40.48768854,
15991,,VIDRIO,V2200CL,,,1,TETUAN,VALDEACEDERAS,,,,440652.79,4479694.22,-370003735,40.46580348,
15993,,VIDRIO,V2200CL,,,1,FUENCARRAL-EL PARDO,VALVERDE,,,,441013.67,4482525.81,-369604424,40.49133724,
15995,,VIDRIO,V2200CL,,,1,LATINA,ALUCHE,,,,435585.33,4472214.44,-375904839,40.39804566,
15996,,VIDRIO,V2200CL,,,1,FUENCARRAL-EL PARDO,VALVERDE,,,,441979.77,4481735.84,-368457264,40.48428897,
15998,,VIDRIO,V2200CL_vacri,,,1,CENTRO,JUSTICIA,,,,440741.39,4474882.27,-369854343,40.42246165,
15999,,VIDRIO,V2200CL,,,1,LATINA,ALUCHE,,,,435985.08,4470958.5,-375421197,40.38676247,
16000,,VIDRIO,V2200CL,,,1,FUENCARRAL-EL PARDO,VALVERDE,,,,442931.23,4483919.02,-367354387,40.50402189,
16002,,VIDRIO,V2200CL,,,1,LATINA,CUATRO VIENTOS,,,,435230.22,4468731.22,-376287851,40.36663986,
16003,,VIDRIO,V2200CL,,,1,LATINA,ALUCHE,,,,435492.07,4471852.17,-376011055,40.39477498,
16004,,VIDRIO,V2200CL,,,1,FUENCARRAL-EL PARDO,VALVERDE,,,,441882.38,4481956.84,-368574191,40.48627302,
16008,,VIDRIO,V2200CL,,,1,FUENCARRAL-EL PARDO,VALVERDE,,,,441718.45,4482061.71,-368768567,40.48720623,
16011,,VIDRIO,V2200CL,,,1,TETUAN,ALMENARA,,,,440965.88,4479958.65,-369636912,40.46820788,
16012,,VIDRIO,V2200CL,,,1,LATINA,ALUCHE,,,,434963.22,4471762.61,-376633243,40.39392706,
16013,,VIDRIO,V2200CL,,,1,FUENCARRAL-EL PARDO,VALVERDE,,,,443498.9715,4484413.785,-366688778,40.50851779,
16015,,VIDRIO,V2200CL,,,1,LATINA,ALUCHE,,,,434866.95,4471819.44,-376747250,40.39443148,
16016,,VIDRIO,V2200CL_vacri,,,1,CENTRO,UNIVERSIDAD,,,,439618.25,4475262.68,-371181823,40.4258078,
16017,,VIDRIO,V2200CL,,,1,FUENCARRAL-EL PARDO,VALVERDE,,,,442914.19,4484953.77,-367383826,40.51334215,
16019,,VIDRIO,V2200CL,,,1,LATINA,ALUCHE,,,,434963.22,4471762.61,-376633243,40.39392706,
16021,,VIDRIO,V2200CL,,,1,FUENCARRAL-EL PARDO,VALVERDE,,,,443047.77,4483738.52,-367215228,40.50240389,
16023,,VIDRIO,V2200CL,,,1,LATINA,AGUILAS,,,,433967.88,4469949.22,-377787161,40.37751305,
16025,,VIDRIO,V2200CL,,,1,FUENCARRAL-EL PARDO,VALVERDE,,,,442765.24,4483987.29,-367550898,40.50462546,
16027,,VIDRIO,V2200CL,,,1,LATINA,AGUILAS,,,,433877.96,4470053.84,-377894165,40.37844838,
16028,,VIDRIO,V2200CL,,,1,LATINA,CAMPAMENTO,,,,434406.18,4472069.41,-377292711,40.39664714,
16029,,VIDRIO,V2200CL,,,1,FUENCARRAL-EL PARDO,VALVERDE,,,,443301.74,4483750.15,-366915616,40.50252605,
16031,,VIDRIO,V2200CL,,,1,LATINA,AGUILAS,,,,434232.5,4469690.19,-377472788,40.37520054,
16033,,VIDRIO,V2200CL,,,1,FUENCARRAL-EL PARDO,VALVERDE,,,,442765.24,4483987.29,-367550898,40.50462546,
16035,,VIDRIO,V2200CL,,,1,LATINA,AGUILAS,,,,434005.09,4470107.29,-377744968,40.37893996,
16037,,VIDRIO,V2200CL,,,1,FUENCARRAL-EL PARDO,VALVERDE,,,,443410.23,4484771.29,-366796709,40.51173229,
16039,,VIDRIO,V2200CL,,,1,LATINA,CARMENES,,,,436862.8217,4472911.867,-374406510,40.40442621,
16040,,VIDRIO,V2200CL,,,1,TETUAN,ALMENARA,,,,440814.89,4480272.24,-369817934,40.47102208,
16041,,VIDRIO,V2200CL,,,1,FUENCARRAL-EL PARDO,VALVERDE,,,,443453.57,4483776.22,-366736669,40.50277126,
16043,,VIDRIO,V2200CL,,,1,LATINA,AGUILAS,,,,434233.79,4470121.69,-377475721,40.37908776,
16044,,VIDRIO,V2200CL_vacri,,,1,CENTRO,SOL,,,,439987.21,4474521.45,-370739905,40.41915716,
16045,,VIDRIO,V2200CL,,,1,FUENCARRAL-EL PARDO,VALVERDE,,,,441943.83,4482498.77,-368506654,40.49115924,
16047,,VIDRIO,V2200CL,,,1,LATINA,AGUILAS,,,,434475.02,4470500.69,-377195462,40.38252094,
16048,,VIDRIO,V2200CL,,,1,LATINA,LUCERO,,,,436225.82,4472815.37,-375156182,40.40350838,
16049,,VIDRIO,V2200CL,,,1,FUENCARRAL-EL PARDO,VALVERDE,,,,442872.42,4484769.61,-367431466,40.51168029,
16051,,VIDRIO,V2200CL,,,1,LATINA,CAMPAMENTO,,,,434373.47,4471685.54,-377327295,40.39318652,
16053,,VIDRIO,V2200CL,,,1,FUENCARRAL-EL PARDO,VALVERDE,,,,441943.83,4482498.77,-368506654,40.49115924,
16055,,VIDRIO,V2200CL,,,1,LATINA,AGUILAS,,,,434567.69,4470197.76,-377083186,40.37979931,
16057,,VIDRIO,V2200CL,,,1,FUENCARRAL-EL PARDO,VALVERDE,,,,442465.27,4484434.17,-367908972,40.50863038,
16059,,VIDRIO,V2200CL,,,1,FUENCARRAL-EL PARDO,VALVERDE,,,,441474.41,4482386.64,-369059499,40.49011616,
16061,,VIDRIO,V2200CL,,,1,LATINA,AGUILAS,,,,434748.64,4469953.11,-376867529,40.3776096,
16063,,VIDRIO,V2200CL,,,1,LATINA,AGUILAS,,,,434748.64,4469953.11,-376867529,40.3776096,
16065,,VIDRIO,V2200CL,,,1,FUENCARRAL-EL PARDO,VALVERDE,,,,443567.62,4483513.95,-366599738,40.50041639,
16068,,VIDRIO,V2200CL,,,1,LATINA,ALUCHE,,,,435931.65,4471635.79,-375490955,40.39285967,
16069,,VIDRIO,V2200CL,,,1,FUENCARRAL-EL PARDO,VALVERDE,,,,443613.92,4484225.25,-366551433,40.50682721,
16072,,VIDRIO,V2200CL,,,1,LATINA,ALUCHE,,,,435816.26,4470661.78,-375617092,40.3840765,
16073,,VIDRIO,V2200CL,,,1,FUENCARRAL-EL PARDO,VALVERDE,,,,441521.84,4482451.52,-369004135,40.49070397,
16075,,VIDRIO,V2200CL_vacri,,,1,CENTRO,EMBAJADORES,,,,440302.98,4473153.37,-370354882,40.40685556,
16076,,VIDRIO,V2200CL,,,1,LATINA,AGUILAS,,,,434686.86,4470115.83,-376941969,40.3790706,
16077,,VIDRIO,V2200CL,,,1,FUENCARRAL-EL PARDO,VALVERDE,,,,442584.99,4484627.84,-367769430,40.51038332,
16079,,VIDRIO,V2200CL,,,1,LATINA,LUCERO,,,,436592.33,4472589.98,-374722049,40.40150596,
16080,,VIDRIO,V2200CL,,,1,LATINA,ALUCHE,,,,435537.08,4470824.56,-375947623,40.38552134,
16081,,VIDRIO,V2200CL,,,1,FUENCARRAL-EL PARDO,VALVERDE,,,,443613.92,4484225.25,-366551433,40.50682721,
16084,,VIDRIO,V2200CL,,,1,LATINA,ALUCHE,,,,435956.97,4470698.89,-375451703,40.38442163,
16085,,VIDRIO,V2200CL,,,1,FUENCARRAL-EL PARDO,VALVERDE,,,,441408.58,4482093.21,-369134460,40.48746819,
16088,,VIDRIO,V2200CL,,,1,LATINA,ALUCHE,,,,436053.67,4470787.19,-375338673,40.3852245,
16089,,VIDRIO,V2200CL,,,1,FUENCARRAL-EL PARDO,VALVERDE,,,,441266.21,4482181.36,-369303253,40.48825222,
16091,,VIDRIO,V2200CL_vacri,,,1,CENTRO,EMBAJADORES,,,,441114.12,4473479.36,-369402011,40.40985001,
16092,,VIDRIO,V2200CL,,,1,LATINA,ALUCHE,,,,436097.14,4470886.79,-375288462,40.38612508,
16093,,VIDRIO,V2200CL,,,1,FUENCARRAL-EL PARDO,VALVERDE,,,,441370.73,4482448.4,-369182403,40.4906652,
16096,,VIDRIO,V2200CL,,,1,LATINA,LUCERO,,,,436241.2,4472546.08,-375135361,40.40108368,
16097,,VIDRIO,V2200CL,,,1,FUENCARRAL-EL PARDO,VALVERDE,,,,441224.42,4482577.91,-369356238,40.49182153,
16100,,VIDRIO,V2200CL,,,1,LATINA,ALUCHE,,,,436213.26,4471564.74,-375158453,40.39224123,
16101,,VIDRIO,V2200CL,,,1,FUENCARRAL-EL PARDO,VALVERDE,,,,443382.94,4483999.81,-366822021,40.50478063,
16104,,VIDRIO,V2200CL,,,1,LATINA,ALUCHE,,,,436186.68,4471279.57,-375186912,40.38967027,
16105,,VIDRIO,V2200CL,,,1,FUENCARRAL-EL PARDO,VALVERDE,,,,443382.94,4483999.81,-366822021,40.50478063,
16108,,VIDRIO,V2200CL,,,1,LATINA,ALUCHE,,,,436222.49,4471487.84,-375146808,40.39154919,
16109,,VIDRIO,V2200CL,,,1,LATINA,ALUCHE,,,,436173.52,4471694.87,-375206578,40.39341045,
16110,,VIDRIO,V2200CL,,,1,FUENCARRAL-EL PARDO,VALVERDE,,,,443098.4819,4483970.027,-367157462,40.50449287,
16111,,VIDRIO,V2200CL,,,1,LATINA,ALUCHE,,,,436208.22,4471363.14,-375162371,40.39042475,
16113,,VIDRIO,V2200CL,,,1,LATINA,ALUCHE,,,,436160.57,4471147.32,-375216347,40.3884769,
16114,,VIDRIO,V2200CL_vacri,,,1,CENTRO,PALACIO,,,,439696.25,4473707.03,-371075128,40.41179946,
16116,,VIDRIO,V2200CL,,,1,FUENCARRAL-EL PARDO,VALVERDE,,,,441831.3381,4483054.439,-368644487,40.49615704,
16117,,VIDRIO,V2200CL,,,1,LATINA,CARMENES,,,,437870.16,4472983.13,-373220160,40.40514396,
16118,,VIDRIO,V2200CL,,,1,LATINA,ALUCHE,,,,436160.57,4471147.32,-375216347,40.3884769,
16120,,VIDRIO,V2200CL,,,1,FUENCARRAL-EL PARDO,VALVERDE,,,,441768.93,4481649.4,-368705220,40.48349553,
16121,,VIDRIO,V2200CL,,,1,TETUAN,ALMENARA,,,,440902.21,4480187.55,-369714145,40.47026537,
16122,,VIDRIO,V2200CL,,,1,LATINA,ALUCHE,,,,436095.72,4471833.68,-375299635,40.39465495,
16124,,VIDRIO,V2200CL,,,1,FUENCARRAL-EL PARDO,VALVERDE,,,,441791.94,4482435.06,-368685288,40.49057467,
16125,,VIDRIO,V2200CL_vacri,,,1,CENTRO,PALACIO,,,,439914.55,4474515.16,-370825488,40.41909526,
16126,,VIDRIO,V2200CL,,,1,LATINA,ALUCHE,,,,436095.72,4471833.68,-375299635,40.39465495,
16128,,VIDRIO,V2200CL,,,1,FUENCARRAL-EL PARDO,VALVERDE,,,,441703.4,4483338.07,-368798066,40.49870312,
16130,,VIDRIO,V2200CL,,,1,LATINA,ALUCHE,,,,435902.57,4471907.15,-375527948,40.39530195,
16132,,VIDRIO,V2200CL,,,1,FUENCARRAL-EL PARDO,VALVERDE,,,,443098.6174,4483970.083,-367157303,40.50449338,
16134,,VIDRIO,V2200CL,,,1,LATINA,ALUCHE,,,,436097.14,4470886.79,-375288462,40.38612508,
16136,,VIDRIO,V2200CL,,,1,FUENCARRAL-EL PARDO,VALVERDE,,,,443180.35,4484642.51,-367066879,40.51055647,
16138,,VIDRIO,V2200CL,,,1,LATINA,ALUCHE,,,,435866.55,4471804.92,-375569358,40.39437825,
16140,,VIDRIO,V2200CL,,,1,FUENCARRAL-EL PARDO,VALVERDE,,,,443180.35,4484642.51,-367066879,40.51055647,
16141,,VIDRIO,V2200CL,,,1,LATINA,LUCERO,,,,436225.82,4472815.37,-375156182,40.40350838,
16142,,VIDRIO,V2200CL,,,1,LATINA,ALUCHE,,,,435869.27,4471709.08,-375565188,40.39351509,
16144,,VIDRIO,V2200CL,,,1,FUENCARRAL-EL PARDO,VALVERDE,,,,443772.06,4484264.52,-366365144,40.50719171,
16145,,VIDRIO,V2200CL,,,1,TETUAN,VALDEACEDERAS,,,,440248.49,4480052.88,-370483976,40.46900545,
16146,,VIDRIO,V2200CL,,,1,LATINA,ALUCHE,,,,435869.27,4471709.08,-375565188,40.39351509,
16148,,VIDRIO,V2200CL,,,1,FUENCARRAL-EL PARDO,VALVERDE,,,,441679.96,4482451.22,-368817564,40.49071239,
16150,,VIDRIO,V2200CL,,,1,LATINA,ALUCHE,,,,435866.55,4471804.92,-375569358,40.39437825,
16152,,VIDRIO,V2200CL,,,1,FUENCARRAL-EL PARDO,VALVERDE,,,,441546.68,4483231.68,-368982023,40.49773369,
16153,,VIDRIO,V2200CL_vacri,,,1,CENTRO,PALACIO,,,,439957.55,4473892.22,-370768925,40.41348663,
16154,,VIDRIO,V2200CL,,,1,LATINA,ALUCHE,,,,435902.57,4471907.15,-375527948,40.39530195,
16156,,VIDRIO,V2200CL,,,1,FUENCARRAL-EL PARDO,VALVERDE,,,,443610.5596,4484326.382,-366556299,40.50773802,
16158,,VIDRIO,V2200CL,,,1,LATINA,ALUCHE,,,,435859.48,4471573.42,-375575357,40.39229226,
16160,,VIDRIO,V2200CL,,,1,FUENCARRAL-EL PARDO,VALVERDE,,,,443610.3943,4484326.459,-366556495,40.5077387,
16162,,VIDRIO,V2200CL,,,1,FUENCARRAL-EL PARDO,VALVERDE,,,,441360.49,4482308.95,-369193195,40.48940826,
16165,,VIDRIO,V2200CL,,,1,LATINA,ALUCHE,,,,435859.48,4471573.42,-375575357,40.39229226,
16167,,VIDRIO,V2200CL,,,1,FUENCARRAL-EL PARDO,VALVERDE,,,,441481.64,4483153.3,-369058049,40.49702303,
16168,,VIDRIO,V2200CL,,,1,LATINA,AGUILAS,,,,434503.33,4470311.28,-377160166,40.38081689,
16171,,VIDRIO,V2200CL,,,1,FUENCARRAL-EL PARDO,VALVERDE,,,,443539.96,4484058.54,-366637235,40.50532039,
16172,,VIDRIO,V2200CL,,,1,LATINA,AGUILAS,,,,434651.8626,4471192.139,-376994233,40.38876367,
16173,,VIDRIO,V2200CL_vacri,,,1,CENTRO,PALACIO,,,,439696.25,4473707.03,-371075128,40.41179946,
16175,,VIDRIO,V2200CL,,,1,FUENCARRAL-EL PARDO,VALVERDE,,,,443065.64,4483884.72,-367195454,40.50372214,
16176,,VIDRIO,V2200CL,,,1,LATINA,ALUCHE,,,,435061.1387,4471630.061,-376516523,40.39274065,
16179,,VIDRIO,V2200CL,,,1,FUENCARRAL-EL PARDO,VALVERDE,,,,443231.74,4484754.99,-367007233,40.51157326,
16180,,VIDRIO,V2200CL,,,1,LATINA,CAMPAMENTO,,,,430993.48,4470010.64,-381291402,40.37782536,
16181,,VIDRIO,V2200CL,,,1,LATINA,ALUCHE,,,,436470.83,4471264.01,-374851989,40.38955182,
16183,,VIDRIO,V2200CL,,,1,FUENCARRAL-EL PARDO,VALVERDE,,,,442775.12,4484355.98,-367542569,40.50794744,
16184,,VIDRIO,V2200CL,,,1,LATINA,AGUILAS,,,,435002.07,4470675.21,-376576374,40.38413437,
16185,,VIDRIO,V2200CL,,,1,TETUAN,CASTILLEJOS,,,,440889.18,4479155.5,-369719900,40.46096732,
16187,,VIDRIO,V2200CL,,,1,FUENCARRAL-EL PARDO,VALVERDE,,,,441314.24,4483709.87,-369260742,40.502025,
16188,,VIDRIO,V2200CL,,,1,LATINA,LUCERO,,,,436423.8437,4472692.474,-374921607,40.40241643,
16191,,VIDRIO,V2200CL,,,1,FUENCARRAL-EL PARDO,VALVERDE,,,,441667.2,4481908.32,-368827623,40.48582084,
16192,,VIDRIO,V2200CL,,,1,LATINA,AGUILAS,,,,433886.03,4470688.39,-377891243,40.38416529,
16195,,VIDRIO,V2200CL,,,1,FUENCARRAL-EL PARDO,VALVERDE,,,,441860.79,4482601.65,-368605579,40.49208021,
16196,,VIDRIO,V2200CL,,,1,LATINA,LUCERO,,,,435532.2648,4472803.449,-375973330,40.40334758,
16197,,VIDRIO,V2200CL,,,1,LATINA,CAMPAMENTO,,,,434641.23,4471998.27,-377015032,40.39602476,
16199,,VIDRIO,V2200CL,,,1,FUENCARRAL-EL PARDO,VALVERDE,,,,441369.1123,4483105.097,-369190388,40.49658086,
16200,,VIDRIO,V2200CL,,,1,LATINA,LUCERO,,,,436656.91,4473141.86,-374651444,40.40648244,
16201,,VIDRIO,V2200CL_vacri,,,1,CENTRO,EMBAJADORES,,,,441114.12,4473479.36,-369402011,40.40985001,
16203,,VIDRIO,V2200CL,,,1,FUENCARRAL-EL PARDO,VALVERDE,,,,441524.0398,4483382.576,-369010132,40.49909142,
16204,,VIDRIO,V2200CL,,,1,LATINA,AGUILAS,,,,434908.2153,4470041.306,-376680463,40.37841658,
16207,,VIDRIO,V2200CL,,,1,FUENCARRAL-EL PARDO,VALVERDE,,,,443206.9,4483924.59,-367029103,40.50409099,
16208,,VIDRIO,V2200CL,,,1,LATINA,AGUILAS,,,,435120.0556,4469464.507,-376425057,40.37323705,
16209,,VIDRIO,V2200CL,,,1,TETUAN,CASTILLEJOS,,,,440840.66,4478769.03,-369773522,40.45748238,
16211,,VIDRIO,V2200CL,,,1,FUENCARRAL-EL PARDO,VALVERDE,,,,441692.32,4482486.78,-368803307,40.4910336,
16212,,VIDRIO,V2200CL,,,1,LATINA,ALUCHE,,,,435803.3249,4471057.687,-375636319,40.387642,
16215,,VIDRIO,V2200CL,,,1,FUENCARRAL-EL PARDO,VALVERDE,,,,443930.84,4484013.78,-366175530,40.50494369,
16216,,VIDRIO,V2200CL,,,1,LATINA,AGUILAS,,,,434729.35,4470943.29,-376900394,40.38652802,
16219,,VIDRIO,V2200CL,,,1,LATINA,ALUCHE,,,,435689.3381,4471183.755,-375771880,40.38876888,
16220,,VIDRIO,V2200CL,,,1,FUENCARRAL-EL PARDO,VALVERDE,,,,441304.22,4482382.04,-369260265,40.49006271,
16222,,VIDRIO,V2200CL,,,1,LATINA,ALUCHE,,,,435009.5772,4471247.897,-376573372,40.38929394,
16224,,VIDRIO,V2200CL,,,1,FUENCARRAL-EL PARDO,VALVERDE,,,,442767.57,4483480.54,-367543569,40.50006062,
16226,,VIDRIO,V2200CL,,,1,LATINA,ALUCHE,,,,435120.1818,4472181.404,-376452577,40.39771196,
16227,,VIDRIO,V2200CL,,,1,TETUAN,VALDEACEDERAS,,,,440386.06,4479631.84,-370317751,40.46522244,
16228,,VIDRIO,V2200CL,,,1,FUENCARRAL-EL PARDO,VALVERDE,,,,441432.62,4482598.97,-369110770,40.49202596,
16230,,VIDRIO,V2200CL,,,1,TETUAN,BELLAS VISTAS,,,,439936.77,4477768.68,-370830046,40.44840599,
16232,,VIDRIO,V2200CL,,,1,FUENCARRAL-EL PARDO,VALVERDE,,,,442682.24,4484768.07,-367655919,40.51165329,
16234,,VIDRIO,V2200CL,,,1,TETUAN,BELLAS VISTAS,,,,439676.16,4478381.84,-371143175,40.45391071,
16235,,VIDRIO,V2200CL,,,1,LATINA,CAMPAMENTO,,,,432183.13,4470351.48,-379893722,40.38099342,
16236,,VIDRIO,V2200CL,,,1,FUENCARRAL-EL PARDO,VALVERDE,,,,443206.9,4483924.59,-367029103,40.50409099,
16238,,VIDRIO,V2200CL,,,1,TETUAN,BELLAS VISTAS,,,,440334.95,4477938.8,-370362121,40.44996717,
16240,,VIDRIO,V2200CL,,,1,FUENCARRAL-EL PARDO,VALVERDE,,,,443445.46,4483115.93,-366740345,40.49682254,
16242,,VIDRIO,V2200CL,,,1,TETUAN,BELLAS VISTAS,,,,440133.01,4478539.41,-370605911,40.45536319,
16244,,VIDRIO,V2200CL,,,1,FUENCARRAL-EL PARDO,VALVERDE,,,,441424.49,4483245.63,-369126341,40.49785074,
16246,,VIDRIO,V2200CL,,,1,TETUAN,BELLAS VISTAS,,,,440032.67,4477859.07,-370717816,40.44922718,
16247,,VIDRIO,V2200CL_vacri,,,1,CENTRO,EMBAJADORES,,,,440819.91,4473263.89,-369746734,40.40788808,
16248,,VIDRIO,V2200CL,,,1,FUENCARRAL-EL PARDO,VALVERDE,,,,442502.73,4484236.73,-367862967,40.50685436,
16250,,VIDRIO,V2200CL,,,1,TETUAN,BELLAS VISTAS,,,,440057.98,4477657.19,-370686066,40.44741039,
16252,,VIDRIO,V2200CL,,,1,FUENCARRAL-EL PARDO,VALVERDE,,,,443366.06,4484134.36,-366843146,40.50599156,
16254,,VIDRIO,V2200CL,,,1,TETUAN,BELLAS VISTAS,,,,440115.4,4478515.83,-370626456,40.45514951,
16255,,VIDRIO,V2200CL,,,1,LATINA,AGUILAS,,,,434661.95,4470450.18,-376974739,40.38208061,
16256,,VIDRIO,V2200CL,,,1,FUENCARRAL-EL PARDO,VALVERDE,,,,443029.88,4483609.85,-367235184,40.50124355,
16258,,VIDRIO,V2200CL,,,1,TETUAN,BELLAS VISTAS,,,,440214.23,4478633.17,-370511012,40.45621367,
16260,,VIDRIO,V2200CL,,,1,FUENCARRAL-EL PARDO,VALVERDE,,,,443062.048,4483471.643,-367195980,40.50000073,
16263,,VIDRIO,V2200CL_vacri,,,1,CENTRO,EMBAJADORES,,,,440579.66,4473313.68,-370030326,40.4083195,
16264,,VIDRIO,V2200CL,,,1,FUENCARRAL-EL PARDO,VALVERDE,,,,442466.14,4484021.5,-367904196,40.50491295,
16266,,VIDRIO,V2200CL,,,1,FUENCARRAL-EL PARDO,VALVERDE,,,,441612.7,4482251.26,-368895083,40.48890634,
16270,,VIDRIO,V2200CL,,,1,FUENCARRAL-EL PARDO,VALVERDE,,,,443167.5,4484427.96,-367080119,40.50862284,
16274,,VIDRIO,V2200CL,,,1,FUENCARRAL-EL PARDO,VALVERDE,,,,440888.46,4482926.76,-369755903,40.49494024,
16277,,VIDRIO,V2200CL,,,1,TETUAN,CASTILLEJOS,,,,441058.04,4479452.62,-369523507,40.46365589,
16278,,VIDRIO,V2200CL,,,1,FUENCARRAL-EL PARDO,VALVERDE,,,,441451.39,4483374.08,-369095785,40.49900977,
16280,,VIDRIO,V2200CL,,,1,TETUAN,CUATRO CAMINOS,,,,440776.88,4478694.6,-369848046,40.45680734,
16282,,VIDRIO,V2200CL,,,1,FUENCARRAL-EL PARDO,VALVERDE,,,,443167.5,4484427.96,-367080119,40.50862284,
16286,,VIDRIO,V2200CL,,,1,FUENCARRAL-EL PARDO,VALVERDE,,,,443275.88,4484635.53,-366954065,40.51050013,
16290,,VIDRIO,V2200CL,,,1,FUENCARRAL-EL PARDO,VALVERDE,,,,442735.6,4483763.82,-367583857,40.50261031,
16292,,VIDRIO,V2200CL_vacri,,,1,CENTRO,EMBAJADORES,,,,440274.27,4473217.11,-370389314,40.4074277,
16294,,VIDRIO,V2200CL,,,1,FUENCARRAL-EL PARDO,VALVERDE,,,,442904.08,4484428.29,-367391020,40.50860773,
16296,,VIDRIO,V2200CL,,,1,LATINA,AGUILAS,,,,433799.02,4470050.91,-377987121,40.37841572,
16297,,VIDRIO,V2200CL_vacri,,,1,CENTRO,JUSTICIA,,,,441174.89,4475317.52,-369347394,40.42641335,
16298,,VIDRIO,V2200CL,,,1,FUENCARRAL-EL PARDO,VALVERDE,,,,441266.59,4482251.37,-369303454,40.48888292,
16302,,VIDRIO,V2200CL,,,1,FUENCARRAL-EL PARDO,VALVERDE,,,,441363.37,4483346.81,-369199402,40.49875789,
16304,,VIDRIO,V2200CL,,,1,TETUAN,ALMENARA,,,,441556.14,4480161.65,-368942557,40.47007832,
16306,,VIDRIO,V2200CL,,,1,FUENCARRAL-EL PARDO,VALVERDE,,,,441911.8,4483150.11,-368550418,40.49702452,
16308,,VIDRIO,V2200CL,,,1,LATINA,CAMPAMENTO,,,,432314.28,4470189.36,-379737509,40.37954365,
16310,,VIDRIO,V2200CL,,,1,FUENCARRAL-EL PARDO,VALVERDE,,,,442654.77,4483989.49,-367681290,40.50463765,
16313,,VIDRIO,V2200CL_vacri,,,1,CENTRO,PALACIO,,,,439309.07,4473738.83,-371531736,40.41205779,
16314,,VIDRIO,V2200CL,,,1,FUENCARRAL-EL PARDO,VALVERDE,,,,441643.21,4483204.23,-368867861,40.49749321,
16316,,VIDRIO,V2200CL,,,1,FUENCARRAL-EL PARDO,VALVERDE,,,,442654.77,4483989.49,-367681290,40.50463765,
16319,,VIDRIO,V2200CL_vacri,,,1,CENTRO,JUSTICIA,,,,440883.06,4474913.8,-369687647,40.42275576,
16322,,VIDRIO,V2200CL,,,1,FUENCARRAL-EL PARDO,VALVERDE,,,,443332.89,4484662.7,-366887021,40.51074879,
16326,,VIDRIO,V2200CL,,,1,FUENCARRAL-EL PARDO,VALVERDE,,,,441132.52,4483102.21,-369469545,40.4965381,
16327,,VIDRIO,V2200CL,,,1,TETUAN,ALMENARA,,,,441445.39,4480052.93,-369072189,40.46909113,
16328,,VIDRIO,V2200CL_vacri,,,1,CENTRO,PALACIO,,,,439909.24,4473896.22,-370825899,40.41351917,
16330,,VIDRIO,V2200CL,,,1,FUENCARRAL-EL PARDO,VALVERDE,,,,442956.4,4483395.17,-367319965,40.49930458,
16332,,VIDRIO,V2200CL,,,1,LATINA,CAMPAMENTO,,,,433984.55,4472182.39,-377790668,40.39763159,
16334,,VIDRIO,V2200CL,,,1,FUENCARRAL-EL PARDO,VALVERDE,,,,441691.06,4482160.23,-368801789,40.48809182,
16338,,VIDRIO,V2200CL,,,1,FUENCARRAL-EL PARDO,VALVERDE,,,,441862.2203,4481672.687,-368595370,40.48371184,
16342,,VIDRIO,V2200CL,,,1,FUENCARRAL-EL PARDO,VALVERDE,,,,442675.19,4483232.88,-367650344,40.49782322,
16343,,VIDRIO,V2200CL,,,1,TETUAN,VALDEACEDERAS,,,,440562.96,4479473.24,-370107618,40.46380638,
16346,,VIDRIO,V2200CL_vacri,,,1,CENTRO,CORTES,,,,440486.71,4473966.25,-370145969,40.41419153,
16347,,VIDRIO,V2200CL,,,1,FUENCARRAL-EL PARDO,VALVERDE,,,,443474.16,4484655.13,-366720216,40.51069023,
16351,,VIDRIO,V2200CL,,,1,FUENCARRAL-EL PARDO,VALVERDE,,,,443474.16,4484655.13,-366720216,40.51069023,
16355,,VIDRIO,V2200CL,,,1,FUENCARRAL-EL PARDO,VALVERDE,,,,442579.66,4483927.04,-367769366,40.50406988,
16356,,VIDRIO,V2200CL,,,1,LATINA,AGUILAS,,,,434392.74,4469775.75,-377284925,40.37598392,
16359,,VIDRIO,V2200CL,,,1,FUENCARRAL-EL PARDO,MIRASIERRA,,,,440248.11,4483873.82,-370520442,40.50342582,
16363,,VIDRIO,V2200CL,,,1,FUENCARRAL-EL PARDO,MIRASIERRA,,,,440573.68,4482609.0,-370124360,40.49205526,
16364,,VIDRIO,V2200CL_vacri,,,1,CENTRO,CORTES,,,,440466.47,4473912.7,-370169322,40.41370768,
16366,,VIDRIO,V2200CL,,,1,FUENCARRAL-EL PARDO,MIRASIERRA,,,,440732.8375,4482690.431,-369937326,40.4928002,
16370,,VIDRIO,V2200CL,,,1,TETUAN,BERRUGUETE,,,,439736.13,4478872.19,-371077109,40.45833232,
16371,,VIDRIO,V2200CL,,,1,FUENCARRAL-EL PARDO,MIRASIERRA,,,,440629.75,4483735.27,-370068756,40.50220511,
16373,,VIDRIO,V2200CL_vacri,,,1,CENTRO,PALACIO,,,,439396.9,4473820.23,-371429000,40.41279747,
16375,,VIDRIO,V2200CL,,,1,FUENCARRAL-EL PARDO,MIRASIERRA,,,,438496.5542,4482052.633,-372569831,40.48689202,
16378,,VIDRIO,V2200CL,,,1,LATINA,CAMPAMENTO,,,,432553.54,4470029.61,-379453983,40.37812397,
16379,,VIDRIO,V2200CL,,,1,FUENCARRAL-EL PARDO,MIRASIERRA,,,,438127.04,4482572.29,-373010872,40.4915458,
16382,,VIDRIO,V2200CL,,,1,TETUAN,BELLAS VISTAS,,,,440022.97,4478016.5,-370730741,40.45064467,
16383,,VIDRIO,V2200CL,,,1,FUENCARRAL-EL PARDO,MIRASIERRA,,,,439008.57,4482130.54,-371966483,40.48763161,
16387,,VIDRIO,V2200CL,,,1,FUENCARRAL-EL PARDO,EL GOLOSO,,,,440911.8,4483928.48,-369737706,40.50396575,
16389,,VIDRIO,V2200CL_vacri,,,1,CENTRO,PALACIO,,,,439380.4172,4473716.463,-371447437,40.41186149,
16391,,VIDRIO,V2200CL,,,1,FUENCARRAL-EL PARDO,EL GOLOSO,,,,440032.44,4484000.96,-370776166,40.50455558,
16394,,VIDRIO,V2200CL,,,1,LATINA,AGUILAS,,,,435059.38,4470976.67,-376511933,40.38685451,
16395,,VIDRIO,V2200CL,,,1,FUENCARRAL-EL PARDO,EL GOLOSO,,,,440911.8,4483928.48,-369737706,40.50396575,
16399,,VIDRIO,V2200CL,,,1,FUENCARRAL-EL PARDO,MIRASIERRA,,,,440114.98,4482647.57,-370665962,40.49236975,
16402,,VIDRIO,V2200CL,,,1,TETUAN,CASTILLEJOS,,,,440978.26,4478995.26,-369613349,40.45953014,
16403,,VIDRIO,V2200CL,,,1,FUENCARRAL-EL PARDO,EL GOLOSO,,,,441347.53,4484876.01,-369232257,40.51253235,
16405,,VIDRIO,V2200CL,,,1,TETUAN,ALMENARA,,,,441170.72,4479937.59,-369395104,40.46803269,
16406,,VIDRIO,V2200CL_vacri,,,1,CENTRO,SOL,,,,440360.31,4474604.88,-370300929,40.41993556,
16407,,VIDRIO,V2200CL,,,1,FUENCARRAL-EL PARDO,EL GOLOSO,,,,440278.98,4484232.59,-370487394,40.50665996,
16411,,VIDRIO,V2200CL,,,1,FUENCARRAL-EL PARDO,EL GOLOSO,,,,441136.87,4484386.93,-369476352,40.50811163,
16416,,VIDRIO,V2200CL,,,1,FUENCARRAL-EL PARDO,EL GOLOSO,,,,441337.09,4488252.54,-369275893,40.54294847,
16417,,VIDRIO,V2200CL,,,1,TETUAN,BERRUGUETE,,,,439829.52,4479052.91,-370968683,40.45996709,
16419,,VIDRIO,V2200CL,,,1,LATINA,AGUILAS,,,,434236.2,4470198.42,-377473674,40.37977916,
16421,,VIDRIO,V2200CL,,,1,FUENCARRAL-EL PARDO,EL GOLOSO,,,,441445.36,4484665.59,-369114842,40.51064372,
16425,,VIDRIO,V2200CL,,,1,FUENCARRAL-EL PARDO,EL GOLOSO,,,,440968.37,4484212.55,-369673593,40.50652878,
16428,,VIDRIO,V2200CL,,,1,FUENCARRAL-EL PARDO,EL GOLOSO,,,,441274.3183,4484164.658,-369312071,40.50611906,
16429,,VIDRIO,V2200CL_vacri,,,1,CENTRO,UNIVERSIDAD,,,,439382.8579,4475674.963,-371463228,40.42950471,
16431,,VIDRIO,V2200CL,,,1,FUENCARRAL-EL PARDO,EL GOLOSO,,,,440935.68,4484064.84,-369710796,40.50519583,
16434,,VIDRIO,V2200CL,,,1,FUENCARRAL-EL PARDO,EL GOLOSO,,,,439941.02,4484079.26,-370884798,40.50525432,
16437,,VIDRIO,V2200CL,,,1,FUENCARRAL-EL PARDO,EL GOLOSO,,,,441215.72,4484512.13,-369384454,40.50924506,
16438,,VIDRIO,V2200CL,,,1,TETUAN,ALMENARA,,,,441556.14,4480161.65,-368942557,40.47007832,
16440,,VIDRIO,V2200CL,,,1,FUENCARRAL-EL PARDO,EL GOLOSO,,,,441250.4355,4484800.77,-369346160,40.51184769,
16443,,VIDRIO,V2200CL,,,1,FUENCARRAL-EL PARDO,EL GOLOSO,,,,441131.71,4484285.93,-369481503,40.50720142,
16446,,VIDRIO,V2200CL,,,1,FUENCARRAL-EL PARDO,EL GOLOSO,,,,441233.04,4484325.09,-369362276,40.50756137,
16447,,VIDRIO,V2200CL_vacri,,,1,CENTRO,PALACIO,,,,439728.53,4473686.57,-371036891,40.41161748,
16449,,VIDRIO,V2200CL,,,1,FUENCARRAL-EL PARDO,EL GOLOSO,,,,441078.65,4484131.06,-369542683,40.50580253,
16452,,VIDRIO,V2200CL,,,1,FUENCARRAL-EL PARDO,EL GOLOSO,,,,441434.98,4488308.93,-369160824,40.54346337,
16455,,VIDRIO,V2200CL,,,1,FUENCARRAL-EL PARDO,EL GOLOSO,,,,441540.8501,4484851.238,-369003853,40.51232285,
16456,,VIDRIO,V2200CL,,,1,TETUAN,CASTILLEJOS,,,,441149.35,4479153.78,-369413041,40.46097029,
16458,,VIDRIO,V2200CL,,,1,FUENCARRAL-EL PARDO,EL GOLOSO,,,,441155.02,4484206.09,-369453250,40.50648384,
16461,,VIDRIO,V2200CL,,,1,FUENCARRAL-EL PARDO,EL GOLOSO,,,,441068.62,4483893.51,-369552310,40.50366188,
16465,,VIDRIO,V2200CL,,,1,FUENCARRAL-EL PARDO,EL GOLOSO,,,,441034.19,4484230.82,-369596083,40.50669804,
16466,,VIDRIO,V2200CL_vacri,,,1,CENTRO,PALACIO,,,,439728.53,4473686.57,-371036891,40.41161748,
16468,,VIDRIO,V2200CL,,,1,FUENCARRAL-EL PARDO,EL GOLOSO,,,,440977.34,4484550.39,-369666156,40.50957279,
16471,,VIDRIO,V2200CL,,,1,FUENCARRAL-EL PARDO,EL GOLOSO,,,,441247.6167,4488546.443,-369384278,40.54558969,
16474,,VIDRIO,V2200CL,,,1,FUENCARRAL-EL PARDO,EL GOLOSO,,,,440889.86,4484449.39,-369768461,40.50865672,
16475,,VIDRIO,V2200CL,,,1,TETUAN,CASTILLEJOS,,,,441149.35,4479153.78,-369413041,40.46097029,
16477,,VIDRIO,V2200CL,,,1,FUENCARRAL-EL PARDO,EL GOLOSO,,,,441150.73,4484789.2,-369463733,40.5117364,
16480,,VIDRIO,V2200CL,,,1,FUENCARRAL-EL PARDO,EL GOLOSO,,,,440908.46,4488858.14,-369787696,40.54837343,
16483,,VIDRIO,V2200CL,,,1,FUENCARRAL-EL PARDO,EL GOLOSO,,,,441614.8811,4488490.003,-368950062,40.54510723,
16484,,VIDRIO,V2200CL_vacri,,,1,CENTRO,JUSTICIA,,,,441018.25,4474883.97,-369528018,40.42249663,
16486,,VIDRIO,V2200CL,,,1,FUENCARRAL-EL PARDO,EL GOLOSO,,,,441015.58,4484640.52,-369621863,40.51038744,
16489,,VIDRIO,V2200CL,,,1,FUENCARRAL-EL PARDO,EL GOLOSO,,,,440803.57,4484126.67,-369867286,40.5057434,
16490,,VIDRIO,V2200CL,,,1,TETUAN,VALDEACEDERAS,,,,440728.92,4479919.59,-369916047,40.46783913,
16492,,VIDRIO,V2200CL,,,1,FUENCARRAL-EL PARDO,EL GOLOSO,,,,440286.6,4483888.58,-370475158,40.50356156,
16495,,VIDRIO,V2200CL,,,1,FUENCARRAL-EL PARDO,EL GOLOSO,,,,440803.57,4484126.67,-369867286,40.5057434,
16498,,VIDRIO,V2200CL,,,1,FUENCARRAL-EL PARDO,EL GOLOSO,,,,441660.6,4488185.32,-368893261,40.54236577,
16499,,VIDRIO,V2200CL,,,1,TETUAN,BELLAS VISTAS,,,,440274.72,4478354.96,-370437058,40.45371179,
16501,,VIDRIO,V2200CL,,,1,FUENCARRAL-EL PARDO,EL GOLOSO,,,,441823.16,4484833.27,-368670478,40.51218083,
16504,,VIDRIO,V2200CL,,,1,FUENCARRAL-EL PARDO,EL GOLOSO,,,,441282.47,4484607.63,-369306558,40.51011009,
16505,,VIDRIO,V2200CL_vacri,,,1,CENTRO,PALACIO,,,,439867.44,4474201.06,-370878045,40.41626229,
16507,,VIDRIO,V2200CL,,,1,FUENCARRAL-EL PARDO,EL GOLOSO,,,,440232.02,4484106.81,-370541629,40.50552351,
16510,,VIDRIO,V2200CL,,,1,FUENCARRAL-EL PARDO,PILAR,,,,439720.1,4480697.83,-371113358,40.47477722,
16514,,VIDRIO,V2200CL,,,1,FUENCARRAL-EL PARDO,PILAR,,,,439720.1,4480697.83,-371113358,40.47477722,
16517,,VIDRIO,V2200CL,,,1,FUENCARRAL-EL PARDO,EL GOLOSO,,,,441286.34,4488611.41,-369339154,40.54617768,
16520,,VIDRIO,V2200CL,,,1,FUENCARRAL-EL PARDO,FUENTELAREINA,,,,437390.9016,4481297.754,-373866868,40.4800092,
16521,,VIDRIO,V2200CL,,,1,TETUAN,ALMENARA,,,,441463.61,4480226.66,-369052301,40.47065744,
16523,,VIDRIO,V2200CL,,,1,FUENCARRAL-EL PARDO,LA PAZ,,,,440803.76,4481024.71,-369838085,40.47779983,
16526,,VIDRIO,V2200CL,,,1,FUENCARRAL-EL PARDO,PEÑAGRANDE,,,,439045.42,4480434.83,-371906704,40.47235878,
16527,,VIDRIO,V2200CL_vacri,,,1,CENTRO,SOL,,,,439880.42,4474224.76,-370862970,40.41647673,
16529,,VIDRIO,V2200CL,,,1,FUENCARRAL-EL PARDO,EL GOLOSO,,,,441557.58,4489079.67,-369023181,40.55041508,
16532,,VIDRIO,V2200CL,,,1,FUENCARRAL-EL PARDO,PEÑAGRANDE,,,,438511.36,4480793.58,-372540153,40.47555116,
16535,,VIDRIO,V2200CL,,,1,FUENCARRAL-EL PARDO,LA PAZ,,,,440803.76,4481024.71,-369838085,40.47779983,
16538,,VIDRIO,V2200CL,,,1,FUENCARRAL-EL PARDO,EL GOLOSO,,,,441710.27,4488906.26,-368841259,40.54886371,
16539,,VIDRIO,V2200CL,,,1,TETUAN,BELLAS VISTAS,,,,439744.37,4478613.71,-371064937,40.45600443,
16541,,VIDRIO,V2200CL,,,1,FUENCARRAL-EL PARDO,PEÑAGRANDE,,,,438332.36,4481033.67,-372753643,40.4777007,
16544,,VIDRIO,V2200CL,,,1,FUENCARRAL-EL PARDO,EL GOLOSO,,,,441500.79,4488194.36,-369082052,40.54243594,
16545,,VIDRIO,V2200CL_vacri,,,1,CENTRO,CORTES,,,,440986.79,4473876.07,-369555749,40.41341475,
16547,,VIDRIO,V2200CL,,,1,FUENCARRAL-EL PARDO,PEÑAGRANDE,,,,439184.68,4481282.35,-371750562,40.48000375,
16550,,VIDRIO,V2200CL,,,1,FUENCARRAL-EL PARDO,PEÑAGRANDE,,,,438987.63,4481162.56,-371981874,40.47891018,
16553,,VIDRIO,V2200CL,,,1,FUENCARRAL-EL PARDO,EL GOLOSO,,,,441388.423,4488529.746,-369217848,40.54544926,
16556,,VIDRIO,V2200CL,,,1,FUENCARRAL-EL PARDO,PILAR,,,,439618.7,4481514.34,-371240747,40.48212527,
16557,,VIDRIO,V2200CL,,,1,TETUAN,BERRUGUETE,,,,440019.69,4478991.53,-370743821,40.4594279,
16559,,VIDRIO,V2200CL,,,1,FUENCARRAL-EL PARDO,LA PAZ,,,,441852.25,4481245.27,-368603213,40.4798608,
16562,,VIDRIO,V2200CL,,,1,FUENCARRAL-EL PARDO,EL GOLOSO,,,,441537.25,4488721.45,-369043875,40.5471867,
16564,,VIDRIO,V2200CL_vacri,,,1,CENTRO,JUSTICIA,,,,441062.99,4475052.45,-369476843,40.42401755,
16565,,VIDRIO,V2200CL,,,1,FUENCARRAL-EL PARDO,LA PAZ,,,,440723.66,4481024.41,-369932576,40.47779141,
16568,,VIDRIO,V2200CL,,,1,FUENCARRAL-EL PARDO,EL PARDO,,,,433799.6,4487136.99,-378164604,40.53233151,
16571,,VIDRIO,V2200CL,,,1,FUENCARRAL-EL PARDO,VALVERDE,,,,441370.14,4482385.23,-369182515,40.4900961,
16574,,VIDRIO,V2200CL,,,1,FUENCARRAL-EL PARDO,PEÑAGRANDE,,,,437928.82,4480738.38,-373226801,40.47501056,
16576,,VIDRIO,V2200CL,,,1,TETUAN,BERRUGUETE,,,,440316.58,4478706.87,-370391003,40.45688495,
16577,,VIDRIO,V2200CL,,,1,FUENCARRAL-EL PARDO,LA PAZ,,,,440894.0,4481031.2,-369731691,40.47786472,
16580,,VIDRIO,V2200CL,,,1,FUENCARRAL-EL PARDO,PEÑAGRANDE,,,,439451.87,4481598.84,-371438374,40.48287432,
16582,,VIDRIO,V2200CL_vacri,,,1,CENTRO,UNIVERSIDAD,,,,440543.87,4475194.98,-370090088,40.42526459,
16583,,VIDRIO,V2200CL,,,1,FUENCARRAL-EL PARDO,LA PAZ,,,,440570.22,4480721.11,-370110745,40.4750482,
16586,,VIDRIO,V2200CL,,,1,FUENCARRAL-EL PARDO,EL GOLOSO,,,,440714.9893,4488573.102,-370013496,40.5457919,
16589,,VIDRIO,V2200CL,,,1,FUENCARRAL-EL PARDO,PEÑAGRANDE,,,,438882.31,4480438.93,-372099146,40.47238373,
16592,,VIDRIO,V2200CL,,,1,FUENCARRAL-EL PARDO,PEÑAGRANDE,,,,438524.23,4481303.08,-372529910,40.48014186,
16595,,VIDRIO,V2200CL,,,1,FUENCARRAL-EL PARDO,PILAR,,,,440038.64,4480837.76,-370738920,40.47606082,
16598,,VIDRIO,V2200CL,,,1,FUENCARRAL-EL PARDO,LA PAZ,,,,440415.34,4480840.81,-370294572,40.47611541,
16600,,VIDRIO,V2200CL_vacri,,,1,CENTRO,CORTES,,,,440986.79,4473876.07,-369555749,40.41341475,
16601,,VIDRIO,V2200CL,,,1,FUENCARRAL-EL PARDO,PEÑAGRANDE,,,,438693.9288,4480648.652,-372323386,40.4742591,
16603,,VIDRIO,V2200CL,,,1,TETUAN,CASTILLEJOS,,,,441134.82,4479024.03,-369428974,40.45980042,
16604,,VIDRIO,V2200CL,,,1,FUENCARRAL-EL PARDO,PEÑAGRANDE,,,,439115.37,4481089.13,-371830473,40.47825808,
16607,,VIDRIO,V2200CL,,,1,FUENCARRAL-EL PARDO,MIRASIERRA,,,,440154.2151,4482413.524,-370617456,40.49026421,
16609,,VIDRIO,V2200CL_vacri,,,1,CENTRO,JUSTICIA,,,,441313.63,4474969.36,-369180634,40.42328675,
16611,,VIDRIO,V2200CL,,,1,FUENCARRAL-EL PARDO,LA PAZ,,,,440867.57,4481118.69,-369763686,40.47865098,
16614,,VIDRIO,V2200CL,,,1,FUENCARRAL-EL PARDO,LA PAZ,,,,440463.38,4481631.47,-370245325,40.48324141,
16617,,VIDRIO,V2200CL,,,1,FUENCARRAL-EL PARDO,LA PAZ,,,,440994.97,4480933.98,-369611673,40.4769961,
16618,,VIDRIO,V2200CL,,,1,TETUAN,CASTILLEJOS,,,,441117.3,4478852.12,-369448042,40.45825054,
16620,,VIDRIO,V2200CL,,,1,FUENCARRAL-EL PARDO,PEÑAGRANDE,,,,438188.3,4480769.52,-372921013,40.47531044,
16623,,VIDRIO,V2200CL,,,1,FUENCARRAL-EL PARDO,LA PAZ,,,,440802.14,4480810.17,-369837994,40.47586705,
16626,,VIDRIO,V2200CL,,,1,FUENCARRAL-EL PARDO,EL GOLOSO,,,,441689.96,4484849.9,-368827847,40.51232129,
16627,,VIDRIO,V2200CL_vacri,,,1,CHAMBERI,ALMAGRO,,,,441505.46,4475791.75,-368962084,40.43070875,
16629,,VIDRIO,V2200CL,,,1,FUENCARRAL-EL PARDO,PEÑAGRANDE,,,,438645.13,4480619.65,-372380669,40.47399423,
16632,,VIDRIO,V2200CL,,,1,FUENCARRAL-EL PARDO,PEÑAGRANDE,,,,439068.87,4480544.77,-371880099,40.47335088,
16635,,VIDRIO,V2200CL,,,1,FUENCARRAL-EL PARDO,VALVERDE,,,,441840.21,4482908.88,-368632682,40.49484641,
16636,,VIDRIO,V2200CL,,,1,TETUAN,BERRUGUETE,,,,440451.68,4478743.61,-370232021,40.45722561,
16638,,VIDRIO,V2200CL,,,1,FUENCARRAL-EL PARDO,PEÑAGRANDE,,,,438551.58,4481794.19,-372502404,40.48456796,
16641,,VIDRIO,V2200CL,,,1,FUENCARRAL-EL PARDO,MIRASIERRA,,,,439133.55,4482288.21,-371820539,40.48906113,
16644,,VIDRIO,V2200CL,,,1,FUENCARRAL-EL PARDO,PEÑAGRANDE,,,,438404.84,4480945.47,-372667283,40.47691154,
16645,,VIDRIO,V2200CL_vacri,,,1,CHAMBERI,ALMAGRO,,,,441277.95,4475342.46,-369226138,40.4266453,
16647,,VIDRIO,V2200CL,,,1,FUENCARRAL-EL PARDO,MIRASIERRA,,,,439934.33,4482828.1,-370880829,40.49398297,
16650,,VIDRIO,V2200CL,,,1,FUENCARRAL-EL PARDO,VALVERDE,,,,442989.33,4485146.6,-367296874,40.5150844,
16653,,VIDRIO,V2200CL,,,1,FUENCARRAL-EL PARDO,LA PAZ,,,,440751.27,4480942.68,-369899241,40.47705713,
16654,,VIDRIO,V2200CL,,,1,TETUAN,CUATRO CAMINOS,,,,441071.33,4478229.27,-369496475,40.45263638,
16656,,VIDRIO,V2200CL,,,1,FUENCARRAL-EL PARDO,PEÑAGRANDE,,,,437959.8855,4480991.7,-373192633,40.47729487,
16660,,VIDRIO,V2200CL,,,1,FUENCARRAL-EL PARDO,LA PAZ,,,,440729.94,4481263.76,-369927404,40.47994802,
16663,,VIDRIO,V2200CL,,,1,FUENCARRAL-EL PARDO,PEÑAGRANDE,,,,438334.94,4481805.6,-372758107,40.48465468,
16664,,VIDRIO,V2200CL_vacri,,,1,CENTRO,PALACIO,,,,439923.36,4474677.06,-370816633,40.42055436,
16666,,VIDRIO,V2200CL,,,1,FUENCARRAL-EL PARDO,LA PAZ,,,,440408.22,4481772.83,-370311731,40.48451088,
16669,,VIDRIO,V2200CL,,,1,FUENCARRAL-EL PARDO,PEÑAGRANDE,,,,438243.74,4481616.39,-372863862,40.48294344,
16672,,VIDRIO,V2200CL,,,1,FUENCARRAL-EL PARDO,PEÑAGRANDE,,,,438400.42,4481687.89,-372679710,40.48359917,
16673,,VIDRIO,V2200CL,,,1,TETUAN,CUATRO CAMINOS,,,,441071.33,4478229.27,-369496475,40.45263638,
16675,,VIDRIO,V2200CL,,,1,FUENCARRAL-EL PARDO,PEÑAGRANDE,,,,438602.1001,4481371.791,-372438710,40.48076659,
16678,,VIDRIO,V2200CL,,,1,FUENCARRAL-EL PARDO,LA PAZ,,,,440408.22,4481772.83,-370311731,40.48451088,
16681,,VIDRIO,V2200CL,,,1,FUENCARRAL-EL PARDO,MIRASIERRA,,,,440164.07,4483253.02,-370613756,40.49782739,
16682,,VIDRIO,V2200CL_vacri,,,1,CENTRO,SOL,,,,440237.03,4474548.58,-370445707,40.41941954,
16684,,VIDRIO,V2200CL,,,1,FUENCARRAL-EL PARDO,PEÑAGRANDE,,,,438535.38,4481499.95,-372518664,40.48191615,
16685,,VIDRIO,V2200CL,,,1,TETUAN,BELLAS VISTAS,,,,440004.53,4478390.0,-370756015,40.45400798,
16687,,VIDRIO,V2200CL,,,1,FUENCARRAL-EL PARDO,VALVERDE,,,,440962.92,4482767.01,-369666553,40.49350645,
16690,,VIDRIO,V2200CL,,,1,FUENCARRAL-EL PARDO,VALVERDE,,,,442598.09,4484486.32,-367752686,40.50910937,
16693,,VIDRIO,V2200CL,,,1,FUENCARRAL-EL PARDO,VALVERDE,,,,442977.75,4484654.68,-367306111,40.5106522,
16696,,VIDRIO,V2200CL,,,1,FUENCARRAL-EL PARDO,VALVERDE,,,,443354.11,4484840.46,-366863566,40.51235157,
16697,,VIDRIO,V2200CL,,,1,TETUAN,CASTILLEJOS,,,,441046.26,4478651.28,-369529958,40.45643625,
16699,,VIDRIO,V2200CL,,,1,FUENCARRAL-EL PARDO,VALVERDE,,,,442101.24,4482316.99,-368319261,40.48953268,
16700,,VIDRIO,V2200CL_vacri,,,1,CHAMBERI,RIOS ROSAS,,,,440820.51,4476782.4,-369778773,40.43958452,
16702,,VIDRIO,V2200CL,,,1,FUENCARRAL-EL PARDO,VALVERDE,,,,440955.94,4483018.16,-369677129,40.49576841,
16705,,VIDRIO,V2200CL,,,1,FUENCARRAL-EL PARDO,VALVERDE,,,,441787.9701,4482845.782,-368693745,40.49427434,
16708,,VIDRIO,V2200CL,,,1,FUENCARRAL-EL PARDO,VALVERDE,,,,442710.77,4484146.53,-367616622,40.5060562,
16711,,VIDRIO,V2200CL,,,1,FUENCARRAL-EL PARDO,VALVERDE,,,,441465.18,4483547.07,-369081111,40.5005691,
16712,,VIDRIO,V2200CL,,,1,TETUAN,CASTILLEJOS,,,,441046.26,4478651.28,-369529958,40.45643625,
16714,,VIDRIO,V2200CL,,,1,FUENCARRAL-EL PARDO,VALVERDE,,,,443016.27,4484307.61,-367257523,40.50752831,
16717,,VIDRIO,V2200CL,,,1,FUENCARRAL-EL PARDO,VALVERDE,,,,441558.41,4482568.24,-368962062,40.491758,
16718,,VIDRIO,V2200CL_vacri,,,1,CHAMBERI,RIOS ROSAS,,,,440718.77,4477289.52,-369903459,40.44414564,
16720,,VIDRIO,V2200CL,,,1,FUENCARRAL-EL PARDO,VALVERDE,,,,443708.02,4484187.45,-366440039,40.50649309,
16723,,VIDRIO,V2200CL,,,1,FUENCARRAL-EL PARDO,VALVERDE,,,,442767.89,4484885.32,-367555888,40.51271544,
16726,,VIDRIO,V2200CL,,,1,FUENCARRAL-EL PARDO,VALVERDE,,,,443430.38,4484149.04,-366767367,40.50612819,
16729,,VIDRIO,V2200CL,,,1,FUENCARRAL-EL PARDO,VALVERDE,,,,443638.8103,4484617.865,-366525552,40.51036574,
16730,,VIDRIO,V2200CL,,,1,TETUAN,CUATRO CAMINOS,,,,441118.09,4478637.78,-369445122,40.45631973,
16732,,VIDRIO,V2200CL,,,1,FUENCARRAL-EL PARDO,VALVERDE,,,,441769.79,4482347.21,-368710616,40.48978173,
16735,,VIDRIO,V2200CL,,,1,FUENCARRAL-EL PARDO,VALVERDE,,,,441349.7608,4482579.474,-369208358,40.49184449,
16736,,VIDRIO,V2200CL_vacri,,,1,CHAMBERI,RIOS ROSAS,,,,440740.02,4477412.91,-369879554,40.4452587,
16738,,VIDRIO,V2200CL,,,1,FUENCARRAL-EL PARDO,VALVERDE,,,,441606.5,4482348.68,-368903296,40.4897835,
16741,,VIDRIO,V2200CL,,,1,FUENCARRAL-EL PARDO,VALVERDE,,,,442967.03,4484820.35,-367320256,40.51214388,
16744,,VIDRIO,V2200CL,,,1,FUENCARRAL-EL PARDO,VALVERDE,,,,441516.43,4482174.06,-369007958,40.48820412,
16747,,VIDRIO,V2200CL,,,1,FUENCARRAL-EL PARDO,VALVERDE,,,,441291.78,4483035.99,-369281002,40.49595285,
16748,,VIDRIO,V2200CL,,,1,TETUAN,CUATRO CAMINOS,,,,441118.09,4478637.78,-369445122,40.45631973,
16750,,VIDRIO,V2200CL,,,1,FUENCARRAL-EL PARDO,VALVERDE,,,,441517.06,4481880.32,-369004504,40.48555804,
16753,,VIDRIO,V2200CL,,,1,FUENCARRAL-EL PARDO,VALVERDE,,,,442711.13,4483070.95,-367606469,40.49636698,
16754,,VIDRIO,V2200CL_vacri,,,1,CHAMBERI,RIOS ROSAS,,,,440750.58,4477546.96,-369868353,40.44646704,
16756,,VIDRIO,V2200CL,,,1,FUENCARRAL-EL PARDO,VALVERDE,,,,441438.33,4483726.24,-369114452,40.50218123,
16759,,VIDRIO,V2200CL,,,1,FUENCARRAL-EL PARDO,VALVERDE,,,,442785.18,4482774.79,-367516414,40.49370416,
16762,,VIDRIO,V2200CL,,,1,FUENCARRAL-EL PARDO,VALVERDE,,,,443742.83,4484098.14,-366398163,40.50569091,
16765,,VIDRIO,V2200CL,,,1,FUENCARRAL-EL PARDO,VALVERDE,,,,441287.95,4483540.29,-369290195,40.5004955,
16767,,VIDRIO,V2200CL,,,1,TETUAN,CUATRO CAMINOS,,,,441410.69,4478354.92,-369097444,40.45379228,
16768,,VIDRIO,V2200CL,,,1,FUENCARRAL-EL PARDO,VALVERDE,,,,441472.57,4482311.61,-369060977,40.48944013,
16771,,VIDRIO,V2200CL,,,1,FUENCARRAL-EL PARDO,VALVERDE,,,,443347.08,4484505.49,-366868866,40.50933355,
16773,,VIDRIO,V2200CL_vacri,,,1,CHAMBERI,ALMAGRO,,,,440690.6,4476644.67,-369930654,40.43833454,
16774,,VIDRIO,V2200CL,,,1,FUENCARRAL-EL PARDO,VALVERDE,,,,443283.49,4484428.59,-366943229,40.50863646,
16777,,VIDRIO,V2200CL,,,1,FUENCARRAL-EL PARDO,VALVERDE,,,,443848.01,4484353.57,-366276296,40.50799905,
16780,,VIDRIO,V2200CL,,,1,FUENCARRAL-EL PARDO,VALVERDE,,,,443504.79,4483962.84,-366677888,40.5044559,
16783,,VIDRIO,V2200CL,,,1,FUENCARRAL-EL PARDO,VALVERDE,,,,442856.3,4484131.11,-367444730,40.50592732,
16786,,VIDRIO,V2200CL,,,1,FUENCARRAL-EL PARDO,VALVERDE,,,,441277.32,4482310.65,-369291343,40.48941769,
16788,,VIDRIO,V2200CL_vacri,,,1,CHAMBERI,ALMAGRO,,,,440690.6,4476644.67,-369930654,40.43833454,
16789,,VIDRIO,V2200CL,,,1,FUENCARRAL-EL PARDO,VALVERDE,,,,443052.36,4484863.92,-367219933,40.51254224,
16792,,VIDRIO,V2200CL,,,1,FUENCARRAL-EL PARDO,VALVERDE,,,,442856.3,4484131.11,-367444730,40.50592732,
16795,,VIDRIO,V2200CL,,,1,FUENCARRAL-EL PARDO,VALVERDE,,,,442355.28,4482067.88,-368017254,40.48730628,
16798,,VIDRIO,V2200CL,,,1,FUENCARRAL-EL PARDO,VALVERDE,,,,442722.16,4483559.0,-367597866,40.50076429,
16801,,VIDRIO,V2200CL,,,1,FUENCARRAL-EL PARDO,VALVERDE,,,,443324.99,4483649.95,-366887281,40.50162499,
16803,,VIDRIO,V2200CL,,,1,TETUAN,CUATRO CAMINOS,,,,441406.19,4478298.85,-369102233,40.45328686,
16804,,VIDRIO,V2200CL,,,1,FUENCARRAL-EL PARDO,VALVERDE,,,,443289.83,4483229.22,-366925007,40.49783248,
16806,,VIDRIO,V2200CL_vacri,,,1,CHAMBERI,RIOS ROSAS,,,,441233.07,4476639.21,-369291032,40.43832386,
16807,,VIDRIO,V2200CL,,,1,FUENCARRAL-EL PARDO,VALVERDE,,,,443324.99,4483649.95,-366887281,40.50162499,
16810,,VIDRIO,V2200CL,,,1,FUENCARRAL-EL PARDO,VALVERDE,,,,442822.07,4484598.76,-367489350,40.51013774,
16813,,VIDRIO,V2200CL,,,1,FUENCARRAL-EL PARDO,VALVERDE,,,,441304.7442,4483145.532,-369266719,40.49694056,
16816,,VIDRIO,V2200CL,,,1,FUENCARRAL-EL PARDO,VALVERDE,,,,442822.07,4484598.76,-367489350,40.51013774,
16818,,VIDRIO,V2200CL,,,1,TETUAN,CASTILLEJOS,,,,440756.21,4478705.12,-369872521,40.45690064,
16819,,VIDRIO,V2200CL,,,1,FUENCARRAL-EL PARDO,VALVERDE,,,,443273.08,4484019.03,-366951847,40.50494627,
16822,,VIDRIO,V2200CL,,,1,FUENCARRAL-EL PARDO,VALVERDE,,,,441346.64,4482681.18,-369212982,40.49276047,
16824,,VIDRIO,V2200CL_vacri,,,1,CHAMBERI,GAZTAMBIDE,,,,439559.37,4475928.25,-371257557,40.43179927,
16825,,VIDRIO,V2200CL,,,1,FUENCARRAL-EL PARDO,VALVERDE,,,,442755.02,4483607.31,-367559524,40.50120175,
16828,,VIDRIO,V2200CL,,,1,FUENCARRAL-EL PARDO,VALVERDE,,,,441540.76,4483847.71,-368994694,40.5032827,
16831,,VIDRIO,V2200CL,,,1,FUENCARRAL-EL PARDO,VALVERDE,,,,442549.28,4483774.06,-367803832,40.50268968,
16834,,VIDRIO,V2200CL,,,1,FUENCARRAL-EL PARDO,VALVERDE,,,,442834.03,4483258.94,-367463141,40.49806894,
16836,,VIDRIO,V2200CL,,,1,TETUAN,CUATRO CAMINOS,,,,440798.92,4478192.08,-369817368,40.452282,
16837,,VIDRIO,V2200CL,,,1,FUENCARRAL-EL PARDO,VALVERDE,,,,441770.09,4482499.43,-368711661,40.49115301,
16840,,VIDRIO,V2200CL,,,1,FUENCARRAL-EL PARDO,VALVERDE,,,,443651.51,4484373.08,-366508385,40.50816148,
16842,,VIDRIO,V2200CL_vacri,,,1,CHAMBERI,GAZTAMBIDE,,,,439655.97,4476564.48,-371149718,40.43753772,
16843,,VIDRIO,V2200CL,,,1,FUENCARRAL-EL PARDO,VALVERDE,,,,441536.84,4483612.4,-368997148,40.50116266,
16846,,VIDRIO,V2200CL,,,1,FUENCARRAL-EL PARDO,VALVERDE,,,,443651.51,4484373.08,-366508385,40.50816148,
16849,,VIDRIO,V2200CL,,,1,FUENCARRAL-EL PARDO,VALVERDE,,,,441199.46,4482952.03,-369389161,40.49518997,
16852,,VIDRIO,V2200CL,,,1,FUENCARRAL-EL PARDO,VALVERDE,,,,443012.46,4484994.85,-367268206,40.51371897,
16854,,VIDRIO,V2200CL,,,1,TETUAN,ALMENARA,,,,441133.38,4480382.64,-369443277,40.47203924,
16856,,VIDRIO,V2200CL,,,1,FUENCARRAL-EL PARDO,VALVERDE,,,,443129.64,4484142.13,-367122236,40.50604538,
16857,,VIDRIO,V2200CL_vacri,,,1,CHAMBERI,ALMAGRO,,,,441172.11,4475841.65,-369355521,40.43113476,
16860,,VIDRIO,V2200CL,,,1,FUENCARRAL-EL PARDO,VALVERDE,,,,443225.48,4483795.29,-367006017,40.50292747,
16863,,VIDRIO,V2200CL,,,1,FUENCARRAL-EL PARDO,VALVERDE,,,,443129.64,4484142.13,-367122236,40.50604538,
16866,,VIDRIO,V2200CL,,,1,FUENCARRAL-EL PARDO,VALVERDE,,,,441993.44,4481891.95,-368442564,40.48569623,
16869,,VIDRIO,V2200CL,,,1,FUENCARRAL-EL PARDO,VALVERDE,,,,443225.48,4483795.29,-367006017,40.50292747,
16871,,VIDRIO,V2200CL,,,1,TETUAN,BERRUGUETE,,,,440059.12,4479372.63,-370700918,40.46286385,
16872,,VIDRIO,V2200CL,,,1,FUENCARRAL-EL PARDO,MIRASIERRA,,,,440229.2,4482920.61,-370533764,40.49483762,
16874,,VIDRIO,V2200CL_vacri,,,1,CHAMBERI,ALMAGRO,,,,440924.26,4476324.49,-369652193,40.43546684,
16875,,VIDRIO,V2200CL,,,1,FUENCARRAL-EL PARDO,VALVERDE,,,,443438.9,4484487.08,-366760331,40.50917397,
16878,,VIDRIO,V2200CL,,,1,FUENCARRAL-EL PARDO,MIRASIERRA,,,,440659.22,4483645.94,-370033141,40.50140251,
16881,,VIDRIO,V2200CL,,,1,FUENCARRAL-EL PARDO,MIRASIERRA,,,,438975.3114,4481998.051,-372004448,40.48643566,
16884,,VIDRIO,V2200CL,,,1,FUENCARRAL-EL PARDO,MIRASIERRA,,,,438780.98,4482972.31,-372243138,40.49519779,
16887,,VIDRIO,V2200CL,,,1,FUENCARRAL-EL PARDO,MIRASIERRA,,,,440045.49,4482096.3,-370742741,40.4873987,
16890,,VIDRIO,V2200CL,,,1,FUENCARRAL-EL PARDO,MIRASIERRA,,,,439054.49,4482378.19,-371914685,40.48986589,
16893,,VIDRIO,V2200CL,,,1,FUENCARRAL-EL PARDO,MIRASIERRA,,,,438852.57,4483079.74,-372159700,40.49617083,
16895,,VIDRIO,V2200CL_vacri,,,1,FUENCARRAL-EL PARDO,EL PARDO,,,,433986.78,4485865.52,-377930346,40.52089285,
16896,,VIDRIO,V2200CL,,,1,FUENCARRAL-EL PARDO,MIRASIERRA,,,,440095.36,4483800.46,-370700014,40.50275396,
16898,,VIDRIO,V2200CL,,,1,TETUAN,BELLAS VISTAS,,,,439716.59,4478227.36,-371094030,40.45252202,
16899,,VIDRIO,V2200CL,,,1,FUENCARRAL-EL PARDO,MIRASIERRA,,,,439189.96,4482048.66,-371751683,40.48690731,
16902,,VIDRIO,V2200CL,,,1,FUENCARRAL-EL PARDO,MIRASIERRA,,,,440035.33,4483625.67,-370769202,40.50117505,
16905,,VIDRIO,V2200CL,,,1,FUENCARRAL-EL PARDO,MIRASIERRA,,,,440257.48,4482574.57,-370497132,40.49172241,
16908,,VIDRIO,V2200CL,,,1,FUENCARRAL-EL PARDO,MIRASIERRA,,,,438721.38,4482899.32,-372312759,40.49453587,
16911,,VIDRIO,V2200CL,,,1,FUENCARRAL-EL PARDO,MIRASIERRA,,,,439805.16,4483241.96,-371037178,40.4977018,
16913,,VIDRIO,V2200CL_vacri,,,1,CHAMBERI,VALLEHERMOSO,,,,439624.21,4477360.36,-371194726,40.44470503,
16914,,VIDRIO,V2200CL,,,1,FUENCARRAL-EL PARDO,MIRASIERRA,,,,440532.7248,4482448.598,-370171179,40.49060737,
16916,,VIDRIO,V2200CL,,,1,TETUAN,BELLAS VISTAS,,,,439716.59,4478227.36,-371094030,40.45252202,
16917,,VIDRIO,V2200CL,,,1,FUENCARRAL-EL PARDO,MIRASIERRA,,,,438977.24,4482460.76,-372006627,40.49060404,
16920,,VIDRIO,V2200CL,,,1,FUENCARRAL-EL PARDO,MIRASIERRA,,,,439021.92,4482035.92,-371949822,40.48678022,
16923,,VIDRIO,V2200CL,,,1,FUENCARRAL-EL PARDO,MIRASIERRA,,,,440543.9,4482840.44,-370161670,40.49413803,
16926,,VIDRIO,V2200CL,,,1,FUENCARRAL-EL PARDO,MIRASIERRA,,,,439289.43,4482330.05,-371637020,40.48944945,
16929,,VIDRIO,V2200CL,,,1,FUENCARRAL-EL PARDO,MIRASIERRA,,,,439852.89,4483905.96,-370987160,40.50368679,
16931,,VIDRIO,V2200CL_vacri,,,1,FUENCARRAL-EL PARDO,EL PARDO,,,,434263.98,4485695.55,-377601367,40.51938375,
16932,,VIDRIO,V2200CL,,,1,FUENCARRAL-EL PARDO,MIRASIERRA,,,,438839.6206,4482047.455,-372165017,40.48687073,
16934,,VIDRIO,V2200CL,,,1,TETUAN,BERRUGUETE,,,,439829.46,4478806.35,-370966416,40.45774598,
16935,,VIDRIO,V2200CL,,,1,FUENCARRAL-EL PARDO,MIRASIERRA,,,,439533.28,4483539.33,-371360844,40.50036084,
16938,,VIDRIO,V2200CL,,,1,FUENCARRAL-EL PARDO,MIRASIERRA,,,,438206.8293,4482633.988,-372917329,40.49210754,
16941,,VIDRIO,V2200CL,,,1,FUENCARRAL-EL PARDO,MIRASIERRA,,,,438783.75,4482492.81,-372235237,40.49087851,
16944,,VIDRIO,V2200CL,,,1,FUENCARRAL-EL PARDO,MIRASIERRA,,,,439787.9,4482916.3,-371054450,40.4947669,
16947,,VIDRIO,V2200CL,,,1,FUENCARRAL-EL PARDO,MIRASIERRA,,,,439073.43,4482136.71,-371890017,40.48769195,
16949,,VIDRIO,V2200CL_vacri,,,1,FUENCARRAL-EL PARDO,EL PARDO,,,,434263.98,4485695.55,-377601367,40.51938375,
16950,,VIDRIO,V2200CL,,,1,FUENCARRAL-EL PARDO,MIRASIERRA,,,,440372.62,4483860.79,-370373380,40.5033174,
16952,,VIDRIO,V2200CL,,,1,TETUAN,CASTILLEJOS,,,,441193.91,4479135.86,-369360321,40.46081201,
16953,,VIDRIO,V2200CL,,,1,FUENCARRAL-EL PARDO,MIRASIERRA,,,,440277.5828,4483670.823,-370483746,40.50159928,
16957,,VIDRIO,V2200CL,,,1,FUENCARRAL-EL PARDO,MIRASIERRA,,,,440653.34,4483824.07,-370041749,40.50300674,
16958,,VIDRIO,V2200CL,,,1,TETUAN,CASTILLEJOS,,,,441300.49,4479131.95,-369234585,40.46078433,
16960,,VIDRIO,V2200CL,,,1,FUENCARRAL-EL PARDO,MIRASIERRA,,,,438530.6412,4482132.9,-372530392,40.48761762,
16963,,VIDRIO,V2200CL,,,1,FUENCARRAL-EL PARDO,MIRASIERRA,,,,439263.46,4481966.67,-371664179,40.4861741,
16964,,VIDRIO,V2200CL,,,1,TETUAN,CUATRO CAMINOS,,,,440893.35,4477624.74,-369700731,40.44717788,
16966,,VIDRIO,V2200CL,,,1,FUENCARRAL-EL PARDO,MIRASIERRA,,,,440653.34,4483824.07,-370041749,40.50300674,
16969,,VIDRIO,V2200CL,,,1,FUENCARRAL-EL PARDO,MIRASIERRA,,,,439872.38,4482660.64,-370952339,40.49246995,
16970,,VIDRIO,V2200CL_vacri,,,1,FUENCARRAL-EL PARDO,VALVERDE,,,,443871.16,4485244.87,-366256877,40.5160298,
16972,,VIDRIO,V2200CL,,,1,FUENCARRAL-EL PARDO,MIRASIERRA,,,,439455.03,4481759.4,-371436179,40.48432094,
16975,,VIDRIO,V2200CL,,,1,FUENCARRAL-EL PARDO,MIRASIERRA,,,,439273.51,4482123.68,-371653826,40.48758924,
16978,,VIDRIO,V2200CL,,,1,FUENCARRAL-EL PARDO,MIRASIERRA,,,,440026.88,4483892.83,-370781703,40.50358111,
16979,,VIDRIO,V2200CL,,,1,TETUAN,CUATRO CAMINOS,,,,440893.35,4477624.74,-369700731,40.44717788,
16981,,VIDRIO,V2200CL,,,1,FUENCARRAL-EL PARDO,MIRASIERRA,,,,440446.41,4483067.59,-370278841,40.49617728,
16984,,VIDRIO,V2200CL,,,1,FUENCARRAL-EL PARDO,MIRASIERRA,,,,438424.4,4482167.56,-372656078,40.48792197,
16987,,VIDRIO,V2200CL,,,1,FUENCARRAL-EL PARDO,MIRASIERRA,,,,440248.11,4483873.82,-370520442,40.50342582,
16990,,VIDRIO,V2200CL,,,1,FUENCARRAL-EL PARDO,PEÑAGRANDE,,,,438996.19,4480686.85,-371967199,40.47462545,
16993,,VIDRIO,V2200CL,,,1,FUENCARRAL-EL PARDO,MIRASIERRA,,,,440145.73,4483374.1,-370636542,40.4989168,
16994,,VIDRIO,V2200CL_vacri,,,1,FUENCARRAL-EL PARDO,VALVERDE,,,,443229.18,4483160.1,-366995958,40.49720568,
16996,,VIDRIO,V2200CL,,,1,FUENCARRAL-EL PARDO,PEÑAGRANDE,,,,439228.25,4480228.38,-371689062,40.4705124,
16997,,VIDRIO,V2200CL,,,1,TETUAN,CASTILLEJOS,,,,441321.94,4478813.06,-369206339,40.45791314,
16999,,VIDRIO,V2200CL,,,1,FUENCARRAL-EL PARDO,LA PAZ,,,,441139.77,4481810.75,-369448995,40.48490466,
17002,,VIDRIO,V2200CL,,,1,FUENCARRAL-EL PARDO,PEÑAGRANDE,,,,439427.57,4480184.31,-371453532,40.47012996,
17005,,VIDRIO,V2200CL,,,1,FUENCARRAL-EL PARDO,LA PAZ,,,,440562.27,4482079.28,-370132855,40.48728254,
17008,,VIDRIO,V2200CL,,,1,FUENCARRAL-EL PARDO,FUENTELAREINA,,,,436768.8,4480808.29,-374595891,40.47555283,
17011,,VIDRIO,V2200CL,,,1,FUENCARRAL-EL PARDO,PEÑAGRANDE,,,,437561.11,4480841.99,-373661583,40.47591635,
17013,,VIDRIO,V2200CL_vacri,,,1,FUENCARRAL-EL PARDO,LA PAZ,,,,440743.73,4482065.64,-369918631,40.48717264,
17014,,VIDRIO,V2200CL,,,1,FUENCARRAL-EL PARDO,FUENTELAREINA,,,,437227.08,4481176.18,-374058928,40.47890166,
17016,,VIDRIO,V2200CL,,,1,TETUAN,CUATRO CAMINOS,,,,440894.44,4478659.14,-369709075,40.45649627,
17017,,VIDRIO,V2200CL,,,1,FUENCARRAL-EL PARDO,MIRASIERRA,,,,440018.52,4483335.25,-370786289,40.49855764,
17020,,VIDRIO,V2200CL,,,1,FUENCARRAL-EL PARDO,PEÑAGRANDE,,,,439304.71,4481338.69,-371609499,40.48052006,
17023,,VIDRIO,V2200CL,,,1,FUENCARRAL-EL PARDO,PEÑAGRANDE,,,,438778.65,4480946.0,-372226317,40.47694396,
17026,,VIDRIO,V2200CL,,,1,FUENCARRAL-EL PARDO,VALVERDE,,,,442484.74,4481992.38,-367863824,40.48663513,
17029,,VIDRIO,V2200CL,,,1,FUENCARRAL-EL PARDO,VALVERDE,,,,442091.42,4483626.29,-368342815,40.50132668,
17031,,VIDRIO,V2200CL_vacri,,,1,FUENCARRAL-EL PARDO,VALVERDE,,,,441862.37,4484038.41,-368616901,40.50502319,
17032,,VIDRIO,V2200CL,,,1,FUENCARRAL-EL PARDO,PEÑAGRANDE,,,,437502.76,4481022.88,-373732198,40.47754148,
17034,,VIDRIO,V2200CL,,,1,TETUAN,VALDEACEDERAS,,,,440110.04,4479481.98,-370641894,40.46385259,
17035,,VIDRIO,V2200CL,,,1,FUENCARRAL-EL PARDO,LA PAZ,,,,440729.55,4481606.34,-369931067,40.48303408,
17038,,VIDRIO,V2200CL,,,1,FUENCARRAL-EL PARDO,LA PAZ,,,,440426.34,4481459.38,-370287407,40.48168851,
17041,,VIDRIO,V2200CL,,,1,FUENCARRAL-EL PARDO,LA PAZ,,,,440597.6,4481541.6,-370086132,40.48244145,
17044,,VIDRIO,V2200CL,,,1,FUENCARRAL-EL PARDO,MIRASIERRA,,,,439650.5997,4483177.727,-371218953,40.49711195,
17047,,VIDRIO,V2200CL,,,1,FUENCARRAL-EL PARDO,MIRASIERRA,,,,439243.43,4482462.58,-371692565,40.49063996,
17049,,VIDRIO,V2200CL_vacri,,,1,FUENCARRAL-EL PARDO,MIRASIERRA,,,,438524.77,4482979.87,-372545536,40.49524695,
17050,,VIDRIO,V2200CL,,,1,FUENCARRAL-EL PARDO,MIRASIERRA,,,,439596.33,4482227.1,-371273930,40.48854443,
17052,,VIDRIO,V2200CL,,,1,TETUAN,BELLAS VISTAS,,,,439894.05,4478703.94,-370889273,40.4568281,
17053,,VIDRIO,V2200CL,,,1,FUENCARRAL-EL PARDO,VALVERDE,,,,442494.76,4483920.77,-367869504,40.50400752,
17056,,VIDRIO,V2200CL,,,1,FUENCARRAL-EL PARDO,MIRASIERRA,,,,438824.08,4482388.35,-372186643,40.48994047,
17060,,VIDRIO,V2200CL,,,1,FUENCARRAL-EL PARDO,PILAR,,,,439429.67,4480836.94,-371457287,40.47600924,
17062,,VIDRIO,V2200CL_vacri,,,1,FUENCARRAL-EL PARDO,EL GOLOSO,,,,439828.27,4484020.33,-371017302,40.50471529,
17063,,VIDRIO,V2200CL,,,1,FUENCARRAL-EL PARDO,PEÑAGRANDE,,,,438561.46,4480711.7,-372480259,40.47481726,
17066,,VIDRIO,V2200CL,,,1,FUENCARRAL-EL PARDO,VALVERDE,,,,441208.84,4482367.46,-369372669,40.48992461,
17068,,VIDRIO,V2200CL,,,1,TETUAN,CUATRO CAMINOS,,,,440627.19,4477980.69,-370017902,40.45036546,
17069,,VIDRIO,V2200CL,,,1,FUENCARRAL-EL PARDO,MIRASIERRA,,,,440211.8419,4483197.749,-370556862,40.49733293,
17072,,VIDRIO,V2200CL,,,1,FUENCARRAL-EL PARDO,EL GOLOSO,,,,440125.25,4484191.87,-370668440,40.50628206,
17075,,VIDRIO,V2200CL,,,1,FUENCARRAL-EL PARDO,PEÑAGRANDE,,,,438130.74,4481136.89,-372992497,40.47861554,
17078,,VIDRIO,V2200CL,,,1,FUENCARRAL-EL PARDO,LA PAZ,,,,440461.66,4481166.92,-370242992,40.47905645,
17081,,VIDRIO,V2200CL,,,1,FUENCARRAL-EL PARDO,PILAR,,,,440385.67,4480670.76,-370327974,40.4745814,
17084,,VIDRIO,V2200CL,,,1,FUENCARRAL-EL PARDO,MIRASIERRA,,,,440438.6,4482730.82,-370284891,40.49314298,
17087,,VIDRIO,V2200CL,,,1,FUENCARRAL-EL PARDO,PILAR,,,,440202.13,4480632.98,-370544127,40.47422787,
17089,,VIDRIO,V2200CL_vacri,,,1,FUENCARRAL-EL PARDO,LA PAZ,,,,441814.67,4481033.7,-368645606,40.47795226,
17090,,VIDRIO,V2200CL,,,1,FUENCARRAL-EL PARDO,VALVERDE,,,,443332.89,4484662.7,-366887021,40.51074879,
17093,,VIDRIO,V2200CL,,,1,FUENCARRAL-EL PARDO,EL GOLOSO,,,,440406.82,4484097.449,-370335247,40.50545176,
17095,,VIDRIO,V2200CL,,,1,TETUAN,CUATRO CAMINOS,,,,440421.87,4477993.28,-370260136,40.45046419,
17096,,VIDRIO,V2200CL,,,1,FUENCARRAL-EL PARDO,PILAR,,,,440112.29,4480462.31,-370648493,40.47268394,
17099,,VIDRIO,V2200CL,,,1,LATINA,LUCERO,,,,436146.7,4473256.65,-375253842,40.40747754,
17102,,VIDRIO,V2200CL,,,1,LATINA,CARMENES,,,,437897.14,4472728.01,-373185877,40.40284774,
17105,,VIDRIO,V2200CL,,,1,LATINA,CARMENES,,,,437315.06,4472578.89,-373870314,40.40146078,
17107,,VIDRIO,V2200CL_vacri,,,1,FUENCARRAL-EL PARDO,EL GOLOSO,,,,440032.44,4484000.96,-370776166,40.50455558,
17108,,VIDRIO,V2200CL,,,1,LATINA,CARMENES,,,,437279.84,4472737.54,-373913379,40.40288732,
17111,,VIDRIO,V2200CL,,,1,LATINA,CARMENES,,,,438603.64,4473067.04,-372356627,40.40595427,
17113,,VIDRIO,V2200CL,,,1,TETUAN,CASTILLEJOS,,,,441354.43,4479164.81,-369171272,40.46108415,
17114,,VIDRIO,V2200CL,,,1,LATINA,CARMENES,,,,437315.06,4472578.89,-373870314,40.40146078,
17117,,VIDRIO,V2200CL,,,1,LATINA,CARMENES,,,,437457.53,4472601.36,-373702656,40.40167392,
17120,,VIDRIO,V2200CL,,,1,LATINA,CARMENES,,,,438704.13,4473341.91,-372240855,40.40843783,
17123,,VIDRIO,V2200CL,,,1,LATINA,CARMENES,,,,436967.29,4471944.99,-374273831,40.39572409,
17125,,VIDRIO,V2200CL_vacri,,,1,FUENCARRAL-EL PARDO,VALVERDE,,,,442680.23,4484674.61,-367657445,40.51081123,
17126,,VIDRIO,V2200CL,,,1,LATINA,CARMENES,,,,437267.96,4472222.66,-373922304,40.39824816,
17129,,VIDRIO,V2200CL,,,1,LATINA,CARMENES,,,,437509.88,4472669.71,-373641641,40.40229357,
17131,,VIDRIO,V2200CL,,,1,TETUAN,CASTILLEJOS,,,,441354.43,4479164.81,-369171272,40.46108415,
17132,,VIDRIO,V2200CL,,,1,LATINA,CARMENES,,,,437395.28,4472231.12,-373772368,40.39833396,
17135,,VIDRIO,V2200CL,,,1,LATINA,CARMENES,,,,437412.06,4472748.12,-373757679,40.40299258,
17138,,VIDRIO,V2200CL,,,1,LATINA,CARMENES,,,,437509.68,4472237.54,-373637634,40.39840038,
17141,,VIDRIO,V2200CL,,,1,LATINA,CARMENES,,,,437323.2024,4472079.853,-373855807,40.39696585,
17143,,VIDRIO,V2200CL_vacri,,,1,FUENCARRAL-EL PARDO,VALVERDE,,,,443059.68,4483153.82,-367195917,40.49713749,
17144,,VIDRIO,V2200CL,,,1,LATINA,CARMENES,,,,438638.96,4473212.72,-372316410,40.40726922,
17147,,VIDRIO,V2200CL,,,1,LATINA,CARMENES,,,,436962.12,4472738.3,-374287778,40.40287017,
17150,,VIDRIO,V2200CL,,,1,LATINA,CARMENES,,,,437327.61,4471876.02,-373848607,40.39512997,
17152,,VIDRIO,V2200CL,,,1,TETUAN,BELLAS VISTAS,,,,440019.1251,4478651.888,-370741278,40.45636823,
17153,,VIDRIO,V2200CL,,,1,LATINA,CARMENES,,,,438530.76,4473176.47,-372443568,40.40693469,
17156,,VIDRIO,V2200CL,,,1,LATINA,CARMENES,,,,437023.1,4472010.32,-374208720,40.39631683,
17158,,VIDRIO,V2200CL,,,1,LATINA,CARMENES,,,,438168.56,4473085.03,-372869512,40.40608413,
17159,,VIDRIO,V2200CL_vacri,,,1,LATINA,ALUCHE,,,,435469.14,4471620.96,-376035729,40.39269037,
17161,,VIDRIO,V2200CL,,,1,LATINA,CARMENES,,,,436809.11,4472545.87,-374466170,40.40112508,
17164,,VIDRIO,V2200CL,,,1,LATINA,CARMENES,,,,437199.18,4472807.51,-374009117,40.40351156,
17167,,VIDRIO,V2200CL,,,1,LATINA,CARMENES,,,,436980.52,4471795.82,-374256767,40.3943813,
17170,,VIDRIO,V2200CL,,,1,LATINA,CARMENES,,,,437434.58,4472048.46,-373724266,40.39669143,
17173,,VIDRIO,V2200CL,,,1,LATINA,LUCERO,,,,436324.07,4471959.53,-375031846,40.39580614,
17174,,VIDRIO,V2200CL,,,1,TETUAN,CUATRO CAMINOS,,,,440640.35,4478658.79,-370008724,40.45647501,
17176,,VIDRIO,V2200CL,,,1,LATINA,LUCERO,,,,436730.46,4471966.3,-374553086,40.3958981,
17179,,VIDRIO,V2200CL,,,1,LATINA,LUCERO,,,,436886.89,4473228.96,-374381292,40.40728454,
17182,,VIDRIO,V2200CL,,,1,LATINA,LUCERO,,,,436499.3249,4471929.693,-374825055,40.39555074,
17185,,VIDRIO,V2200CL,,,1,LATINA,LUCERO,,,,436464.63,4473000.18,-374876618,40.40519148,
17186,,VIDRIO,V2200CL_vacri,,,1,LATINA,ALUCHE,,,,434910.82,4471425.23,-376691533,40.39088372,
17188,,VIDRIO,V2200CL,,,1,LATINA,LUCERO,,,,436070.44,4473122.05,-375342358,40.40625915,
17191,,VIDRIO,V2200CL,,,1,LATINA,LUCERO,,,,436605.2232,4471911.607,-374700102,40.39539588,
17192,,VIDRIO,V2200CL,,,1,TETUAN,CUATRO CAMINOS,,,,440463.06,4477917.53,-370210854,40.44978475,
17194,,VIDRIO,V2200CL,,,1,LATINA,LUCERO,,,,436433.8278,4472139.262,-374904319,40.39743362,
17197,,VIDRIO,V2200CL,,,1,LATINA,LUCERO,,,,436186.6704,4473102.898,-375205197,40.40609554,
17200,,VIDRIO,V2200CL,,,1,LATINA,LUCERO,,,,435908.38,4472486.65,-375526936,40.40052276,
17203,,VIDRIO,V2200CL,,,1,LATINA,LUCERO,,,,436475.69,4472449.46,-374858089,40.40023121,
17204,,VIDRIO,V2200CL_vacri,,,1,LATINA,CAMPAMENTO,,,,434197.23,4472312.18,-377541415,40.39881761,
17206,,VIDRIO,V2200CL,,,1,LATINA,LUCERO,,,,436475.69,4472449.46,-374858089,40.40023121,
17209,,VIDRIO,V2200CL,,,1,LATINA,LUCERO,,,,436071.2223,4472554.27,-375335734,40.40114443,
17211,,VIDRIO,V2200CL,,,1,TETUAN,BERRUGUETE,,,,440644.45,4479145.32,-370008438,40.46085817,
17213,,VIDRIO,V2200CL,,,1,LATINA,LUCERO,,,,436123.81,4472599.32,-375274220,40.40155429,
17216,,VIDRIO,V2200CL,,,1,LATINA,LUCERO,,,,436645.33,4472954.91,-374663229,40.40479744,
17219,,VIDRIO,V2200CL,,,1,LATINA,LUCERO,,,,436293.4,4472556.57,-375073957,40.40118218,
17222,,VIDRIO,V2200CL,,,1,LATINA,LUCERO,,,,436611.8292,4472212.14,-374695310,40.39810371,
17223,,VIDRIO,V2200CL_vacri,,,1,LATINA,AGUILAS,,,,435263.31,4470907.12,-376270980,40.38624384,
17225,,VIDRIO,V2200CL,,,1,LATINA,LUCERO,,,,436645.33,4472954.91,-374663229,40.40479744,
17228,,VIDRIO,V2200CL,,,1,LATINA,LUCERO,,,,436199.0803,4472794.586,-375187483,40.4033191,
17229,,VIDRIO,V2200CL,,,1,TETUAN,CASTILLEJOS,,,,441487.3405,4479302.616,-369015788,40.46233494,
17231,,VIDRIO,V2200CL,,,1,LATINA,LUCERO,,,,436269.3425,4473145.701,-375108203,40.40648746,
17234,,VIDRIO,V2200CL,,,1,LATINA,LUCERO,,,,436259.03,4472917.89,-375118074,40.40443446,
17237,,VIDRIO,V2200CL,,,1,LATINA,LUCERO,,,,436405.06,4473285.11,-374949663,40.40775369,
17240,,VIDRIO,V2200CL,,,1,LATINA,LUCERO,,,,436511.8,4472016.4,-374811221,40.39633278,
17241,,VIDRIO,V2200CL_vacri,,,1,LATINA,ALUCHE,,,,436126.88,4471301.3,-375257582,40.38986144,
17243,,VIDRIO,V2200CL,,,1,LATINA,LUCERO,,,,436740.13,4473058.41,-374552545,40.40573701,
17244,,VIDRIO,V2200CL,,,1,TETUAN,BELLAS VISTAS,,,,440174.1819,4478599.83,-370557927,40.45591045,
17246,,VIDRIO,V2200CL,,,1,LATINA,LUCERO,,,,436377.9174,4472419.253,-374972994,40.39995163,
17249,,VIDRIO,V2200CL,,,1,LATINA,LUCERO,,,,436377.9174,4472419.253,-374972994,40.39995163,
17252,,VIDRIO,V2200CL,,,1,LATINA,LUCERO,,,,436087.8369,4473173.349,-375322372,40.40672261,
17255,,VIDRIO,V2200CL,,,1,LATINA,LUCERO,,,,436467.4,4472919.86,-374872552,40.40446813,
17256,,VIDRIO,V2200CL_vacri,,,1,LATINA,ALUCHE,,,,435028.9795,4471701.525,-376555142,40.39338191,
17258,,VIDRIO,V2200CL,,,1,LATINA,LUCERO,,,,435799.93,4472722.44,-375657103,40.4026385,
17261,,VIDRIO,V2200CL,,,1,LATINA,LUCERO,,,,436906.72,4472970.58,-374355362,40.40495845,
17262,,VIDRIO,V2200CL,,,1,TETUAN,BELLAS VISTAS,,,,439770.7772,4478408.959,-371031853,40.45416187,
17264,,VIDRIO,V2200CL,,,1,LATINA,LUCERO,,,,436759.07,4473011.07,-374529756,40.405312,
17268,,VIDRIO,V2200CL,,,1,LATINA,LUCERO,,,,436759.07,4473011.07,-374529756,40.405312,
17271,,VIDRIO,V2200CL,,,1,LATINA,LUCERO,,,,436526.57,4472722.59,-374800859,40.40269556,
17274,,VIDRIO,V2200CL,,,1,LATINA,LUCERO,,,,436713.15,4471894.76,-374572771,40.39525232,
17277,,VIDRIO,V2200CL,,,1,LATINA,LUCERO,,,,436380.62,4472893.17,-374974546,40.40422107,
17279,,VIDRIO,V2200CL_vacri,,,1,LATINA,ALUCHE,,,,435345.47,4471069.26,-376175835,40.38771085,
17280,,VIDRIO,V2200CL,,,1,LATINA,LUCERO,,,,436713.15,4471894.76,-374572771,40.39525232,
17283,,VIDRIO,V2200CL,,,1,LATINA,LUCERO,,,,435769.2702,4472839.304,-375694411,40.40368889,
17286,,VIDRIO,V2200CL,,,1,LATINA,LUCERO,,,,436298.22,4472405.44,-375066765,40.39982111,
17289,,VIDRIO,V2200CL,,,1,LATINA,LUCERO,,,,436236.15,4473281.43,-375148678,40.40770762,
17291,,VIDRIO,V2200CL,,,1,TETUAN,CASTILLEJOS,,,,441261.5865,4479514.604,-369284009,40.46422869,
17292,,VIDRIO,V2200CL,,,1,FUENCARRAL-EL PARDO,PEÑAGRANDE,,,,438742.94,4481828.53,-372276969,40.48489145,
17295,,VIDRIO,V2200CL,,,1,FUENCARRAL-EL PARDO,PEÑAGRANDE,,,,439030.48,4480842.73,-371928248,40.47603219,
17297,,VIDRIO,V2200CL_vacri,,,1,TETUAN,CUATRO CAMINOS,,,,440903.35,4478416.11,-369696305,40.45430759,
17298,,VIDRIO,V2200CL,,,1,FUENCARRAL-EL PARDO,PEÑAGRANDE,,,,439339.99,4480524.35,-371560089,40.47318677,
17301,,VIDRIO,V2200CL,,,1,FUENCARRAL-EL PARDO,PEÑAGRANDE,,,,438344.62,4481245.35,-372741238,40.47960849,
17304,,VIDRIO,V2200CL,,,1,FUENCARRAL-EL PARDO,PEÑAGRANDE,,,,438732.48,4481208.61,-372283320,40.47930623,
17306,,VIDRIO,V2200CL,,,1,TETUAN,CUATRO CAMINOS,,,,440673.5962,4478102.054,-369964314,40.45146207,
17307,,VIDRIO,V2200CL,,,1,FUENCARRAL-EL PARDO,PEÑAGRANDE,,,,438663.77,4481134.04,-372363656,40.47862941,
17310,,VIDRIO,V2200CL,,,1,FUENCARRAL-EL PARDO,PEÑAGRANDE,,,,437655.48,4480802.33,-373549870,40.47556617,
17312,,VIDRIO,V2200CL_vacri,,,1,TETUAN,CUATRO CAMINOS,,,,441184.55,4478448.39,-369364990,40.45461833,
17313,,VIDRIO,V2200CL,,,1,FUENCARRAL-EL PARDO,PEÑAGRANDE,,,,437920.54,4481508.48,-373244107,40.48194725,
17317,,VIDRIO,V2200CL,,,1,FUENCARRAL-EL PARDO,PEÑAGRANDE,,,,437920.54,4481508.48,-373244107,40.48194725,
17320,,VIDRIO,V2200CL,,,1,FUENCARRAL-EL PARDO,PEÑAGRANDE,,,,438337.9399,4480658.207,-372743410,40.47431882,
17321,,VIDRIO,V2200CL,,,1,TETUAN,ALMENARA,,,,441270.9862,4480400.814,-369281126,40.47221269,
17323,,VIDRIO,V2200CL,,,1,FUENCARRAL-EL PARDO,PEÑAGRANDE,,,,438804.66,4480733.59,-372193584,40.47503241,
17326,,VIDRIO,V2200CL,,,1,FUENCARRAL-EL PARDO,PEÑAGRANDE,,,,439083.02,4481354.35,-371871184,40.4806449,
17327,,VIDRIO,V2200CL_vacri,,,1,TETUAN,BELLAS VISTAS,,,,440334.95,4477938.8,-370362121,40.44996717,
17329,,VIDRIO,V2200CL,,,1,FUENCARRAL-EL PARDO,PEÑAGRANDE,,,,438345.49,4481474.97,-372742445,40.48167705,
17330,,VIDRIO,V2200CL,,,1,CHAMBERI,ARAPILES,,,,440166.8887,4476478.664,-370546546,40.43680156,
17332,,VIDRIO,V2200CL,,,1,FUENCARRAL-EL PARDO,PEÑAGRANDE,,,,438460.41,4481174.75,-372603954,40.47898109,
17335,,VIDRIO,V2200CL,,,1,FUENCARRAL-EL PARDO,PEÑAGRANDE,,,,437623.78,4481697.75,-373596073,40.48363001,
17336,,VIDRIO,V2200CL,,,1,CHAMBERI,TRAFALGAR,,,,440412.0053,4476540.544,-370258141,40.43737661,
17338,,VIDRIO,V2200CL,,,1,FUENCARRAL-EL PARDO,PEÑAGRANDE,,,,437660.34,4481309.46,-373549122,40.48013492,
17341,,VIDRIO,V2200CL,,,1,FUENCARRAL-EL PARDO,PEÑAGRANDE,,,,439154.6954,4481404.222,-371787105,40.48109942,
17342,,VIDRIO,V2200CL,,,1,CHAMBERI,TRAFALGAR,,,,440412.0053,4476540.544,-370258141,40.43737661,
17344,,VIDRIO,V2200CL,,,1,FUENCARRAL-EL PARDO,PEÑAGRANDE,,,,438758.82,4481662.02,-372256626,40.48339264,
17347,,VIDRIO,V2200CL,,,1,FUENCARRAL-EL PARDO,PEÑAGRANDE,,,,437578.9261,4481118.456,-373643287,40.47840819,
17348,,VIDRIO,V2200CL_vacri,,,1,TETUAN,CUATRO CAMINOS,,,,441184.55,4478448.39,-369364990,40.45461833,
17350,,VIDRIO,V2200CL,,,1,FUENCARRAL-EL PARDO,PEÑAGRANDE,,,,439059.07,4481466.05,-371900512,40.48164937,
17351,,VIDRIO,V2200CL,,,1,CHAMBERI,ALMAGRO,,,,441463.3545,4476217.935,-369015646,40.43454506,
17353,,VIDRIO,V2200CL,,,1,FUENCARRAL-EL PARDO,PEÑAGRANDE,,,,438739.52,4481291.97,-372275820,40.48005768,
17354,,VIDRIO,V2200CL_vacri,,,1,TETUAN,CUATRO CAMINOS,,,,441266.68,4478375.25,-369267459,40.45396526,
17356,,VIDRIO,V2200CL,,,1,FUENCARRAL-EL PARDO,PEÑAGRANDE,,,,439059.07,4481466.05,-371900512,40.48164937,
17359,,VIDRIO,V2200CL,,,1,FUENCARRAL-EL PARDO,PEÑAGRANDE,,,,438064.4,4481436.76,-373073687,40.48131192,
17360,,VIDRIO,V2200CL,,,1,CHAMBERI,ALMAGRO,,,,441391.2672,4476443.286,-369102710,40.43657005,
17362,,VIDRIO,V2200CL_vacri,,,1,TETUAN,CASTILLEJOS,,,,441449.98,4478898.27,-369056122,40.45868978,
17363,,VIDRIO,V2200CL,,,1,FUENCARRAL-EL PARDO,PEÑAGRANDE,,,,439027.59,4480553.05,-371928873,40.47342244,
17366,,VIDRIO,V2200CL,,,1,FUENCARRAL-EL PARDO,PEÑAGRANDE,,,,437488.19,4481275.85,-373751879,40.47981921,
17369,,VIDRIO,V2200CL,,,1,FUENCARRAL-EL PARDO,PEÑAGRANDE,,,,437488.19,4481275.85,-373751879,40.47981921,
17370,,VIDRIO,V2200CL,,,1,CHAMBERI,TRAFALGAR,,,,440426.1007,4476042.279,-370236851,40.43288902,
17372,,VIDRIO,V2200CL,,,1,FUENCARRAL-EL PARDO,PEÑAGRANDE,,,,438421.48,4481901.53,-372656939,40.48552527,
17373,,VIDRIO,V2200CL_vacri,,,1,TETUAN,CUATRO CAMINOS,,,,441044.84,4477779.26,-369523536,40.44858062,
17375,,VIDRIO,V2200CL,,,1,FUENCARRAL-EL PARDO,PEÑAGRANDE,,,,438828.1,4481220.27,-372170628,40.47941832,
17378,,VIDRIO,V2200CL,,,1,FUENCARRAL-EL PARDO,PEÑAGRANDE,,,,438828.1,4481220.27,-372170628,40.47941832,
17381,,VIDRIO,V2200CL,,,1,FUENCARRAL-EL PARDO,PEÑAGRANDE,,,,438127.77,4481548.46,-373000017,40.48232287,
17382,,VIDRIO,V2200CL,,,1,CHAMBERI,RIOS ROSAS,,,,441133.7611,4476964.51,-369411131,40.44124729,
17384,,VIDRIO,V2200CL,,,1,FUENCARRAL-EL PARDO,PEÑAGRANDE,,,,438967.95,4481820.7,-372011426,40.48483748,
17385,,VIDRIO,V2200CL_vacri,,,1,TETUAN,CASTILLEJOS,,,,441378.13,4479440.97,-369145871,40.46357359,
17387,,VIDRIO,V2200CL,,,1,FUENCARRAL-EL PARDO,PEÑAGRANDE,,,,439110.09,4480635.86,-371832350,40.47417447,
17390,,VIDRIO,V2200CL,,,1,FUENCARRAL-EL PARDO,PILAR,,,,439974.34,4481805.0,-370823929,40.48476942,
17391,,VIDRIO,V2200CL,,,1,CHAMBERI,VALLEHERMOSO,,,,439094.2168,4477418.367,-371820200,40.44518892,
17393,,VIDRIO,V2200CL,,,1,FUENCARRAL-EL PARDO,PEÑAGRANDE,,,,438886.73,4481102.66,-372100328,40.47836316,
17394,,VIDRIO,V2200CL_vacri,,,1,TETUAN,CASTILLEJOS,,,,441141.23,4479351.74,-369424453,40.46275302,
17396,,VIDRIO,V2200CL,,,1,FUENCARRAL-EL PARDO,PEÑAGRANDE,,,,438834.19,4481343.52,-372164633,40.48052904,
17399,,VIDRIO,V2200CL,,,1,FUENCARRAL-EL PARDO,PEÑAGRANDE,,,,438609.95,4481899.62,-372434560,40.48552203,
17400,,VIDRIO,V2200CL,,,1,CHAMBERI,VALLEHERMOSO,,,,439094.2168,4477418.367,-371820200,40.44518892,
17402,,VIDRIO,V2200CL,,,1,FUENCARRAL-EL PARDO,PILAR,,,,439518.72,4480982.87,-371353631,40.47733032,
17405,,VIDRIO,V2200CL,,,1,FUENCARRAL-EL PARDO,PILAR,,,,439985.65,4480449.48,-370797756,40.47255922,
17406,,VIDRIO,V2200CL,,,1,CHAMBERI,VALLEHERMOSO,,,,439740.6256,4477574.149,-371059488,40.44663938,
17408,,VIDRIO,V2200CL,,,1,FUENCARRAL-EL PARDO,PILAR,,,,439985.65,4480449.48,-370797756,40.47255922,
17411,,VIDRIO,V2200CL,,,1,FUENCARRAL-EL PARDO,PILAR,,,,439703.7889,4480767.628,-371133263,40.4754048,
17413,,VIDRIO,V2200CL,,,1,FUENCARRAL-EL PARDO,MIRASIERRA,,,,437953.8496,4482393.445,-373213472,40.48992178,
17414,,VIDRIO,V2200CL,,,1,FUENCARRAL-EL PARDO,PILAR,,,,439680.09,4480836.7,-371161876,40.47602531,
17416,,VIDRIO,V2200CL,,,1,FUENCARRAL-EL PARDO,LA PAZ,,,,440587.7243,4480832.026,-370091135,40.47604862,
17417,,VIDRIO,V2200CL,,,1,FUENCARRAL-EL PARDO,PILAR,,,,440311.99,4481130.35,-370419215,40.47871627,
17419,,VIDRIO,V2200CL,,,1,FUENCARRAL-EL PARDO,LA PAZ,,,,440587.7243,4480832.026,-370091135,40.47604862,
17420,,VIDRIO,V2200CL,,,1,FUENCARRAL-EL PARDO,PILAR,,,,439765.6,4480460.06,-371057427,40.4726386,
17422,,VIDRIO,V2200CL,,,1,FUENCARRAL-EL PARDO,PILAR,,,,439574.9718,4481407.244,-371291316,40.48115732,
17423,,VIDRIO,V2200CL,,,1,FUENCARRAL-EL PARDO,PILAR,,,,439327.85,4481144.92,-371580346,40.4787762,
17425,,VIDRIO,V2200CL,,,1,FUENCARRAL-EL PARDO,PILAR,,,,440093.23,4481142.14,-370677398,40.47880673,
17426,,VIDRIO,V2200CL,,,1,FUENCARRAL-EL PARDO,PILAR,,,,439590.06,4481023.27,-371269857,40.47769945,
17428,,VIDRIO,V2200CL,,,1,FUENCARRAL-EL PARDO,PILAR,,,,440038.5395,4480837.913,-370739040,40.47606219,
17429,,VIDRIO,V2200CL,,,1,FUENCARRAL-EL PARDO,PILAR,,,,440112.29,4480462.31,-370648493,40.47268394,
17432,,VIDRIO,V2200CL,,,1,FUENCARRAL-EL PARDO,PILAR,,,,439825.75,4480422.89,-370986121,40.47230812,
17435,,VIDRIO,V2200CL,,,1,FUENCARRAL-EL PARDO,PILAR,,,,439481.09,4481220.33,-371400288,40.4794667,
17438,,VIDRIO,V2200CL,,,1,FUENCARRAL-EL PARDO,PILAR,,,,439830.9,4480778.58,-370983421,40.47551268,
17441,,VIDRIO,V2200CL,,,1,FUENCARRAL-EL PARDO,PILAR,,,,439628.8,4480423.25,-371218445,40.47229707,
17444,,VIDRIO,V2200CL,,,1,FUENCARRAL-EL PARDO,PILAR,,,,439420.76,4480790.31,-371467352,40.47558853,
17447,,VIDRIO,V2200CL,,,1,FUENCARRAL-EL PARDO,PILAR,,,,440291.86,4480648.56,-370438426,40.47437468,
17449,,VIDRIO,V2200CL,,,1,FUENCARRAL-EL PARDO,PILAR,,,,440291.86,4480648.56,-370438426,40.47437468,
17451,,VIDRIO,V2200CL,,,1,FUENCARRAL-EL PARDO,PILAR,,,,439485.08,4480996.11,-371393441,40.47744714,
17454,,VIDRIO,V2200CL,,,1,FUENCARRAL-EL PARDO,PILAR,,,,439587.29,4480535.26,-371268476,40.47330308,
17456,,VIDRIO,V2200CL,,,1,FUENCARRAL-EL PARDO,PILAR,,,,440282.59,4480902.97,-370451757,40.47666583,
17457,,VIDRIO,V2200CL,,,1,FUENCARRAL-EL PARDO,PILAR,,,,440420.72,4480727.89,-370287165,40.47509857,
17458,,VIDRIO,V2200CL,,,1,FUENCARRAL-EL PARDO,PILAR,,,,439429.67,4480836.94,-371457287,40.47600924,
17459,,VIDRIO,V2200CL,,,1,FUENCARRAL-EL PARDO,PILAR,,,,439560.43,4480881.71,-371303462,40.47642207,
17460,,VIDRIO,V2200CL,,,1,FUENCARRAL-EL PARDO,PILAR,,,,439568.99,4480692.27,-371291559,40.47471615,
17461,,VIDRIO,V2200CL,,,1,FUENCARRAL-EL PARDO,PILAR,,,,439653.97,4480980.12,-371194053,40.47731539,
17462,,VIDRIO,V2200CL,,,1,FUENCARRAL-EL PARDO,PILAR,,,,440165.97,4480871.41,-370589032,40.47637313,
17463,,VIDRIO,V2200CL,,,1,FUENCARRAL-EL PARDO,PILAR,,,,440283.0079,4480901.813,-370451253,40.47665544,
17465,,VIDRIO,V2200CL,,,1,FUENCARRAL-EL PARDO,PILAR,,,,439955.33,4481124.0,-370839908,40.47863336,
17467,,VIDRIO,V2200CL,,,1,FUENCARRAL-EL PARDO,LA PAZ,,,,441094.43,4481658.59,-369501074,40.48353073,
17468,,VIDRIO,V2200CL,,,1,FUENCARRAL-EL PARDO,PILAR,,,,439840.4917,4481573.211,-370979645,40.4826717,
17469,,VIDRIO,V2200CL,,,1,FUENCARRAL-EL PARDO,PILAR,,,,440014.98,4480633.8,-370764902,40.47422176,
17470,,VIDRIO,V2200CL,,,1,FUENCARRAL-EL PARDO,PILAR,,,,439612.55,4481106.42,-371244118,40.47845013,
17471,,VIDRIO,V2200CL,,,1,FUENCARRAL-EL PARDO,LA PAZ,,,,441049.1178,4481412.736,-369552247,40.48131277,
17472,,VIDRIO,V2200CL,,,1,FUENCARRAL-EL PARDO,LA PAZ,,,,441048.5448,4481412.74,-369552923,40.48131276,
17473,,VIDRIO,V2200CL,,,1,FUENCARRAL-EL PARDO,LA PAZ,,,,440508.16,4480989.71,-370186473,40.47746341,
17474,,VIDRIO,V2200CL,,,1,FUENCARRAL-EL PARDO,LA PAZ,,,,440508.16,4480989.71,-370186473,40.47746341,
17475,,VIDRIO,V2200CL,,,1,FUENCARRAL-EL PARDO,LA PAZ,,,,440631.23,4481999.65,-370050747,40.48657014,
17476,,VIDRIO,V2200CL,,,1,FUENCARRAL-EL PARDO,LA PAZ,,,,440425.36,4481886.81,-370292580,40.48553888,
17477,,VIDRIO,V2200CL,,,1,FUENCARRAL-EL PARDO,LA PAZ,,,,440123.71,4481768.81,-370647359,40.4844542,
17478,,VIDRIO,V2200CL,,,1,FUENCARRAL-EL PARDO,LA PAZ,,,,440425.36,4481886.81,-370292580,40.48553888,
17479,,VIDRIO,V2200CL,,,1,FUENCARRAL-EL PARDO,LA PAZ,,,,440618.44,4482184.09,-370067565,40.48823072,
17480,,VIDRIO,V2200CL,,,1,FUENCARRAL-EL PARDO,LA PAZ,,,,440279.25,4481664.04,-370462865,40.48352159,
17481,,VIDRIO,V2200CL,,,1,FUENCARRAL-EL PARDO,LA PAZ,,,,440279.25,4481664.04,-370462865,40.48352159,
17482,,VIDRIO,V2200CL,,,1,FUENCARRAL-EL PARDO,LA PAZ,,,,440973.8,4481962.23,-369646219,40.48625747,
17483,,VIDRIO,V2200CL,,,1,FUENCARRAL-EL PARDO,LA PAZ,,,,441207.79,4481590.61,-369366702,40.48292638,
17484,,VIDRIO,V2200CL,,,1,FUENCARRAL-EL PARDO,LA PAZ,,,,440451.84,4481952.19,-370261952,40.48612975,
17485,,VIDRIO,V2200CL,,,1,FUENCARRAL-EL PARDO,LA PAZ,,,,441207.79,4481590.61,-369366702,40.48292638,
17486,,VIDRIO,V2200CL,,,1,FUENCARRAL-EL PARDO,LA PAZ,,,,440646.9809,4481259.49,-370025233,40.47990363,
17487,,VIDRIO,V2200CL,,,1,FUENCARRAL-EL PARDO,LA PAZ,,,,440398.0,4481215.87,-370318552,40.47949285,
17488,,VIDRIO,V2200CL,,,1,FUENCARRAL-EL PARDO,LA PAZ,,,,440437.13,4480952.59,-370269917,40.47712393,
17489,,VIDRIO,V2200CL,,,1,FUENCARRAL-EL PARDO,LA PAZ,,,,441125.15,4481548.72,-369463810,40.48254316,
17490,,VIDRIO,V2200CL,,,1,FUENCARRAL-EL PARDO,LA PAZ,,,,440141.63,4481935.57,-370627792,40.48595772,
17491,,VIDRIO,V2200CL,,,1,FUENCARRAL-EL PARDO,LA PAZ,,,,441125.15,4481548.72,-369463810,40.48254316,
17492,,VIDRIO,V2200CL,,,1,FUENCARRAL-EL PARDO,LA PAZ,,,,440310.92,4481833.5,-370427097,40.48505043,
17493,,VIDRIO,V2200CL,,,1,FUENCARRAL-EL PARDO,LA PAZ,,,,440692.6759,4481867.388,-369977013,40.48538306,
17494,,VIDRIO,V2200CL,,,1,FUENCARRAL-EL PARDO,LA PAZ,,,,440286.86,4481548.26,-370452797,40.48247915,
17495,,VIDRIO,V2200CL,,,1,FUENCARRAL-EL PARDO,LA PAZ,,,,440851.56,4481480.18,-369785945,40.48190628,
17496,,VIDRIO,V2200CL,,,1,FUENCARRAL-EL PARDO,LA PAZ,,,,440678.85,4480916.4,-369984427,40.47681522,
17497,,VIDRIO,V2200CL,,,1,FUENCARRAL-EL PARDO,LA PAZ,,,,440618.46,4481704.94,-370063052,40.48391437,
17498,,VIDRIO,V2200CL,,,1,FUENCARRAL-EL PARDO,LA PAZ,,,,440695.09,4482127.99,-369976603,40.48773083,
17499,,VIDRIO,V2200CL,,,1,FUENCARRAL-EL PARDO,LA PAZ,,,,440086.67,4481818.22,-370691526,40.48489663,
17500,,VIDRIO,V2200CL,,,1,FUENCARRAL-EL PARDO,LA PAZ,,,,440698.23,4480738.29,-369959900,40.47521212,
20403,,VIDRIO,V2200CL_vacri,,,1,CHAMBERI,RIOS ROSAS,,,,440763.14,4477044.59,-369848859,40.44194236,
20409,,VIDRIO,V2200CL_vacri,,,1,CHAMBERI,RIOS ROSAS,,,,440763.14,4477044.59,-369848859,40.44194236,
25631,,VIDRIO,V2200CL_vacri,,,1,MONCLOA - ARAVACA,CASA DE CAMPO,,,,437660.88,4474395.67,-373480618,40.41785306,
25632,,VIDRIO,V2200CL,,,1,MONCLOA - ARAVACA,CASA DE CAMPO,,,,438717.23,4474891.94,-372240349,40.42240214,
25634,,VIDRIO,V2200CL,,,1,MONCLOA - ARAVACA,CIUDAD UNIVERSITARIA,,,,438222.12,4477144.04,-372845832,40.44265334,
25637,,VIDRIO,V2200CL_vacri,,,1,MONCLOA - ARAVACA,ARGÜELLES,,,,439448.6698,4474990.551,-371379128,40.42334402,
25638,,VIDRIO,V2200CL,,,1,MONCLOA - ARAVACA,CASA DE CAMPO,,,,437780.33,4474692.89,-373342738,40.42053948,
25641,,VIDRIO,V2200CL,,,1,MONCLOA - ARAVACA,VALDEMARIN,,,,434939.48,4480199.99,-376747578,40.46993182,
25642,,VIDRIO,V2200CL_vacri,,,1,MONCLOA - ARAVACA,VALDEMARIN,,,,433170.5083,4479675.114,-378828604,40.46506318,
25643,,VIDRIO,V2200CL,,,1,MONCLOA - ARAVACA,CIUDAD UNIVERSITARIA,,,,436456.2975,4478339.07,-374939805,40.45328549,
25644,,VIDRIO,V2200CL_vacri,,,1,MONCLOA - ARAVACA,VALDEMARIN,,,,433170.5083,4479675.114,-378828604,40.46506318,
25645,,VIDRIO,V2200CL,,,1,MONCLOA - ARAVACA,EL PLANTIO,,,,429837.11,4480305.61,-382767100,40.47046796,
25646,,VIDRIO,V2200CL,,,1,MONCLOA - ARAVACA,CASA DE CAMPO,,,,438587.62,4475031.19,-372394467,40.423647,
25647,,VIDRIO,V2200CL,,,1,MONCLOA - ARAVACA,VALDEZARZA,,,,438976.2096,4479835.705,-371982581,40.46695657,
25650,,VIDRIO,V2200CL,,,1,MONCLOA - ARAVACA,EL PLANTIO,,,,431487.9,4479680.55,-380813195,40.4649751,
25653,,VIDRIO,V2200CL,,,1,MONCLOA - ARAVACA,VALDEZARZA,,,,439832.05,4479572.27,-370970623,40.46464587,
25654,,VIDRIO,V2200CL,,,1,MONCLOA - ARAVACA,VALDEZARZA,,,,439821.16,4479076.13,-370978763,40.46017566,
25655,,VIDRIO,V2200CL,,,1,MONCLOA - ARAVACA,ARAVACA,,,,432983.49,4478591.85,-379037743,40.45528983,
25657,,VIDRIO,V2200CL,,,1,MONCLOA - ARAVACA,ARAVACA,,,,432876.9203,4478960.283,-379167313,40.45860017,
25661,,VIDRIO,V2200CL,,,1,MONCLOA - ARAVACA,CIUDAD UNIVERSITARIA,,,,439585.64,4477583.2,-371242324,40.44670966,
25663,,VIDRIO,V2200CL,,,1,MONCLOA - ARAVACA,VALDEZARZA,,,,439506.36,4479737.0,-371356330,40.46610617,
25665,,VIDRIO,V2200CL,,,1,MONCLOA - ARAVACA,VALDEZARZA,,,,438700.97,4480242.82,-372311158,40.47060374,
25667,,VIDRIO,V2200CL,,,1,MONCLOA - ARAVACA,VALDEZARZA,,,,438715.19,4480127.68,-372293272,40.46956757,
25668,,VIDRIO,V2200CL,,,1,MONCLOA - ARAVACA,CASA DE CAMPO,,,,438731.83,4474847.22,-372222709,40.42200036,
25670,,VIDRIO,V2200CL,,,1,MONCLOA - ARAVACA,VALDEZARZA,,,,438713.48,4479964.74,-372293715,40.46809962,
25672,,VIDRIO,V2200CL,,,1,MONCLOA - ARAVACA,CASA DE CAMPO,,,,438731.83,4474847.22,-372222709,40.42200036,
25674,,VIDRIO,V2200CL,,,1,MONCLOA - ARAVACA,CASA DE CAMPO,,,,437842.2662,4474065.611,-373263605,40.41489333,
25676,,VIDRIO,V2200CL,,,1,MONCLOA - ARAVACA,ARGÜELLES,,,,438952.3,4475906.93,-371973015,40.43156288,
25677,,VIDRIO,V2200CL,,,1,MONCLOA - ARAVACA,CASA DE CAMPO,,,,437842.2662,4474065.611,-373263605,40.41489333,
25678,,VIDRIO,V2200CL,,,1,MONCLOA - ARAVACA,CASA DE CAMPO,,,,437590.32,4475870.71,-373578260,40.43113552,
25680,,VIDRIO,V2200CL,,,1,MONCLOA - ARAVACA,CASA DE CAMPO,,,,437749.5,4475483.48,-373386816,40.42765913,
25683,,VIDRIO,V2200CL,,,1,MONCLOA - ARAVACA,CASA DE CAMPO,,,,438347.03,4475286.5,-372680535,40.42592915,
25684,,VIDRIO,V2200CL,,,1,MONCLOA - ARAVACA,VALDEZARZA,,,,439879.22,4479189.72,-370911364,40.46120312,
25685,,VIDRIO,V2200CL,,,1,MONCLOA - ARAVACA,CASA DE CAMPO,,,,438347.03,4475286.5,-372680535,40.42592915,
25687,,VIDRIO,V2200CL,,,1,MONCLOA - ARAVACA,CASA DE CAMPO,,,,438061.77,4475648.41,-373020318,40.42916819,
25691,,VIDRIO,V2200CL,,,1,MONCLOA - ARAVACA,ARAVACA,,,,434659.77,4478714.34,-377062209,40.45652674,
25693,,VIDRIO,V2200CL,,,1,MONCLOA - ARAVACA,CASA DE CAMPO,,,,437800.87,4476056.09,-373331864,40.43282127,
25695,,VIDRIO,V2200CL,,,1,MONCLOA - ARAVACA,CIUDAD UNIVERSITARIA,,,,438080.65,4476859.55,-373009862,40.44008002,
25696,,VIDRIO,V2200CL,,,1,MONCLOA - ARAVACA,CASA DE CAMPO,,,,437800.87,4476056.09,-373331864,40.43282127,
25697,,VIDRIO,V2200CL,,,1,MONCLOA - ARAVACA,CIUDAD UNIVERSITARIA,,,,438169.99,4480376.48,-372938781,40.47176844,
25700,,VIDRIO,V2200CL,,,1,MONCLOA - ARAVACA,CIUDAD UNIVERSITARIA,,,,438370.0,4479634.44,-372695646,40.46509875,
25701,,VIDRIO,V2200CL,,,1,MONCLOA - ARAVACA,VALDEZARZA,,,,438865.7,4479683.31,-372111458,40.46557561,
25702,,VIDRIO,V2200CL,,,1,MONCLOA - ARAVACA,CIUDAD UNIVERSITARIA,,,,438284.29,4478490.31,-372785613,40.45478566,
25703,,VIDRIO,V2200CL,,,1,MONCLOA - ARAVACA,CIUDAD UNIVERSITARIA,,,,438511.2902,4478429.009,-372517322,40.45425026,
25706,,VIDRIO,V2200CL,,,1,MONCLOA - ARAVACA,VALDEZARZA,,,,438831.35,4479866.38,-372153738,40.46722224,
25708,,VIDRIO,V2200CL,,,1,MONCLOA - ARAVACA,EL PLANTIO,,,,429282.48,4480614.7,-383424745,40.47320524,
25709,,VIDRIO,V2200CL,,,1,MONCLOA - ARAVACA,EL PLANTIO,,,,429091.753,4480672.748,-383650370,40.47371188,
25713,,VIDRIO,V2200CL,,,1,MONCLOA - ARAVACA,CIUDAD UNIVERSITARIA,,,,439175.04,4477714.02,-371727732,40.4478582,
25714,,VIDRIO,V2200CL,,,1,MONCLOA - ARAVACA,ARAVACA,,,,433549.58,4478942.87,-378373843,40.45849736,
25717,,VIDRIO,V2200CL_vacri,,,1,MONCLOA - ARAVACA,ARAVACA,,,,435697.0829,4478195.294,-375833649,40.45193193,
25718,,VIDRIO,V2200CL,,,1,MONCLOA - ARAVACA,CIUDAD UNIVERSITARIA,,,,438566.3116,4478746.719,-372455511,40.45711638,
25721,,VIDRIO,V2200CL,,,1,MONCLOA - ARAVACA,ARAVACA,,,,433599.37,4478727.55,-378312872,40.45656169,
25722,,VIDRIO,V2200CL,,,1,MONCLOA - ARAVACA,ARAVACA,,,,433637.9037,4478809.541,-378268287,40.45730336,
25725,,VIDRIO,V2200CL,,,1,MONCLOA - ARAVACA,ARAVACA,,,,434535.37,4478003.82,-377201588,40.45011639,
25727,,VIDRIO,V2200CL,,,1,MONCLOA - ARAVACA,ARAVACA,,,,434535.37,4478003.82,-377201588,40.45011639,
25728,,VIDRIO,V2200CL,,,1,MONCLOA - ARAVACA,VALDEMARIN,,,,433001.7593,4479730.5,-379028218,40.46554852,
25976,,VIDRIO,V2200CL,,,1,MONCLOA - ARAVACA,ARAVACA,,,,433330.5244,4478730.266,-378629949,40.45656463,
25978,,VIDRIO,V2200CL,,,1,MONCLOA - ARAVACA,CASA DE CAMPO,,,,438942.04,4474922.03,-371975651,40.42268973,
25980,,VIDRIO,V2200CL,,,1,MONCLOA - ARAVACA,CIUDAD UNIVERSITARIA,,,,439340.0355,4478496.267,-371540649,40.45491705,
25983,,VIDRIO,V2200CL,,,1,MONCLOA - ARAVACA,CIUDAD UNIVERSITARIA,,,,437833.64,4476902.57,-373301513,40.44044913,
25990,,VIDRIO,V2200CL,,,1,MONCLOA - ARAVACA,ARAVACA,,,,434819.46,4479146.37,-376878323,40.46043112,
25994,,VIDRIO,V2200CL,,,1,MONCLOA - ARAVACA,ARGÜELLES,,,,439038.87,4475776.71,-371869711,40.43039615,
25995,,VIDRIO,V2200CL,,,1,MONCLOA - ARAVACA,CIUDAD UNIVERSITARIA,,,,438491.76,4477253.01,-372528964,40.44365497,
25997,,VIDRIO,V2200CL,,,1,MONCLOA - ARAVACA,CIUDAD UNIVERSITARIA,,,,438329.986,4477951.463,-372726491,40.44993491,
25999,,VIDRIO,V2200CL,,,1,MONCLOA - ARAVACA,VALDEZARZA,,,,439038.66,4480139.26,-371911838,40.46969568,
26004,,VIDRIO,V2200CL,,,1,MONCLOA - ARAVACA,ARAVACA,,,,434869.61,4478042.01,-376807848,40.45048667,
26007,,VIDRIO,V2200CL,,,1,MONCLOA - ARAVACA,CIUDAD UNIVERSITARIA,,,,437966.5,4477539.8,-373151090,40.44619946,
26009,,VIDRIO,V2200CL,,,1,MONCLOA - ARAVACA,CASA DE CAMPO,,,,438295.7597,4475162.006,-372739763,40.42480386,
26010,,VIDRIO,V2200CL,,,1,MONCLOA - ARAVACA,CIUDAD UNIVERSITARIA,,,,438589.45,4477780.28,-372418877,40.44841204,
26012,,VIDRIO,V2200CL_vacri,,,1,MONCLOA - ARAVACA,ARGÜELLES,,,,439207.32,4475237.76,-371665979,40.42555339,
26013,,VIDRIO,V2200CL,,,1,MONCLOA - ARAVACA,CASA DE CAMPO,,,,438671.39,4475216.8,-372297515,40.42532524,
26014,,VIDRIO,V2200CL,,,1,MONCLOA - ARAVACA,CASA DE CAMPO,,,,438212.69,4475354.55,-372839553,40.42653221,
26017,,VIDRIO,V2200CL,,,1,MONCLOA - ARAVACA,CASA DE CAMPO,,,,438043.2,4475533.77,-373041092,40.42813409,
26019,,VIDRIO,V2200CL,,,1,MONCLOA - ARAVACA,CIUDAD UNIVERSITARIA,,,,437289.1004,4477841.072,-373952805,40.4488626,
26020,,VIDRIO,V2200CL,,,1,MONCLOA - ARAVACA,ARAVACA,,,,432530.85,4479226.97,-379578278,40.46097451,
26023,,VIDRIO,V2200CL,,,1,MONCLOA - ARAVACA,CIUDAD UNIVERSITARIA,,,,437670.21,4476512.7,-373490377,40.4369248,
26024,,VIDRIO,V2200CL,,,1,MONCLOA - ARAVACA,VALDEMARIN,,,,433594.35,4479739.56,-378329381,40.46567771,
26026,,VIDRIO,V2200CL,,,1,MONCLOA - ARAVACA,VALDEMARIN,,,,433594.35,4479739.56,-378329381,40.46567771,
26028,,VIDRIO,V2200CL,,,1,MONCLOA - ARAVACA,CASA DE CAMPO,,,,438322.17,4475108.13,-372708109,40.42432048,
